STATION_NAME,site,Label,STATION_NAME_FULL,EMS_ID,NAPS_ID,SERIAL,CITY,LAT,LONG,ELEVATION,STATUS_DESCRIPTION,OWNER,REGION,STATUS,OPENED,CLOSED,LASTREPORT,AIRZONE,pm25,o3,so2,no2,Site_Type,Urbanization,Neighbourhood,Land_Use,Scale,CD,CSD,CMA.CA,Core_Site,AQMS
100 Mile House,100 Mile House,100 Mile House,100 Mile House,M116006,NA,374,100 Mile House,51.6542,-121.375,1000,NON OPERATIONAL,ENV,05 - Cariboo,INACTIVE,1992-11-11T00:00:00Z,NA,NA,Central Interior,NA,NA,NA,NA,NA,NA,NA,NA,NA,NA,NA,NA,NA,NA
100 Mile House BCAC,100 Mile House BCAC,100 Mile House BCAC,100 Mile House BCAC,E218444,NA,228,100 MIle House,51.6461,-121.937,0,NON OPERATIONAL,ENV,05 - Cariboo,INACTIVE,2010-02-16T00:00:00Z,NA,NA,Central Interior,NA,NA,NA,NA,NA,NA,NA,NA,NA,NA,NA,NA,NA,NA
Abbotsford A Columbia Street,Abbotsford A Columbia Street,Abbotsford-Airport,Abbotsford A Columbia Street,E289309,NA,428,Abbotsford,49.0215,-122.3266,65,METRO VANCOUVER,MVRD,02 - Lower Mainland,ACTIVE,2012-07-25T00:00:00Z,NA,CURRENT,Lower Fraser Valley,Y,Y,Y,Y,NA,NA,NA,NA,NA,NA,NA,NA,NA,NA
Abbotsford A Columbia Street,Abbotsford A Columbia Street,Abbotsford-Airport,Abbotsford A Columbia Street Met,E289309,NA,429,Abbotsford,49.0215,-122.3266,65,METRO VANCOUVER,MVRD,02 - Lower Mainland,ACTIVE,2012-07-25T00:00:00Z,NA,CURRENT,Lower Fraser Valley,Y,Y,Y,Y,NA,NA,NA,NA,NA,NA,NA,NA,NA,NA
Abbotsford Airport,Abbotsford Airport,Abbotsford-Airport,Abbotsford Airport,310081,NA,306,Abbotsford,49.0306,-122.3761,40,NON OPERATIONAL,MVRD,02 - Lower Mainland,INACTIVE,1978-01-07T00:00:00Z,NA,NA,Lower Fraser Valley,NA,NA,NA,NA,NA,NA,NA,NA,NA,NA,NA,NA,NA,NA
Abbotsford Airport Walmsley Road,Abbotsford Airport Walmsley Road,Abbotsford-Airport,Abbotsford Airport Walmsley Road,E246240,NA,262,Aldergrove,49.0235,-122.343,65,METRO VANCOUVER NON OPERATIONAL,MVRD,02 - Lower Mainland,INACTIVE,2001-05-01T00:00:00Z,NA,39814,Lower Fraser Valley,Y,Y,N,Y,NA,NA,NA,NA,NA,NA,NA,NA,NA,NA
Abbotsford Central,Abbotsford Central,Abbotsford-Mill Lake,Abbotsford Central,E238212,NA,261,Abbotsford,49.0428,-122.3097,80,METRO VANCOUVER,MVRD,02 - Lower Mainland,ACTIVE,1998-09-17T00:00:00Z,NA,CURRENT,Lower Fraser Valley,Y,Y,Y,Y,NA,NA,NA,NA,NA,NA,NA,NA,NA,NA
Abbotsford Downtown,Abbotsford Downtown,Abbotsford-Downtown,Abbotsford Downtown,E217029,NA,307,Abbotsford,49.0492,-122.2922,20,NON OPERATIONAL,MVRD,02 - Lower Mainland,INACTIVE,1992-01-05T00:00:00Z,NA,36053,Lower Fraser Valley,N,Y,Y,Y,NA,NA,NA,NA,NA,NA,NA,NA,NA,NA
Agassiz Municipal Hall,Agassiz Municipal Hall,Agassiz,Agassiz Municipal Hall,E293810,NA,442,Agassiz,49.238032,-121.762334,23,METRO VANCOUVER,MVRD,02 - Lower Mainland,ACTIVE,2013-06-03T00:00:00Z,NA,CURRENT,Lower Fraser Valley,Y,Y,N,Y,NA,NA,NA,NA,NA,NA,NA,NA,NA,NA
Agassiz Municipal Hall,Agassiz Municipal Hall,Agassiz,Agassiz Municipal Hall Met,E293810,NA,443,Agassiz,49.238032,-121.762334,23,METRO VANCOUVER,MVRD,02 - Lower Mainland,ACTIVE,2013-06-07T00:00:00Z,NA,CURRENT,Lower Fraser Valley,Y,Y,N,Y,NA,NA,NA,NA,NA,NA,NA,NA,NA,NA
Ainsworth 100 Mile,Ainsworth 100 Mile,Ainsworth 100 Mile,Ainsworth 100 Mile Met 60,E230617,NA,22,100 Mile House,51.6534,-121.366,1063,NON OPERATIONAL,ENV,05 - Cariboo,INACTIVE,1998-09-30T00:00:00Z,NA,NA,Central Interior,NA,NA,NA,NA,NA,NA,NA,NA,NA,NA,NA,NA,NA,NA
Alex Fraser Bridge,Alex Fraser Bridge,Alex Fraser Bridge,Alex Fraser Bridge,E288890,NA,426,Delta,49.1592,-122.9422,160,METRO VANCOUVER NON OPERATIONAL,MVRD,02 - Lower Mainland,INACTIVE,2012-01-01T00:00:00Z,NA,NA,Lower Fraser Valley,NA,NA,NA,NA,NA,NA,NA,NA,NA,NA,NA,NA,NA,NA
Anmore,Anmore,Anmore,Anmore,310167,NA,308,Anmore,49.3111,-122.8583,174,METRO VANCOUVER NON OPERATIONAL,MVRD,02 - Lower Mainland,INACTIVE,1980-01-08T00:00:00Z,NA,35801,Lower Fraser Valley,N,Y,Y,Y,NA,NA,NA,NA,NA,NA,NA,NA,NA,NA
Annacis Island,Annacis Island,Annacis Island,Annacis Island,M110514,NA,309,Vancouver,49.1597,-122.9422,160,NON OPERATIONAL,ENV,02 - Lower Mainland,INACTIVE,1986-08-09T00:00:00Z,NA,NA,Lower Fraser Valley,NA,NA,NA,NA,NA,NA,NA,NA,NA,NA,NA,NA,NA,NA
Annacis Island Metro Van Inst Shop,Annacis Island Metro Van Inst Shop,Annacis Island-Metro Van Inst Shop,Annacis Island Metro Van Inst Shop,E289310,NA,427,Delta,49.1658,-122.9606,6,METRO VANCOUVER NON OPERATIONAL,MVRD,02 - Lower Mainland,INACTIVE,2012-03-12T00:00:00Z,NA,NA,Lower Fraser Valley,NA,NA,NA,NA,NA,NA,NA,NA,NA,NA,NA,NA,NA,NA
Armstrong Riverside,Armstrong Riverside,Armstrong Riverside,Armstrong Riverside,E259717,NA,218,Armstrong,50.3833,-119.2283,416,NON OPERATIONAL,ENV,03 - Southern Interior,INACTIVE,2010-02-16T00:00:00Z,NA,NA,Southern Interior,NA,NA,NA,NA,NA,NA,NA,NA,NA,NA,NA,NA,NA,NA
Ashcroft Ranch,Ashcroft Ranch,Ashcroft Ranch,Ashcroft Ranch,E296510,NA,459,None,50.704444,-121.34083,565,METRO VANCOUVER NON OPERATIONAL,MVRD,02 - Lower Mainland,INACTIVE,2014-02-28T00:00:00Z,NA,NA,Southern Interior,NA,NA,NA,NA,NA,NA,NA,NA,NA,NA,NA,NA,NA,NA
Bessborough 237 Road,Bessborough 237 Road,Bessborough,Bessborough 237 Road,E295729,104303,450,None,55.791944,-120.483611,665,OPERATIONAL,INDUSTRY,07 - Omineca-Peace,ACTIVE,2013-11-26T00:00:00Z,NA,CURRENT,Northeast,N,N,Y,N,RB,NU,P1,A,MD,55. Peace River D,"Peace River D, RDA 55 021",NA,NA,N
Birchbank Golf Course,Birchbank Golf Course,Birchbank Golf Course,Birchbank Golf Course,E257435,102230,520,Trail,49.157855,-117.73312,483,OPERATIONAL,INDUSTRY,04 - Kootenay,ACTIVE,2016-01-01T00:00:00Z,NA,CURRENT,Southern Interior,N,N,Y,N,T,SU,P2,C,NE,05. Kootenay Boundary,"Kootenay Boundary B, RDA 05 030",NA,NA,N
Birchbank Golf Course,Birchbank Golf Course,Birchbank Golf Course,Birchbank Golf Course 60,E257435,102230,97,Trail,49.157855,-117.73312,483,OPERATIONAL,INDUSTRY,04 - Kootenay,ACTIVE,2004-08-11T00:00:00Z,NA,CURRENT,Southern Interior,N,N,Y,N,T,SU,P2,C,NE,05. Kootenay Boundary,"Kootenay Boundary B, RDA 05 030",NA,NA,N
Birchbank Golf Course,Birchbank Golf Course,Birchbank Golf Course,Birchbank Golf Course OLD,E257435,102230,274,Genelle,49.1581,-117.7331,527,NON OPERATIONAL,INDUSTRY,04 - Kootenay,INACTIVE,2010-07-15T00:00:00Z,NA,CURRENT,Southern Interior,N,N,Y,N,T,SU,P2,C,NE,05. Kootenay Boundary,"Kootenay Boundary B, RDA 05 030",NA,NA,N
Blueberry River First Nation School,Blueberry River First Nation School,Blueberry River,Blueberry River First Nation School,E306063,NA,510,Buick,56.701655,-121.10429,675,NON OPERATIONAL,ENV,07 - Omineca-Peace,INACTIVE,2016-06-23T00:00:00Z,NA,43068,Northeast,N,Y,Y,Y,NA,NA,NA,NA,NA,NA,NA,NA,NA,NA
Blueberry River First Nation School,Blueberry River First Nation School,Blueberry River,Blueberry River First Nation School 60,E306063,NA,513,Buick,56.701655,-121.10429,675,NON OPERATIONAL,ENV,07 - Omineca-Peace,INACTIVE,2016-06-23T00:00:00Z,NA,43068,Northeast,N,Y,Y,Y,NA,NA,NA,NA,NA,NA,NA,NA,NA,NA
Boston Bar RCMP Station,Boston Bar RCMP Station,Boston Bar RCMP Station,Boston Bar RCMP Station,E238240,NA,310,Boston Bar,49.8658,-121.4425,180,NON OPERATIONAL,ENV,02 - Lower Mainland,INACTIVE,1999-08-07T00:00:00Z,NA,NA,Lower Fraser Valley,NA,NA,NA,NA,NA,NA,NA,NA,NA,NA,NA,NA,NA,NA
Brilliant,Brilliant,Brilliant,Brilliant,M114017,NA,349,Castlegar,49.3217,-117.6403,0,NON OPERATIONAL,ENV,04 - Kootenay,INACTIVE,1993-12-05T00:00:00Z,NA,NA,Southern Interior,NA,NA,NA,NA,NA,NA,NA,NA,NA,NA,NA,NA,NA,NA
Buick Creek Elementary School,Buick Creek Elementary School,Buick Creek Elementary School,Buick Creek Elementary School,Buick OGC CAMEL,NA,504,Buick,56.759244,-121.274225,0,BC OGC MOBILE,BC OGC,07 - Omineca-Peace,INACTIVE,2015-02-04T00:00:00Z,2016-07-21T00:00:00Z,42572,Northeast,NA,NA,NA,NA,NA,NA,NA,NA,NA,NA,NA,NA,NA,NA
Burnaby Burmount,Burnaby Burmount,Burnaby-Burmount,Burnaby Burmount,E244515,NA,251,Burnaby,49.2667,-122.9356,101,METRO VANCOUVER,MVRD,02 - Lower Mainland,ACTIVE,2000-01-01T00:00:00Z,NA,NA,Lower Fraser Valley,NA,NA,NA,NA,NA,NA,NA,NA,NA,NA,NA,NA,NA,NA
Burnaby Confederation Park,Burnaby Confederation Park,Burnaby-Confederation Park,Burnaby Confederation Park,310178,NA,311,Burnaby,49.2833,-123.0208,101,METRO VANCOUVER NON OPERATIONAL,MVRD,02 - Lower Mainland,INACTIVE,1977-01-08T00:00:00Z,NA,36308,Lower Fraser Valley,N,Y,Y,Y,NA,NA,NA,NA,NA,NA,NA,NA,NA,NA
Burnaby Edmonds,Burnaby Edmonds,Burnaby-Edmonds,Burnaby Edmonds,E207420,NA,312,Burnaby,49.2056,-122.9519,113,METRO VANCOUVER NON OPERATIONAL,MVRD,02 - Lower Mainland,INACTIVE,1987-01-06T00:00:00Z,NA,34425,Lower Fraser Valley,N,N,N,Y,NA,NA,NA,NA,NA,NA,NA,NA,NA,NA
Burnaby Kensington Park,Burnaby Kensington Park,Burnaby-Kensington Park,Burnaby Kensington Park,310177,NA,242,Burnaby,49.2794,-122.9711,133,METRO VANCOUVER,MVRD,02 - Lower Mainland,ACTIVE,1975-01-03T00:00:00Z,NA,CURRENT,Lower Fraser Valley,Y,Y,Y,Y,NA,NA,NA,NA,NA,NA,NA,NA,NA,NA
Burnaby Mountain,Burnaby Mountain,Burnaby-Mtn,Burnaby Mountain,E206270,NA,313,Burnaby,49.2797,-122.9222,360,METRO VANCOUVER,MVRD,02 - Lower Mainland,ACTIVE,1984-01-01T00:00:00Z,NA,CURRENT,Lower Fraser Valley,N,Y,N,Y,NA,NA,NA,NA,NA,NA,NA,NA,NA,NA
Burnaby North Eton,Burnaby North Eton,Burnaby-North,Burnaby North Eton,E244517,NA,253,Burnaby,49.2875,-123.0078,70,METRO VANCOUVER,MVRD,02 - Lower Mainland,ACTIVE,2000-01-01T00:00:00Z,NA,CURRENT,Lower Fraser Valley,N,N,Y,N,NA,NA,NA,NA,NA,NA,NA,NA,NA,NA
Burnaby South,Burnaby South,Burnaby-South,Burnaby South,E207418,NA,249,Burnaby,49.2153,-122.9856,122,METRO VANCOUVER,MVRD,02 - Lower Mainland,ACTIVE,1987-01-06T00:00:00Z,NA,CURRENT,Lower Fraser Valley,Y,Y,Y,Y,NA,NA,NA,NA,NA,NA,NA,NA,NA,NA
Burns Lake Fire Centre,Burns Lake Fire Centre,Burns Lake,Burns Lake Fire Centre,E225267,105201,436,Burns Lake,54.2307,-125.7643,652,OPERATIONAL,ENV,06 - Skeena,ACTIVE,2013-02-15T00:00:00Z,NA,CURRENT,Central Interior,Y,N,N,N,T,SU,P2,R,NE,51. Bulkley-Nechako,"Burns Lake, VL 51 022",NA,NA,NA
Burns Lake Fire Centre,Burns Lake Fire Centre,Burns Lake,Burns Lake Fire Centre 60,E225267,105201,104,Burns Lake,54.230731,-125.764354,710,OPERATIONAL,ENV,06 - Skeena,ACTIVE,1997-01-03T00:00:00Z,NA,CURRENT,Central Interior,Y,N,N,N,T,SU,P2,R,NE,51. Bulkley-Nechako,"Burns Lake, VL 51 022",NA,NA,NA
Burns Lake Sheraton East,Burns Lake Sheraton East,Burns Lake-Sheraton East,Burns Lake Sheraton East Met 60,E292669,NA,439,Burns Lake,54.1527,-125.4495,679,OPERATIONAL,INDUSTRY,06 - Skeena,ACTIVE,2013-02-21T00:00:00Z,NA,NA,Central Interior,NA,NA,NA,NA,NA,NA,NA,NA,NA,NA,NA,NA,NA,NA
Campbell River Tyee Spit,Campbell River Tyee Spit,Campbell River Tyee Spit,Campbell River Tyee Spit,E229798,102802,24,Campbell River,50.0486,-125.2556,3,NON OPERATIONAL,INDUSTRY,01 - Vancouver Island,INACTIVE,1997-01-12T00:00:00Z,NA,40179,Georgia Strait,Y,N,N,N,PE,MU,P2,W,NE,25. Comox-Strathcona,"Campbell River, CY 25 034","944. Campbell River, CA/AR",NA,NA
Castlegar Columbia Basin Trust Bldg,Castlegar Columbia Basin Trust Bldg,Castlegar,Castlegar Columbia Basin Trust Bldg,E274406,NA,224,Castlegar,49.3256,-117.6667,458,NON OPERATIONAL,ENV,04 - Kootenay,INACTIVE,2010-02-16T00:00:00Z,NA,NA,Southern Interior,NA,NA,NA,NA,NA,NA,NA,NA,NA,NA,NA,NA,NA,NA
Castlegar Hospital,Castlegar Hospital,Castlegar-Columbia Basin Trust Bldg,Castlegar Hospital,260021,NA,26,Castlegar,49.3144,-117.6605,455,OPERATIONAL,INDUSTRY,04 - Kootenay,ACTIVE,1978-01-02T00:00:00Z,NA,NA,Southern Interior,NA,NA,NA,NA,NA,NA,NA,NA,NA,NA,NA,NA,NA,NA
Castlegar,Castlegar,Castlegar-Hospital,Castlegar Met,M114217,NA,350,Castlegar,49.3139,-117.6578,451,NON OPERATIONAL,ENV,04 - Kootenay,INACTIVE,1985-10-20T00:00:00Z,NA,NA,Southern Interior,NA,NA,NA,NA,NA,NA,NA,NA,NA,NA,NA,NA,NA,NA
Castlegar Zinio Park,Castlegar Zinio Park,Castlegar,Castlegar Zinio Park,E286369,103502,419,Castlegar,49.317698,-117.661527,407,OPERATIONAL,ENV,04 - Kootenay,ACTIVE,2011-07-15T00:00:00Z,NA,CURRENT,Southern Interior,Y,Y,Y,Y,PS,SU,P2,R,NE,03. Casltegar,"Castlegar, CY 03 058","907. Nelson, CA/AR",NA,NA
Celgar Pulp,Celgar Pulp,Celgar Pulp,Celgar Pulp Met 60,M114009,NA,98,Castlegar,49.3333,-117.7188,449,OPERATIONAL,INDUSTRY,04 - Kootenay,ACTIVE,1994-12-05T00:00:00Z,NA,NA,Southern Interior,NA,NA,NA,NA,NA,NA,NA,NA,NA,NA,NA,NA,NA,NA
Central Saanich Stellys Cross Road,Central Saanich Stellys Cross Road,Central Saanich Stellys Cross Road,Central Saanich Stellys Cross Road,E253229,NA,6,Victoria,48.58,-123.4422,60,NON OPERATIONAL,ENV,01 - Vancouver Island,INACTIVE,2003-08-09T00:00:00Z,NA,40239,Georgia Strait,Y,Y,N,Y,NA,NA,NA,NA,NA,NA,NA,NA,NA,NA
Central Saanich Stellys CrossRoad,Central Saanich Stellys CrossRoad,Central Saanich Stellys CrossRoad,Central Saanich Stellys CrossRoad 60,E253229,NA,166,Victoria,48.58,-123.4422,60,NON OPERATIONAL,ENV,01 - Vancouver Island,INACTIVE,2003-08-09T00:00:00Z,NA,NA,Georgia Strait,NA,NA,NA,NA,NA,NA,NA,NA,NA,NA,NA,NA,NA,NA
Chemainus Bare Point,Chemainus Bare Point,Chemainus Bare Point,Chemainus Bare Point 60,E284969,NA,411,Chemainus,48.9225,-123.7039,33,NON OPERATIONAL,INDUSTRY,01 - Vancouver Island,INACTIVE,2010-12-20T00:00:00Z,NA,NA,Georgia Strait,NA,NA,NA,NA,NA,NA,NA,NA,NA,NA,NA,NA,NA,NA
Chetwynd 51 Street,Chetwynd 51 Street,Chetwynd 51 Street,Chetwynd 51 Street,NA,NA,NA,NA,NA,NA,NA,NA,NA,NA,NA,NA,NA,NA,NA,NA,NA,NA,NA,NA,NA,NA,NA,NA,NA,NA,NA,NA,NA
Chetwynd 51 Street,Chetwynd 51 Street,Chetwynd 51 Street,Chetwynd 51 Street 60,NA,NA,NA,NA,NA,NA,NA,NA,NA,NA,NA,NA,NA,NA,NA,NA,NA,NA,NA,NA,NA,NA,NA,NA,NA,NA,NA,NA,NA
Chetwynd Airport Westgate Road,Chetwynd Airport Westgate Road,Chetwynd-Airport Westgate Road,Chetwynd Airport Westgate Road,Chetwynd OGC CAMEL,NA,555,Chetwynd,55.682131,-121.646006,0,BC OGC MOBILE,BC OGC,07 - Omineca-Peace,INACTIVE,2018-09-19T00:00:00Z,NA,NA,Northeast,NA,NA,NA,NA,NA,NA,NA,NA,NA,NA,NA,NA,NA,NA
Chetwynd Airport Westgate Road SG,Chetwynd Airport Westgate Road SG,Chetwynd-Airport Westgate Road_SG,Chetwynd Airport Westgate Road SG,Chetwynd OGC CAMEL,NA,508,Chetwynd,55.682131,-121.646006,0,BC OGC MOBILE,BC OGC,07 - Omineca-Peace,INACTIVE,2014-09-22T00:00:00Z,2015-01-11T00:00:00Z,42015,Northeast,NA,NA,NA,NA,NA,NA,NA,NA,NA,NA,NA,NA,NA,NA
Chetwynd SW BCOGC MAML,Chetwynd SW BCOGC MAML,Chetwynd-SW BCOGC MAML,Chetwynd SW BCOGC MAML,E299970,NA,470,None,55.682128,-121.646108,600,NON OPERATIONAL,INDUSTRY,07 - Omineca-Peace,INACTIVE,2014-09-22T00:00:00Z,2014-12-01T00:00:00Z,41974,Northeast,NA,NA,NA,NA,NA,NA,NA,NA,NA,NA,NA,NA,NA,NA
Chilliwack Airport,Chilliwack Airport,Chilliwack,Chilliwack Airport,E220891,NA,500,Chilliwack,49.1561,-121.9406,10,METRO VANCOUVER,MVRD,02 - Lower Mainland,ACTIVE,1994-05-18T00:00:00Z,NA,CURRENT,Lower Fraser Valley,Y,Y,Y,Y,NA,NA,NA,NA,NA,NA,NA,NA,NA,NA
Chilliwack Airport,Chilliwack Airport,Chilliwack,Chilliwack Airport Old,310173,NA,315,Chilliwack,49.1558,-121.9436,0,NON OPERATIONAL,MVRD,02 - Lower Mainland,INACTIVE,1979-01-02T00:00:00Z,NA,CURRENT,Lower Fraser Valley,Y,Y,Y,Y,NA,NA,NA,NA,NA,NA,NA,NA,NA,NA
Chilliwack Airport,Chilliwack Airport,Chilliwack,Chilliwack Airport OLD,M110517,NA,314,Chilliwack,49.1511,-121.9469,15,NON OPERATIONAL,MVRD,02 - Lower Mainland,INACTIVE,1994-05-17T00:00:00Z,NA,CURRENT,Lower Fraser Valley,Y,Y,Y,Y,NA,NA,NA,NA,NA,NA,NA,NA,NA,NA
Chilliwack Airport,Chilliwack Airport,Chilliwack,Chilliwack Airport OLD,E220891,NA,245,Chilliwack,49.1561,-121.9406,10,METRO VANCOUVER NON OPERATIONAL,MVRD,02 - Lower Mainland,INACTIVE,1994-05-18T00:00:00Z,NA,CURRENT,Lower Fraser Valley,Y,Y,Y,Y,NA,NA,NA,NA,NA,NA,NA,NA,NA,NA
Chilliwack Airport,Chilliwack Airport,Chilliwack,Chilliwack Airport OLD,M110517,NA,314,Chilliwack,49.1511,-121.9469,15,NON OPERATIONAL,MVRD,02 - Lower Mainland,INACTIVE,1994-05-17T00:00:00Z,NA,CURRENT,Lower Fraser Valley,Y,Y,Y,Y,NA,NA,NA,NA,NA,NA,NA,NA,NA,NA
Chilliwack Airport,Chilliwack Airport,Chilliwack,Chilliwack Airport OLD,E220891,NA,245,Chilliwack,49.1561,-121.9406,10,METRO VANCOUVER NON OPERATIONAL,MVRD,02 - Lower Mainland,INACTIVE,1994-05-18T00:00:00Z,NA,CURRENT,Lower Fraser Valley,Y,Y,Y,Y,NA,NA,NA,NA,NA,NA,NA,NA,NA,NA
Chilliwack Works Yard,Chilliwack Works Yard,Chilliwack Works Yard,Chilliwack Works Yard,E206612,NA,316,Chilliwack,49.1519,-121.9511,10,METRO VANCOUVER NON OPERATIONAL,MVRD,02 - Lower Mainland,INACTIVE,1984-01-01T00:00:00Z,NA,34472,Lower Fraser Valley,N,Y,N,Y,NA,NA,NA,NA,NA,NA,NA,NA,NA,NA
Colwood City Hall,Colwood City Hall,Colwood,Colwood City Hall,E240337,100308,284,Colwood,48.42389,-123.49278,75,OPERATIONAL,ENV,01 - Vancouver Island,ACTIVE,2000-01-02T00:00:00Z,NA,CURRENT,Georgia Strait,Y,Y,Y,Y,PE,LU,P3,R,NE,17. Capital,"Victoria, CY 17 056","935. Victoria, CMA/RMR",NA,Y
Colwood City Hall,Colwood City Hall,Colwood,Colwood City Hall 60,E240337,100308,553,Colwood,48.42389,-123.49278,75,NON OPERATIONAL,ENV,01 - Vancouver Island,INACTIVE,2018-09-06T00:00:00Z,NA,CURRENT,Georgia Strait,Y,Y,Y,Y,PE,LU,P3,R,NE,17. Capital,"Victoria, CY 17 056","935. Victoria, CMA/RMR",NA,NA
Coquitlam Douglas College,Coquitlam Douglas College,Coquitlam,Coquitlam Douglas College,E242892,NA,260,Coquitlam,49.2881,-122.7914,61,METRO VANCOUVER,MVRD,02 - Lower Mainland,ACTIVE,2000-01-10T00:00:00Z,NA,CURRENT,Lower Fraser Valley,N,Y,N,Y,NA,NA,NA,NA,NA,NA,NA,NA,NA,NA
Courtenay Elementary School,Courtenay Elementary School,Courtenay,Courtenay Elementary School,E285829,107100,414,Courtenay,49.682603,-124.996222,27,OPERATIONAL,ENV,01 - Vancouver Island,ACTIVE,2011-05-20T00:00:00Z,NA,CURRENT,Georgia Strait,Y,Y,N,Y,PE,MU,P3,R,NE,26. Courtenay,"Courtenay, CY 26 022","943. Courtenay, CA/AR",NA,Y
Courtenay Elementary School,Courtenay Elementary School,Courtenay,Courtenay Elementary School 60,E285829,107100,526,Courtenay,49.682603,-124.996222,27,OPERATIONAL,ENV,01 - Vancouver Island,INACTIVE,2016-12-08T00:00:00Z,NA,CURRENT,Georgia Strait,Y,Y,N,Y,PE,MU,P3,R,NE,26. Courtenay,"Courtenay, CY 26 022","943. Courtenay, CA/AR",NA,NA
Cranbrook BC Ambulance Building,Cranbrook BC Ambulance Building,Cranbrook-BC Ambulance Building,Cranbrook BC Ambulance Building,E273763,NA,225,Cranbrook,49.5144,-115.7631,942,NON CONTINUOUS,ENV,04 - Kootenay,INACTIVE,2010-02-16T00:00:00Z,NA,NA,Southern Interior,NA,NA,NA,NA,NA,NA,NA,NA,NA,NA,NA,NA,NA,NA
Cranbrook Forest Fire,Cranbrook Forest Fire,Cranbrook-Forest Fire,Cranbrook Forest Fire,E242577,NA,351,Cranbrook,49.5319,-115.7536,891,NON OPERATIONAL,ENV,04 - Kootenay,INACTIVE,2000-08-20T00:00:00Z,NA,36781,Southern Interior,Y,N,N,N,NA,NA,NA,NA,NA,NA,NA,NA,NA,NA
Cranbrook Muriel Baxter,Cranbrook Muriel Baxter,Cranbrook,Cranbrook Muriel Baxter,E313510,101904,550,Cranbrook,49.507103,-115.753682,941,OPERATIONAL,ENV,04 - Kootenay,ACTIVE,2018-08-20T00:00:00Z,NA,CURRENT,Southern Interior,Y,Y,N,Y,RB,NU,P2,F,RE,01. East Kootenay,"East Kootenay B, RDA 01 019",NA,NA,NA
Cranbrook Muriel Baxter,Cranbrook Muriel Baxter,Cranbrook,Cranbrook Muriel Baxter 60,E313510,101904,551,Cranbrook,49.507103,-115.753682,941,NON OPERATIONAL,ENV,04 - Kootenay,INACTIVE,2018-08-16T00:00:00Z,NA,CURRENT,Southern Interior,Y,Y,N,Y,RB,NU,P2,F,RE,01. East Kootenay,"East Kootenay B, RDA 01 019",NA,NA,NA
Cranbrook PR3,Cranbrook PR3,Cranbrook-PR3,Cranbrook PR3,E220203,NA,352,Cranbrook,49.51,-115.7592,970,NON OPERATIONAL,ENV,04 - Kootenay,INACTIVE,1994-04-20T00:00:00Z,NA,NA,Southern Interior,NA,NA,NA,NA,NA,NA,NA,NA,NA,NA,NA,NA,NA,NA
Cranbrook Swimming Pool,Cranbrook Swimming Pool,Cranbrook-Swimming Pool,Cranbrook Swimming Pool,E206243,NA,353,Cranbrook,49.5117,-115.7569,940,NON OPERATIONAL,ENV,04 - Kootenay,INACTIVE,1989-01-08T00:00:00Z,NA,NA,Southern Interior,NA,NA,NA,NA,NA,NA,NA,NA,NA,NA,NA,NA,NA,NA
Creston Flats,Creston Flats,Creston Flats,Creston Flats 60,E256215,NA,99,Creston,49.1339,-116.5528,529,NON OPERATIONAL,ENV,04 - Kootenay,INACTIVE,2007-05-31T00:00:00Z,NA,NA,Southern Interior,NA,NA,NA,NA,NA,NA,NA,NA,NA,NA,NA,NA,NA,NA
Creston PC School,Creston PC School,Creston PC School,Creston PC School,E221199,101801,29,Creston,49.0944,-116.5125,609,NON OPERATIONAL,ENV,04 - Kootenay,INACTIVE,1994-10-27T00:00:00Z,2015-09-10T00:00:00Z,42257,Southern Interior,Y,N,N,N,PE,SU,P2,R,NE,03. Central Kootenay,"Creston, T 03 004",NA,NA,NA
Creston PC School,Creston PC School,Creston PC School,Creston PC School Met 60,M114018,NA,31,Creston,49.0944,-116.5125,609,NON OPERATIONAL,ENV,04 - Kootenay,INACTIVE,1995-02-01T00:00:00Z,NA,42257,Southern Interior,Y,N,N,N,NA,NA,NA,NA,NA,NA,NA,NA,NA,NA
Creston Piper Farms,Creston Piper Farms,Creston Piper Farms,Creston Piper Farms,E259398,NA,32,Creston,49.0119,-116.5333,418,NON OPERATIONAL,ENV,04 - Kootenay,INACTIVE,2008-12-01T00:00:00Z,NA,39814,Southern Interior,Y,Y,Y,Y,NA,NA,NA,NA,NA,NA,NA,NA,NA,NA
Creston South Hanson Farm,Creston South Hanson Farm,Creston South Hanson Farm,Creston South Hanson Farm,E262799,NA,354,Creston,49.0439,-116.5439,525,NON OPERATIONAL,ENV,04 - Kootenay,INACTIVE,2006-04-15T00:00:00Z,NA,NA,Southern Interior,NA,NA,NA,NA,NA,NA,NA,NA,NA,NA,NA,NA,NA,NA
Crofton Community Hall,Crofton Community Hall,Crofton-Community Hall,Crofton Community Hall,E206379,NA,285,Crofton,48.8647,-123.6481,73,NON OPERATIONAL,ENV,01 - Vancouver Island,INACTIVE,1986-01-07T00:00:00Z,NA,NA,Georgia Strait,NA,NA,NA,NA,NA,NA,NA,NA,NA,NA,NA,NA,NA,NA
Crofton Elementary,Crofton Elementary,Crofton-Elementary,Crofton Elementary,E316070,NA,564,Crofton,48.86,-123.64388889,38,OPERATIONAL,INDUSTRY,01 - Vancouver Island,ACTIVE,2019-04-01T00:00:00Z,NA,CURRENT,Georgia Strait,Y,N,Y,N,NA,NA,NA,NA,NA,NA,NA,NA,NA,Y
Crofton Escarpment Way,Crofton Escarpment Way,Crofton-Escarpment Way,Crofton Escarpment Way,E273443,106700,38,Crofton,48.838,-123.6552,142,NON OPERATIONAL,INDUSTRY,01 - Vancouver Island,INACTIVE,2008-09-18T00:00:00Z,NA,41673,Georgia Strait,Y,N,Y,Y,RB,NU,P2,F,UR,19. Cowichan Valley,"North Cowichan, DM 19 008","937. Duncan, CA/AR",NA,NA
Crofton Georgia Hts,Crofton Georgia Hts,Crofton-Georgia Hts,Crofton Georgia Hts,E296370,106702,458,Crofton,48.849635,-123.637041,150,NON OPERATIONAL,INDUSTRY,01 - Vancouver Island,INACTIVE,2014-02-18T00:00:00Z,2018-12-20T00:00:00Z,43454,Georgia Strait,Y,N,Y,N,PS,NU,P2,F,na,19. Cowichan Valley,"North Cowichan, DM 19 008","937. Duncan, CA/AR",NA,NA
Crofton,Crofton,Crofton,Crofton Met 60,M101004,NA,37,Crofton,48.8802,-123.6458,20,NON OPERATIONAL,INDUSTRY,01 - Vancouver Island,INACTIVE,1991-03-15T00:00:00Z,NA,NA,Georgia Strait,NA,NA,NA,NA,NA,NA,NA,NA,NA,NA,NA,NA,NA,NA
Crofton South,Crofton South,Crofton-South,Crofton South,E220218,NA,286,Crofton,48.8389,-123.6528,140,NON OPERATIONAL,INDUSTRY,01 - Vancouver Island,INACTIVE,1994-07-22T00:00:00Z,NA,39508,Georgia Strait,Y,N,Y,Y,NA,NA,NA,NA,NA,NA,NA,NA,NA,NA
Crofton Substation,Crofton Substation,Crofton-Substation,Crofton Substation,E220217,106701,39,Crofton,48.874529,-123.653929,22,OPERATIONAL,INDUSTRY,01 - Vancouver Island,ACTIVE,1994-08-19T00:00:00Z,NA,CURRENT,Georgia Strait,Y,N,Y,Y,PS,NU,P2,R,MD,19. Cowichan Valley,"North Cowichan, DM 19 008","937. Duncan, CA/AR",NA,Y
Crofton West,Crofton West,Crofton-West,Crofton West,E220219,NA,287,Crofton,48.8694,-123.6944,10,NON OPERATIONAL,INDUSTRY,01 - Vancouver Island,INACTIVE,1994-08-07T00:00:00Z,NA,NA,Georgia Strait,NA,NA,NA,NA,NA,NA,NA,NA,NA,NA,NA,NA,NA,NA
CSpice Met 01,CSpice Met 01,CSpice,CSpice Met 01,Station 574,NA,574,Hope,49.594,-121.099,0,OPERATIONAL,ENV,02 - Lower Mainland,ACTIVE,2020-03-20T00:00:00Z,NA,NA,Lower Fraser Valley,NA,NA,NA,NA,NA,NA,NA,NA,NA,NA,NA,NA,NA,NA
CSpice,CSpice,CSpice Met_01,CSpice Met 60,Station 573,NA,573,Hope,49.594,-121.099,0,OPERATIONAL,ENV,02 - Lower Mainland,ACTIVE,2020-03-11T00:00:00Z,NA,NA,Lower Fraser Valley,NA,NA,NA,NA,NA,NA,NA,NA,NA,NA,NA,NA,NA,NA
Cumberland Firehall,Cumberland Firehall,Cumberland Firehall,Cumberland Firehall,E306481,NA,518,Cumberland,49.618667,-125.031444,169,E-BAM NON-OPERATIONAL,ENV,01 - Vancouver Island,INACTIVE,2016-08-25T00:00:00Z,NA,NA,Georgia Strait,NA,NA,NA,NA,NA,NA,NA,NA,NA,NA,NA,NA,NA,NA
Dawson Creek 17th Street,Dawson Creek 17th Street,Dawson Creek-17th Street,Dawson Creek 17th Street,E237254,NA,393,Dawson Creek,55.7839,-120.2533,710,NON OPERATIONAL,INDUSTRY,07 - Omineca-Peace,INACTIVE,1999-04-28T00:00:00Z,NA,NA,Northeast,NA,NA,NA,NA,NA,NA,NA,NA,NA,NA,NA,NA,NA,NA
Dawson Creek Harpers,Dawson Creek Harpers,Dawson Creek-Harpers,Dawson Creek Harpers,E237253,NA,394,Dawson Creek,55.7878,-120.2717,710,NON OPERATIONAL,INDUSTRY,07 - Omineca-Peace,INACTIVE,1999-04-28T00:00:00Z,NA,NA,Northeast,NA,NA,NA,NA,NA,NA,NA,NA,NA,NA,NA,NA,NA,NA
Dawson Creek LPC Upwind,Dawson Creek LPC Upwind,Dawson Creek-LPC Upwind,Dawson Creek LPC Upwind,E237252,NA,395,Dawson Creek,55.7906,-120.3014,695,NON OPERATIONAL,INDUSTRY,07 - Omineca-Peace,INACTIVE,1999-04-28T00:00:00Z,NA,NA,Northeast,NA,NA,NA,NA,NA,NA,NA,NA,NA,NA,NA,NA,NA,NA
Dawson Creek Northern Lights College,Dawson Creek Northern Lights College,Dawson Creek-Northern Lights College,Dawson Creek Northern Lights College,Dawson OGC CAMEL,NA,506,Dawson Creek,55.747586,-120.230519,0,BC OGC MOBILE,BC OGC,07 - Omineca-Peace,INACTIVE,2014-04-01T00:00:00Z,2014-07-07T00:00:00Z,41827,Northeast,NA,NA,NA,NA,NA,NA,NA,NA,NA,NA,NA,NA,NA,NA
Delta Lindsey Place Trailer,Delta Lindsey Place Trailer,Delta Lindsey Place Trailer,Delta Lindsey Place Trailer,TRAILER_01,NA,561,Delta,49.165894,-122.960928,NA,MOBILE,ENV,02 - Lower Mainland,INACTIVE,2019-02-08T00:00:00Z,NA,NA,Lower Fraser Valley,NA,NA,NA,NA,NA,NA,NA,NA,NA,NA,NA,NA,NA,NA
Doig River Cultural Centre,Doig River Cultural Centre,Doig River Cultural Centre,Doig River Cultural Centre,E295893,105503,454,Doig River,56.5780833,-120.49748,552,NON OPERATIONAL,ENV,07 - Omineca-Peace,INACTIVE,2013-12-10T00:00:00Z,2015-12-02T00:00:00Z,42340,Northeast,N,N,Y,N,RB,NU,P1,F,MD,55. Peace River,"Doig River 206, IRI 55 804",NA,NA,NA
Doig River Cultural Centre,Doig River Cultural Centre,Doig River Cultural Centre,Doig River Cultural Centre Met 60,E295893,105503,462,Doig River,56.5780833,-120.49748,552,NON OPERATIONAL,ENV,07 - Omineca-Peace,INACTIVE,2014-05-05T00:00:00Z,2016-12-02T00:00:00Z,42340,Northeast,N,N,Y,N,RB,NU,P1,F,MD,55. Peace River,"Doig River 206, IRI 55 804",NA,NA,NA
Duncan Cairnsmore,Duncan,Duncan-Cairnsmore,Duncan Cairnsmore,E277329,104803,33,Duncan,48.784854,-123.715846,62,NON OPERATIONAL,ENV,01 - Vancouver Island,INACTIVE,2009-08-17T00:00:00Z,2018-01-15T00:00:00Z,43115,Georgia Strait,Y,Y,N,Y,PE,SU,P3,R,NE,19. Cowichan Valley,"Duncan, CY 19 012","937. Duncan, CA/AR",NA,NA
Duncan Cairnsmore,Duncan,Duncan-Cairnsmore,Duncan Cairnsmore 60,E277329,104803,523,Duncan,48.784854,-123.715846,62,NON OPERATIONAL,ENV,01 - Vancouver Island,INACTIVE,2016-11-28T00:00:00Z,2018-01-15T00:00:00Z,43115,Georgia Strait,Y,Y,N,Y,PE,SU,P3,R,NE,19. Cowichan Valley,"Duncan, CY 19 012","937. Duncan, CA/AR",NA,NA
Duncan College Street,Duncan,Duncan,Duncan College Street,E311128,104804,542,Duncan,48.786114,-123.717307,32,OPERATIONAL,ENV,01 - Vancouver Island,ACTIVE,2018-02-01T00:00:00Z,NA,CURRENT,Georgia Strait,Y,Y,N,Y,PE,SU,P3,R,NE,19. Cowichan Valley,"Duncan, CY 19 012","937. Duncan, CA/AR",NA,Y
Duncan College Street,Duncan,Duncan,Duncan College Street 60,E311128,104804,537,Duncan,48.786114,-123.717307,32,NON OPERATIONAL,ENV,01 - Vancouver Island,INACTIVE,2017-12-04T00:00:00Z,NA,CURRENT,Georgia Strait,Y,Y,N,Y,PE,SU,P3,R,NE,19. Cowichan Valley,"Duncan, CY 19 012","937. Duncan, CA/AR",NA,NA
Duncan Deykin Avenue,Duncan Deykin Avenue,Duncan-Deykin,Duncan Deykin Avenue,E234670,104801,40,Duncan,48.80255,-123.646402,62,OPERATIONAL,INDUSTRY,01 - Vancouver Island,ACTIVE,1998-01-11T00:00:00Z,NA,CURRENT,Georgia Strait,Y,N,N,N,PE,SU,P2,R,UR,19. Cowichan Valley,"North Cowichan, DM 19 008","937. Duncan, CA/AR",NA,Y
Duncan Koksilah,Duncan Koksilah,Duncan-Koksilah,Duncan Koksilah,E242620,NA,288,Duncan,48.758,-123.6889,0,NON OPERATIONAL,ENV,01 - Vancouver Island,INACTIVE,2000-09-26T00:00:00Z,NA,37232,Georgia Strait,N,Y,N,N,NA,NA,NA,NA,NA,NA,NA,NA,NA,NA
Duncan Mobile,Duncan Mobile,Duncan-Mobile,Duncan Mobile,E223361,NA,289,Duncan,48.9128,-123.7814,61,NON OPERATIONAL,ENV,01 - Vancouver Island,INACTIVE,1996-01-07T00:00:00Z,NA,35362,Georgia Strait,N,Y,N,Y,NA,NA,NA,NA,NA,NA,NA,NA,NA,NA
Duncan Mobile Transfer Station,Duncan Mobile Transfer Station,Duncan-Mobile Transfer Station,Duncan Mobile Transfer Station,E242166,NA,290,Duncan,49.8036,-123.6897,244,NON OPERATIONAL,ENV,01 - Vancouver Island,INACTIVE,2000-01-07T00:00:00Z,NA,37019,Georgia Strait,Y,Y,N,Y,NA,NA,NA,NA,NA,NA,NA,NA,NA,NA
Eagle Ridge,Eagle Ridge,Eagle Ridge,Eagle Ridge,310169,NA,317,Port Moody,49.2847,-122.9017,52,METRO VANCOUVER NON OPERATIONAL,MVRD,02 - Lower Mainland,INACTIVE,2010-10-15T00:00:00Z,NA,36312,Lower Fraser Valley,N,Y,Y,Y,NA,NA,NA,NA,NA,NA,NA,NA,NA,NA
Elk Falls Dogwood,Elk Falls Dogwood,Campbell River,Elk Falls Dogwood,E222520,102801,522,Campbell River,50.018425,-125.2484,63,OPERATIONAL,INDUSTRY,01 - Vancouver Island,ACTIVE,2016-11-18T00:00:00Z,NA,CURRENT,Georgia Strait,Y,Y,N,Y,PE,MU,P3,R,NE,25. Comox-Strathcona,"Campbell River, CY 25 034","944. Campbell River, CA/AR",NA,Y
Elk Falls Dogwood,Elk Falls Dogwood,Campbell River,Elk Falls Dogwood OLD,E222520,102801,41,Campbell River,50.018425,-125.2844,63,NON OPERATIONAL,INDUSTRY,01 - Vancouver Island,INACTIVE,1995-12-01T00:00:00Z,NA,CURRENT,Georgia Strait,Y,Y,N,Y,PE,MU,P3,R,NE,25. Comox-Strathcona,"Campbell River, CY 25 034","944. Campbell River, CA/AR",NA,NA
Elk Falls Pulp Mill,Elk Falls Pulp Mill,Elk Falls Pulp Mill,Elk Falls Pulp Mill 60,E251329,NA,44,Campbell River,50.0733,-125.2869,15,NON OPERATIONAL,INDUSTRY,01 - Vancouver Island,INACTIVE,2003-11-02T00:00:00Z,NA,NA,Georgia Strait,NA,NA,NA,NA,NA,NA,NA,NA,NA,NA,NA,NA,NA,NA
Elkford Rocky Mountain Elementary School,Elkford Rocky Mountain Elementary School,Elkford,Elkford Rocky Mountain Elementary School,E290310,103011,585,Elkford,50.0077944,-114.93342,1333,OPERATIONAL,INDUSTRY,04 - Kootenay,ACTIVE,2021-12-01T00:00:00Z,NA,CURRENT,Southern Interior,Y,N,N,N,PE,SU,P2,R,na,01. East Kootenay,"Elkford, DM 01 003",NA,NA,NA
Endako,Endako,Endako,Endako,E227290,NA,379,Fraser Lake,54.03,-125.08,0,NON OPERATIONAL,ENV,06 - Skeena,INACTIVE,1997-07-14T00:00:00Z,NA,NA,Central Interior,NA,NA,NA,NA,NA,NA,NA,NA,NA,NA,NA,NA,NA,NA
Esquimalt Graving Dock,Esquimalt Graving Dock,Esquimalt Graving Dock,Esquimalt Graving Dock 60,E231478,100312,47,Victoria,48.4374,-123.422,23,NON OPERATIONAL,ENV,01 - Vancouver Island,INACTIVE,2004-08-29T00:00:00Z,2013-09-17T00:00:00Z,41534,Georgia Strait,NA,NA,NA,NA,RB,NU,P2,F,MD,17. Capital,"Esquimalt, DM 17 040","935. Victoria, CMA/RMR",NA,NA
Farmington Community Hall,Farmington Community Hall,Farmington,Farmington Community Hall,E295892,104304,455,Farmington,55.9132326,-120.53157,696,OPERATIONAL,INDUSTRY,07 - Omineca-Peace,ACTIVE,2017-12-05T00:00:00Z,NA,CURRENT,Northeast,N,Y,Y,Y,RB,NU,P1,A,MD,55. Peace River D,"Peace River D, RDA 55 021",NA,NA,N
Farmington Community Hall,Farmington Community Hall,Farmington,Farmington Community Hall Met 60,E295892,104304,464,Farmington,55.9132326,-120.53157,696,OPERATIONAL,INDUSTRY,07 - Omineca-Peace,ACTIVE,2017-12-05T00:00:00Z,NA,CURRENT,Northeast,N,Y,Y,Y,RB,NU,P1,A,MD,55. Peace River D,"Peace River D, RDA 55 021",NA,NA,N
Farmington MAML,Farmington MAML,Farmington MAML,Farmington MAML,E283242,NA,275,Farmington,55.904722,-120.51583,686,MOBILE NON OPERATIONAL,ENV,07 - Omineca-Peace,INACTIVE,2010-08-13T00:00:00Z,NA,40431,Northeast,Y,Y,Y,Y,NA,NA,NA,NA,NA,NA,NA,NA,NA,NA
Fort Nelson Brucker Ranch,Fort Nelson Brucker Ranch,Fort Nelson Brucker Ranch,Fort Nelson Brucker Ranch,E239298,NA,396,Fort Nelson,58.5778,-122.5894,518,NON OPERATIONAL,INDUSTRY,07 - Omineca-Peace,INACTIVE,1999-10-27T00:00:00Z,NA,38615,Northeast,N,N,Y,N,NA,NA,NA,NA,NA,NA,NA,NA,NA,NA
Fort Nelson Chalo School,Fort Nelson Chalo School,Fort Nelson Chalo School,Fort Nelson Chalo School 60,E250350,NA,50,Fort Nelson,58.748,-122.6622,380,NON OPERATIONAL,INDUSTRY,07 - Omineca-Peace,INACTIVE,2002-12-30T00:00:00Z,NA,40022,Northeast,Y,N,N,N,NA,NA,NA,NA,NA,NA,NA,NA,NA,NA
Fort Nelson Jackfish,Fort Nelson Jackfish,Fort Nelson Jackfish,Fort Nelson Jackfish,770706,NA,398,Fort Nelson,58.5883,-122.6644,468,NON OPERATIONAL,INDUSTRY,07 - Omineca-Peace,INACTIVE,1993-01-04T00:00:00Z,NA,36531,Northeast,N,N,Y,N,NA,NA,NA,NA,NA,NA,NA,NA,NA,NA
Fort Nelson Muskawa Industrial Area,Fort Nelson Muskawa Industrial Area,Fort Nelson Muskawa Industrial Area,Fort Nelson Muskawa Industrial Area,770704,NA,397,Fort Nelson,58.7419,-122.6808,371,NON OPERATIONAL,INDUSTRY,07 - Omineca-Peace,INACTIVE,1993-01-04T00:00:00Z,NA,36433,Northeast,N,N,Y,N,NA,NA,NA,NA,NA,NA,NA,NA,NA,NA
Fort Nelson Townsite,Fort Nelson Townsite,Fort Nelson Townsite,Fort Nelson Townsite,770705,NA,399,Fort Nelson,58.8103,-122.7042,408,NON OPERATIONAL,INDUSTRY,07 - Omineca-Peace,INACTIVE,1993-01-04T00:00:00Z,NA,38616,Northeast,N,N,Y,N,NA,NA,NA,NA,NA,NA,NA,NA,NA,NA
Fort St John 85th Avenue,Fort St John 85th Avenue,FortSt.John-85th Avenue,Fort St John 85th Avenue 60,E304550,NA,489,Fort St John,56.231792,-120.853895,685,BC HYDRO,INDUSTRY-BCH,07 - Omineca-Peace,ACTIVE,2015-11-04T00:00:00Z,NA,CURRENT,Northeast,Y,N,N,N,NA,NA,NA,NA,NA,NA,NA,NA,NA,N
Fort St John Hospital,Fort St John Hospital,FortSt.John-Hospital,Fort St John Hospital,FSJ OGC CAMEL,NA,505,Fort St John,56.257717,-120.809353,0,BC OGC MOBILE,BC OGC,07 - Omineca-Peace,INACTIVE,2014-01-22T00:00:00Z,2014-04-01T00:00:00Z,41730,Northeast,NA,NA,NA,NA,NA,NA,NA,NA,NA,NA,NA,NA,NA,NA
Fort St John Key Learning Centre,Fort St John Key Learning Centre,FortSt.John,Fort St John Key Learning Centre,E299830,105504,469,Fort St John,56.244722,-120.856111,679,OPERATIONAL,ENV,07 - Omineca-Peace,ACTIVE,2015-02-12T00:00:00Z,NA,CURRENT,Northeast,Y,Y,Y,Y,PE,SU,P3,R,MD,55. Peace River,"Fort St. John, CY 55 034","977. Fort St. John, CA/AR",NA,NA
Fort St John North Camp B Amb,Fort St John North Camp B Amb,Fort St.John-N.CampB,Fort St John North Camp B Amb 60,E306480,NA,516,Fort St John,56.200998,-120.9026,581,BC HYDRO,INDUSTRY-BCH,07 - Omineca-Peace,INACTIVE,2016-07-07T00:00:00Z,NA,42963,Northeast,Y,N,Y,Y,NA,NA,NA,NA,NA,NA,NA,NA,NA,NA
Fort St John North Camp C,Fort St John North Camp C,Fort St.John-N.CampC,Fort St John North Camp C 60,E309527,NA,533,Fort St John,56.2032887,-120.90108,584,BC HYDRO,INDUSTRY-BCH,07 - Omineca-Peace,ACTIVE,2017-08-23T00:00:00Z,NA,CURRENT,Northeast,Y,N,Y,Y,NA,NA,NA,NA,NA,NA,NA,NA,NA,N
Fort St John North Camp C,Fort St John North Camp C,Fort St.John-N.CampC,Fort St John North Camp C Met 60,E309527,NA,517,Fort St John,56.200998,-120.9026,581,BC HYDRO,INDUSTRY-BCH,07 - Omineca-Peace,ACTIVE,2016-07-07T00:00:00Z,NA,CURRENT,Northeast,Y,N,Y,Y,NA,NA,NA,NA,NA,NA,NA,NA,NA,N
Fort St John NP Cultural Centre,Fort St John NP Cultural Centre,Fort St.John-NPCultural Centre,Fort St John NP Cultural Centre,E243516,105501,52,Fort St John,56.2458,-120.8489,695,NON OPERATIONAL,ENV,07 - Omineca-Peace,INACTIVE,2001-03-08T00:00:00Z,2015-10-15T00:00:00Z,37722,Northeast,Y,N,N,N,PE,SU,P3,R,NE,55. Peace River,"Fort St. John, CY 55 034","977. Fort St. John, CA/AR",NA,NA
Fort St John Old Fort,Fort St John Old Fort,FortSt.John-OldFort,Fort St John Old Fort 60,E304470,NA,487,Fort St John,56.200587,-120.825713,421,BC HYDRO,INDUSTRY-BCH,07 - Omineca-Peace,ACTIVE,2015-10-30T00:00:00Z,NA,CURRENT,Northeast,Y,N,N,N,NA,NA,NA,NA,NA,NA,NA,NA,NA,N
Fraser Lake Endako Mines,Fraser Lake Endako Mines,Fraser Lake Endako Mines,Fraser Lake Endako Mines 60,E295949,NA,452,Fraser Lake,54.034444,-125.095833,1005,OPERATIONAL,INDUSTRY,06 - Skeena,ACTIVE,2013-12-01T00:00:00Z,NA,NA,Central Interior,NA,NA,NA,NA,NA,NA,NA,NA,NA,NA,NA,NA,NA,NA
Genelle,Genelle,Genelle,Genelle,E222140,NA,355,Trail,49.2075,-117.6969,440,NON OPERATIONAL,INDUSTRY,04 - Kootenay,INACTIVE,1995-09-14T00:00:00Z,NA,38260,Southern Interior,N,N,Y,N,NA,NA,NA,NA,NA,NA,NA,NA,NA,NA
Gibsons Firehall,Gibsons Firehall,Gibsons-Firehall,Gibsons Firehall,E217061,NA,318,Gibsons,49.4117,-123.5131,0,NON OPERATIONAL,INDUSTRY,02 - Lower Mainland,INACTIVE,1992-05-05T00:00:00Z,NA,NA,Georgia Strait,NA,NA,NA,NA,NA,NA,NA,NA,NA,NA,NA,NA,NA,NA
Gibsons Municipal Hall,Gibsons Municipal Hall,Gibsons-Municipal Hall,Gibsons Municipal Hall,E308306,NA,529,Gibsons,49.40054,-123.50913,30,NON OPERATIONAL,ENV,02 - Lower Mainland,INACTIVE,2017-04-06T00:00:00Z,NA,43365,Georgia Strait,Y,N,N,N,NA,NA,NA,NA,NA,NA,NA,NA,NA,NA
Gibsons Townhall,Gibsons Townhall,Gibsons-Townhall,Gibsons Townhall,E217062,NA,319,Gibsons,49.4003,-123.5094,0,NON OPERATIONAL,INDUSTRY,02 - Lower Mainland,INACTIVE,2010-10-15T00:00:00Z,NA,34680,Georgia Strait,N,N,Y,N,NA,NA,NA,NA,NA,NA,NA,NA,NA,NA
Glendale,Glendale,Glendale,Glendale Met 60,M111068,NA,54,Williams Lake,52.1522,-122.1736,628,NON OPERATIONAL,ENV,05 - Cariboo,INACTIVE,1990-09-26T00:00:00Z,NA,NA,Central Interior,NA,NA,NA,NA,NA,NA,NA,NA,NA,NA,NA,NA,NA,NA
Gold River Annex,Gold River Annex,Gold River Annex,Gold River Annex,E225265,NA,291,Gold River,49.7111,-126.05,100,NON OPERATIONAL,INDUSTRY,01 - Vancouver Island,INACTIVE,1997-01-01T00:00:00Z,NA,NA,Coastal,NA,NA,NA,NA,NA,NA,NA,NA,NA,NA,NA,NA,NA,NA
Gold River Pumphouse,Gold River Pumphouse,Gold River Pumphouse,Gold River Pumphouse,110203,NA,292,Gold River,49.6914,-126.1178,3,NON OPERATIONAL,INDUSTRY,01 - Vancouver Island,INACTIVE,1977-01-02T00:00:00Z,NA,NA,Coastal,NA,NA,NA,NA,NA,NA,NA,NA,NA,NA,NA,NA,NA,NA
Golden Bear,Golden Bear,Golden Bear,Golden Bear,M120001,NA,380,Telegraph Creek,58.2056,-132.2875,980,NON OPERATIONAL,INDUSTRY,06 - Skeena,INACTIVE,1993-01-10T00:00:00Z,NA,NA,Northwest,NA,NA,NA,NA,NA,NA,NA,NA,NA,NA,NA,NA,NA,NA
Golden CPR,Golden CPR,Golden CPR,Golden CPR,E256894,NA,356,Golden,51.27,-116.9308,857,NON OPERATIONAL,ENV,04 - Kootenay,INACTIVE,2004-08-09T00:00:00Z,NA,38993,Southern Interior,Y,N,N,N,NA,NA,NA,NA,NA,NA,NA,NA,NA,NA
Golden Golf Course,Golden Golf Course,Golden Golf Course,Golden Golf Course,E256895,NA,357,Golden,51.3325,-117.0067,795,NON OPERATIONAL,ENV,04 - Kootenay,INACTIVE,2010-12-06T00:00:00Z,NA,39044,Southern Interior,Y,N,N,N,NA,NA,NA,NA,NA,NA,NA,NA,NA,NA
Golden Helipad,Golden Helipad,Golden,Golden Helipad,E292149,103202,433,Golden,51.2975,-116.966,780,OPERATIONAL,ENV,04 - Kootenay,ACTIVE,2013-01-22T00:00:00Z,NA,CURRENT,Southern Interior,Y,N,N,N,PE,SU,P2,R,NE,39. Columbia-Shuswap,"Golden, T 39 007",NA,NA,NA
Golden Hospital,Golden Hospital,Golden-Hospital,Golden Hospital,E235070,NA,17,Golden,51.2958,-116.9716,773,NON OPERATIONAL,ENV,04 - Kootenay,INACTIVE,1999-11-02T00:00:00Z,NA,41332,Southern Interior,Y,N,N,N,NA,NA,NA,NA,NA,NA,NA,NA,NA,NA
Golden Lady Grey School,Golden Lady Grey School,Golden-Lady Grey School,Golden Lady Grey School Met 60,E243003,NA,19,Golden,51.2956,-116.9717,773,OPERATIONAL,ENV,04 - Kootenay,ACTIVE,2000-11-22T00:00:00Z,NA,NA,Southern Interior,NA,NA,NA,NA,NA,NA,NA,NA,NA,NA,NA,NA,NA,NA
Golden Townsite,Golden Townsite,Golden-Townsite,Golden Townsite,E256315,NA,358,Golden,51.2978,-116.9672,855,NON OPERATIONAL,ENV,04 - Kootenay,INACTIVE,2004-12-07T00:00:00Z,NA,39142,Southern Interior,Y,Y,Y,Y,NA,NA,NA,NA,NA,NA,NA,NA,NA,NA
Goldstream Provincial Park,Goldstream Provincial Park,Goldstream Provincial Park,Goldstream Provincial Park,E282349,NA,270,Victoria,48.4583,-123.5575,0,NON OPERATIONAL,INDUSTRY,01 - Vancouver Island,INACTIVE,2010-07-01T00:00:00Z,NA,NA,Georgia Strait,NA,NA,NA,NA,NA,NA,NA,NA,NA,NA,NA,NA,NA,NA
Grand Forks Airport,Grand Forks Airport,Grand Forks-Airport,Grand Forks Airport Met 60,E262779,NA,56,Grand Forks,49.0147,-118.4269,520,OPERATIONAL,ENV,04 - Kootenay,ACTIVE,2006-04-13T00:00:00Z,NA,NA,Southern Interior,NA,NA,NA,NA,NA,NA,NA,NA,NA,NA,NA,NA,NA,NA
Grand Forks City Hall,Grand Forks City Hall,Grand Forks,Grand Forks City Hall,E263701,104101,57,Grand Forks,49.031168,-118.439088,517,OPERATIONAL,ENV,04 - Kootenay,ACTIVE,2006-07-27T00:00:00Z,NA,CURRENT,Southern Interior,Y,N,N,N,PE,SU,P2,R,NE,05. Kootenay Boundary,"Grand Forks, CY 05 032",NA,NA,NA
Grand Forks Mobile,Grand Forks Mobile,Grand Forks-Mobile,Grand Forks Mobile,E223885,NA,342,Grand Forks,49.0278,-118.4375,525,NON OPERATIONAL,ENV,03 - Southern Interior,INACTIVE,1996-10-29T00:00:00Z,NA,35543,Southern Interior,N,Y,N,Y,NA,NA,NA,NA,NA,NA,NA,NA,NA,NA
Groundbirch MAML,Groundbirch MAML,Groundbirch-MAML,Groundbirch MAML,E282369,NA,268,Groundbirch,55.7283,-120.8919,0,MOBILE NON OPERATIONAL,ENV,07 - Omineca-Peace,INACTIVE,2010-06-22T00:00:00Z,NA,40377,Northeast,Y,Y,Y,Y,NA,NA,NA,NA,NA,NA,NA,NA,NA,NA
Harmac Cedar,Harmac Cedar,Harmac-Cedar Woobank,Harmac Cedar,E221800,NA,293,Nanaimo,49.12,-123.8514,31,NON OPERATIONAL,INDUSTRY,01 - Vancouver Island,INACTIVE,1995-04-21T00:00:00Z,NA,NA,Georgia Strait,NA,NA,NA,NA,NA,NA,NA,NA,NA,NA,NA,NA,NA,NA
Harmac Cedar Woobank,Harmac Cedar Woobank,Harmac-Cedar Woobank,Harmac Cedar Woobank,E225377,102103,453,Nanaimo,49.114165,-123.850165,25,OPERATIONAL,INDUSTRY,01 - Vancouver Island,ACTIVE,1997-02-21T00:00:00Z,NA,CURRENT,Georgia Strait,Y,N,N,N,PE,MU,P2,R,NE,21. Nanaimo,"Nanaimo River 4, IRI 21 803","938. Nanaimo, CA/AR",NA,N
Harmac Cedar Woobank,Harmac Cedar Woobank,Harmac-Cedar Woobank,Harmac Cedar Woobank 60,E225377,102103,58,Nanaimo,49.1216,-123.86,47,NON OPERATIONAL,INDUSTRY,01 - Vancouver Island,INACTIVE,1997-02-21T00:00:00Z,NA,CURRENT,Georgia Strait,Y,N,N,N,PE,MU,P2,R,NE,21. Nanaimo,"Nanaimo River 4, IRI 21 803","938. Nanaimo, CA/AR",NA,NA
Harmac Nanaimo Duke Point,Harmac Nanaimo Duke Point,Harmac Nanaimo Duke Point,Harmac Nanaimo Duke Point 60,E299790,NA,468,Nanaimo,49.14522,-123.87873,10,NON OPERATIONAL,INDUSTRY,01 - Vancouver Island,INACTIVE,2014-10-03T00:00:00Z,NA,NA,Georgia Strait,NA,NA,NA,NA,NA,NA,NA,NA,NA,NA,NA,NA,NA,NA
Harmac Nanaimo Dukepoint,Harmac Nanaimo Dukepoint,Harmac Nanaimo Dukepoint,Harmac Nanaimo Dukepoint,E299790,NA,559,Nanaimo,49.14522,-123.87873,10,OPERATIONAL,INDUSTRY,01 - Vancouver Island,ACTIVE,2014-10-03T00:00:00Z,NA,NA,Georgia Strait,NA,NA,NA,NA,NA,NA,NA,NA,NA,NA,NA,NA,NA,NA
Harmac Pacific,Harmac Pacific,Harmac Pacific,Harmac Pacific,E221801,NA,294,Nanaimo,49.1578,-123.845,32,NON OPERATIONAL,INDUSTRY,01 - Vancouver Island,INACTIVE,1995-04-21T00:00:00Z,NA,NA,Georgia Strait,NA,NA,NA,NA,NA,NA,NA,NA,NA,NA,NA,NA,NA,NA
Harmac Pacific,Harmac Pacific,Harmac Pacific,Harmac Pacific Met 60,M102038,NA,60,Nanaimo,49.133787,-123.85047900000001,23,OPERATIONAL,INDUSTRY,01 - Vancouver Island,ACTIVE,1995-02-25T00:00:00Z,NA,NA,Georgia Strait,NA,NA,NA,NA,NA,NA,NA,NA,NA,NA,NA,NA,NA,NA
Harmac Treatment Pond,Harmac Treatment Pond,Harmac Treatment Pond,Harmac Treatment Pond 60,E226983,NA,61,Nanaimo,49.1361,-123.8613,86,NON OPERATIONAL,INDUSTRY,01 - Vancouver Island,INACTIVE,1997-01-07T00:00:00Z,NA,NA,Georgia Strait,NA,NA,NA,NA,NA,NA,NA,NA,NA,NA,NA,NA,NA,NA
Hazelton NWCC,Hazelton NWCC,Hazelton NWCC,Hazelton NWCC,E255713,NA,234,New Hazelton,55.2619,-127.6506,286,NON OPERATIONAL,ENV,06 - Skeena,INACTIVE,2010-03-15T00:00:00Z,NA,NA,Central Interior,NA,NA,NA,NA,NA,NA,NA,NA,NA,NA,NA,NA,NA,NA
Hope Airport,Hope Airport,Hope,Hope Airport,E223756,NA,257,Hope,49.3697,-121.4994,131,METRO VANCOUVER,MVRD,02 - Lower Mainland,ACTIVE,1996-08-15T00:00:00Z,NA,CURRENT,Lower Fraser Valley,Y,Y,N,Y,NA,NA,NA,NA,NA,NA,NA,NA,NA,NA
Hope Firehall,Hope Firehall,Hope Firehall,Hope Firehall,E214615,NA,320,Hope,49.3796,-121.4416,0,NON OPERATIONAL,ENV,02 - Lower Mainland,INACTIVE,1991-05-23T00:00:00Z,NA,35375,Lower Fraser Valley,N,Y,N,N,NA,NA,NA,NA,NA,NA,NA,NA,NA,NA
Hope Othello Compressor Station,Hope Othello Compressor Station,Hope Othello Compressor Station,Hope Othello Compressor Station 60,E254955,NA,64,Hope,49.3828,-121.3653,228,OPERATIONAL,INDUSTRY,02 - Lower Mainland,ACTIVE,2004-02-23T00:00:00Z,NA,NA,Lower Fraser Valley,NA,NA,NA,NA,NA,NA,NA,NA,NA,NA,NA,NA,NA,NA
Horseshoe Bay,Horseshoe Bay,Horseshoe Bay,Horseshoe Bay,E275843,NA,269,West Vancouver,49.3686,-123.2766,65,METRO VANCOUVER,MVRD,02 - Lower Mainland,ACTIVE,2010-06-21T00:00:00Z,NA,CURRENT,Lower Fraser Valley,Y,N,N,N,NA,NA,NA,NA,NA,NA,NA,NA,NA,NA
Horseshoe Bay,Horseshoe Bay,Horseshoe Bay,Horseshoe Bay Met,M104271,NA,322,Vancouver,49.3738,-123.2797,0,NON OPERATIONAL,ENV,02 - Lower Mainland,INACTIVE,1985-04-24T00:00:00Z,NA,CURRENT,Lower Fraser Valley,Y,N,N,N,NA,NA,NA,NA,NA,NA,NA,NA,NA,NA
Horseshoe Bay,Horseshoe Bay,Horseshoe Bay,Horseshoe Bay OLD,E207302,NA,321,Vancouver,49.3786,-123.2794,0,NON OPERATIONAL,MVRD,02 - Lower Mainland,INACTIVE,1987-12-17T00:00:00Z,NA,CURRENT,Lower Fraser Valley,Y,N,N,N,NA,NA,NA,NA,NA,NA,NA,NA,NA,NA
Houston Firehall,Houston Firehall,Houston,Houston Firehall,M107004,105101,437,Houston,54.3972,-126.645,594,OPERATIONAL,ENV,06 - Skeena,ACTIVE,2013-02-19T00:00:00Z,NA,CURRENT,Central Interior,Y,N,N,N,PE,SU,P2,R,NE,51. Bulkley-Nechako,"Houston, DM 51 034",NA,NA,NA
Houston Firehall,Houston Firehall,Houston,Houston Firehall 60,M107004,105101,3,Houston,54.398289,-126.641604,602,OPERATIONAL,ENV,06 - Skeena,ACTIVE,1994-11-21T00:00:00Z,NA,CURRENT,Central Interior,Y,N,N,N,PE,SU,P2,R,NE,51. Bulkley-Nechako,"Houston, DM 51 034",NA,NA,NA
Hudsons Hope Dudley Drive,Hudsons Hope Dudley Drive,Hudson's Hope,Hudsons Hope Dudley Drive,E321711,NA,578,Hudsons Hope,56.02686,-121.91118,494,BC HYDRO,INDUSTRY-BCH,07 - Omineca-Peace,ACTIVE,2020-10-01T00:00:00Z,NA,CURRENT,Northeast,Y,N,Y,Y,NA,NA,NA,NA,NA,NA,NA,NA,NA,N
Kamloops Aberdeen,Kamloops Aberdeen,Kamloops-Aberdeen,Kamloops Aberdeen,E303935,NA,479,Kamloops,50.63694,-120.37207,857,NON OPERATIONAL,ENV,03 - Southern Interior,INACTIVE,2015-10-16T00:00:00Z,NA,43119,Southern Interior,Y,Y,Y,Y,NA,NA,NA,NA,NA,NA,NA,NA,NA,NA
Kamloops Aberdeen,Kamloops Aberdeen,Kamloops-Aberdeen,Kamloops Aberdeen 60,E303935,NA,481,Kamloops,50.63694,-120.37207,857,NON OPERATIONAL,ENV,03 - Southern Interior,INACTIVE,2015-10-16T00:00:00Z,NA,43119,Southern Interior,Y,Y,Y,Y,NA,NA,NA,NA,NA,NA,NA,NA,NA,NA
Kamloops Blackwell Dairy Biosolids,Kamloops Blackwell Dairy Biosolids,Kamloops-Blackwell Dairy Biosolids,Kamloops Blackwell Dairy Biosolids,E306334,NA,514,Kamloops,50.65919,-120.12198,349,E-BAM NON-OPERATIONAL,ENV,03 - Southern Interior,INACTIVE,2016-07-15T00:00:00Z,NA,NA,Southern Interior,NA,NA,NA,NA,NA,NA,NA,NA,NA,NA,NA,NA,NA,NA
Kamloops Brocklehurst,Kamloops Brocklehurst,Kamloops-Brocklehurst,Kamloops Brocklehurst,E206898,NA,5,Kamloops,50.6975,-120.3969,347,NON OPERATIONAL,ENV,03 - Southern Interior,INACTIVE,1987-03-02T00:00:00Z,NA,40694,Southern Interior,Y,Y,Y,Y,NA,NA,NA,NA,NA,NA,NA,NA,NA,NA
Kamloops Brocklehurst BAM,Kamloops Brocklehurst BAM,Kamloops-Brocklehurst,Kamloops Brocklehurst BAM,E206898,NA,416,Kamloops,50.6975,-120.3969,347,NON OPERATIONAL,ENV,03 - Southern Interior,INACTIVE,2011-06-06T00:00:00Z,NA,41183,Southern Interior,Y,N,N,N,NA,NA,NA,NA,NA,NA,NA,NA,NA,NA
Kamloops Brocklehurst,Kamloops Brocklehurst,Kamloops-Brocklehurst,Kamloops Brocklehurst 60,M116003,NA,66,Kamloops,50.6975,-120.3975,347,NON OPERATIONAL,ENV,03 - Southern Interior,INACTIVE,1996-01-11T00:00:00Z,NA,40694,Southern Interior,Y,Y,Y,Y,NA,NA,NA,NA,NA,NA,NA,NA,NA,NA
Kamloops Dalhousie,Kamloops Dalhousie,Kamloops-Dalhousie,Kamloops Dalhousie,E266222,NA,219,Kamloops,50.6772,-120.3375,536,NON OPERATIONAL,ENV,03 - Southern Interior,INACTIVE,2010-02-16T00:00:00Z,NA,NA,Southern Interior,NA,NA,NA,NA,NA,NA,NA,NA,NA,NA,NA,NA,NA,NA
Kamloops Federal Building,Kamloops Federal Building,Kamloops,Kamloops Federal Building,605008,100401,267,Kamloops,50.67477,-120.334016,381,OPERATIONAL,ENV,03 - Southern Interior,ACTIVE,1978-03-03T00:00:00Z,NA,CURRENT,Southern Interior,Y,Y,Y,Y,PE,MU,P3,R,na,33. Thompson-Nicola,"Kamloops, CY 33 042",925. Kamloops. CA/AR,NA,NA
Kamloops Fire Station 2,Kamloops Fire Station 2,Kamloops-Fire Station #2,Kamloops Fire Station 2,E286009,100402,415,Kamloops,50.7025,-120.3944,348,NON OPERATIONAL,ENV,03 - Southern Interior,INACTIVE,2011-06-03T00:00:00Z,NA,41575,Southern Interior,Y,Y,Y,Y,PE,MU,P3,W,NE,33. Thompson-Nicola,"Kamloops, CY 33 042",925. Kamloops. CA/AR,NA,NA
Kamloops Wildlife Park,Kamloops Wildlife Park,Kamloops-Wildlife Park,Kamloops Wildlife Park,E261178,NA,220,Kamloops,50.755,-120.145,364,NON OPERATIONAL,ENV,03 - Southern Interior,INACTIVE,2010-02-16T00:00:00Z,NA,NA,Southern Interior,NA,NA,NA,NA,NA,NA,NA,NA,NA,NA,NA,NA,NA,NA
Kelly Lake MAML,Kelly Lake MAML,Kelly Lake MAML,Kelly Lake MAML,E284909,NA,412,Kelly Lake,55.2606,-120.0356,867,MOBILE NON OPERATIONAL,ENV,07 - Omineca-Peace,INACTIVE,2011-04-02T00:00:00Z,NA,40651,Northeast,Y,Y,Y,Y,NA,NA,NA,NA,NA,NA,NA,NA,NA,NA
Kelowna College,Kelowna,Kelowna,Kelowna College,500886,100701,9,Kelowna,49.862336,-119.477367,347,OPERATIONAL,ENV,03 - Southern Interior,INACTIVE,1983-08-11T00:00:00Z,2019-06-03T00:00:00Z,43628,Southern Interior,Y,Y,Y,Y,PE,LU,P5,R,MD,35. Central Okanagan,"Kelowna, CY 35 010","915. Kelowna, CMA/RMR",NA,NA
Kelowna College,Kelowna,Kelowna,Kelowna College 60,500886,100701,102,Kelowna,49.862336,-119.477367,347,OPERATIONAL,ENV,03 - Southern Interior,INACTIVE,1994-10-28T00:00:00Z,2019-06-03T00:00:00Z,43628,Southern Interior,Y,Y,Y,Y,PE,LU,P5,R,MD,35. Central Okanagan,"Kelowna, CY 35 010","915. Kelowna, CMA/RMR",NA,NA
Kelowna Johnson Bentley Pool,Kelowna Johnson Bentley Pool,Kelowna-Johnson Bentley Pool,Kelowna Johnson Bentley Pool,E304350,NA,482,Kelowna,49.82698,-119.6239,400,E-BAM NON-OPERATIONAL,ENV,03 - Southern Interior,INACTIVE,2015-10-09T00:00:00Z,NA,NA,Southern Interior,NA,NA,NA,NA,NA,NA,NA,NA,NA,NA,NA,NA,NA,NA
Kelowna KLO Road,Kelowna,Kelowna,Kelowna KLO Road,E317850,100703,571,Kelowna,49.862119,-119.467461,350,OPERATIONAL,ENV,03 - Southern Interior,ACTIVE,2019-09-03T00:00:00Z,NA,CURRENT,Southern Interior,Y,Y,Y,Y,PE,LU,P5,R,MD,35. Central Okanagan,"Kelowna, CY 35 010","915. Kelowna, CMA/RMR",NA,NA
Kelowna Raymer Ave WWTP,Kelowna Raymer Ave WWTP,Kelowna-Raymer Ave WWTP,Kelowna Raymer Ave WWTP,E316938,NA,567,Kelowna,49.86412,-119.48396,0,NON OPERATIONAL,ENV,03 - Southern Interior,INACTIVE,2019-06-05T00:00:00Z,NA,43719,Southern Interior,Y,N,N,N,NA,NA,NA,NA,NA,NA,NA,NA,NA,NA
Keremeos Municipal Office,Keremeos Municipal Office,Keremeos-Municipal Office,Keremeos Municipal Office,E272963,NA,68,Keremeos,49.2047,-119.8275,423,NON OPERATIONAL,ENV,03 - Southern Interior,INACTIVE,2008-01-08T00:00:00Z,NA,40165,Southern Interior,Y,Y,N,Y,NA,NA,NA,NA,NA,NA,NA,NA,NA,NA
Keremeos Municipal Office,Keremeos Municipal Office,Keremeos-Municipal Office,Keremeos Municipal Office 60,E272963,NA,70,Keremeos,49.2047,-119.8275,423,NON OPERATIONAL,ENV,03 - Southern Interior,INACTIVE,2008-01-08T00:00:00Z,NA,40165,Southern Interior,Y,Y,N,Y,NA,NA,NA,NA,NA,NA,NA,NA,NA,NA
Kimberely Lois Creek,Kimberely Lois Creek,Kimberely Lois Creek,Kimberely Lois Creek,440401,NA,359,Kimberely,49.7522,-115.985,0,NON OPERATIONAL,INDUSTRY,04 - Kootenay,INACTIVE,1991-01-06T00:00:00Z,NA,34304,Southern Interior,N,N,Y,N,NA,NA,NA,NA,NA,NA,NA,NA,NA,NA
Kimberely Mine Shaft 24,Kimberely Mine Shaft 24,Kimberely Mine Shaft 24,Kimberely Mine Shaft 24,440402,NA,360,Kimberely,49.7147,-115.9967,1500,NON OPERATIONAL,INDUSTRY,04 - Kootenay,INACTIVE,1991-01-06T00:00:00Z,NA,34303,Southern Interior,N,N,Y,N,NA,NA,NA,NA,NA,NA,NA,NA,NA,NA
Kitimat Alcan Dock,Kitimat Alcan Dock,Kitimat Alcan Dock,Kitimat Alcan Dock,E206671,NA,381,Kitimat,53.9883,-128.695,0,NON OPERATIONAL,INDUSTRY,06 - Skeena,INACTIVE,1987-01-23T00:00:00Z,NA,33330,Coastal,N,N,Y,N,NA,NA,NA,NA,NA,NA,NA,NA,NA,NA
Kitimat City Centre MAML,Kitimat City Centre MAML,Kitimat City Centre MAML,Kitimat City Centre MAML,E283510,NA,282,Kitimat,54.0553,-128.6544,30,MOBILE NON OPERATIONAL,ENV,06 - Skeena,INACTIVE,2010-09-15T00:00:00Z,NA,40869,Coastal,Y,Y,Y,Y,NA,NA,NA,NA,NA,NA,NA,NA,NA,NA
Kitimat Eurocan Dock,Kitimat Eurocan Dock,Kitimat Eurocan Dock,Kitimat Eurocan Dock 60,M106008,NA,72,Kitimat,53.995,-128.6783,10,NON OPERATIONAL,INDUSTRY,06 - Skeena,INACTIVE,1996-07-10T00:00:00Z,NA,NA,Coastal,NA,NA,NA,NA,NA,NA,NA,NA,NA,NA,NA,NA,NA,NA
Kitimat Haisla Village,Kitimat Haisla Village,Kitimat-Haisla Village,Kitimat Haisla Village,E282711,103905,271,Kitimat,53.973228,-128.650768,5,OPERATIONAL,INDUSTRY,06 - Skeena,ACTIVE,2010-01-07T00:00:00Z,NA,CURRENT,Coastal,Y,N,Y,N,RB,NU,P2,I,NE,49. Kitimat-Stikine,"Kitamat 2, IRI 49 803",NA,NA,NA
Kitimat Haul Road,Kitimat Haul Road,Kitimat-Haul Rd,Kitimat Haul Road,E223616,103902,73,Kitimat,54.029194,-128.70269,11,OPERATIONAL,INDUSTRY,06 - Skeena,ACTIVE,1996-01-11T00:00:00Z,NA,CURRENT,Coastal,Y,N,Y,N,PS,NU,P2,I,MD,49. Kitimat-Stikine,"Kitimat, DM 49 005","960. Kitimat, CA/AR",NA,N
Kitimat Haul Road,Kitimat Haul Road,Kitimat-Haul Rd,Kitimat Haul Road Met 60,E223616,103902,75,Kitimat,54.029194,-128.70269,11,OPERATIONAL,INDUSTRY,06 - Skeena,ACTIVE,1996-10-04T00:00:00Z,NA,CURRENT,Coastal,Y,N,Y,N,PS,NU,P2,I,MD,49. Kitimat-Stikine,"Kitimat, DM 49 005","960. Kitimat, CA/AR",NA,N
Kitimat Industrial Ave,Kitimat Industrial Ave,Kitimat-Industrial Ave,Kitimat Industrial Ave,E320051,103907,576,Kitimat,54.061,-128.688,21,OPERATIONAL,INDUSTRY,06 - Skeena,ACTIVE,2020-05-09T00:00:00Z,NA,CURRENT,Coastal,N,N,Y,N,PE,SU,P2,I,na,49. Kitimat-Stikine,"Kitimat, DM 49 005",NA,NA,N
Kitimat Kildala School,Kitimat Kildala School,Kitimat-Kildala School,Kitimat Kildala School,660601,NA,382,Kitimat,54.0542,-128.6722,0,NON OPERATIONAL,INDUSTRY,06 - Skeena,INACTIVE,1988-01-05T00:00:00Z,NA,NA,Coastal,NA,NA,NA,NA,NA,NA,NA,NA,NA,NA,NA,NA,NA,NA
Kitimat Minette,Kitimat Minette,Kitimat-Minette,Kitimat Minette,E207182,NA,383,Kitimat,54.0325,-128.7122,110,NON OPERATIONAL,INDUSTRY,06 - Skeena,INACTIVE,1987-01-06T00:00:00Z,NA,35345,Coastal,N,N,Y,N,NA,NA,NA,NA,NA,NA,NA,NA,NA,NA
Kitimat Rail,Kitimat Rail,Kitimat-Rail,Kitimat Rail,E223827,103903,76,Kitimat,54.0611,-128.6872,75,NON OPERATIONAL,INDUSTRY,06 - Skeena,INACTIVE,1996-09-10T00:00:00Z,NA,40354,Coastal,Y,Y,Y,Y,PE,SU,P2,I,na,49. Kitimat-Stikine,"Kitimat, DM 49 005","960. Kitimat, CA/AR",NA,NA
Kitimat Rio Tinto Alcan KMP Camp,Kitimat Rio Tinto Alcan KMP Camp,Kitimat-Rio Tinto Alcan KMP Camp,Kitimat Rio Tinto Alcan KMP Camp 60,E277529,NA,279,Kitimat,54.0194,-128.7042,17,NON OPERATIONAL,INDUSTRY,06 - Skeena,INACTIVE,2010-08-18T00:00:00Z,NA,41085,Coastal,N,N,Y,N,NA,NA,NA,NA,NA,NA,NA,NA,NA,N
Kitimat Riverlodge,Kitimat Riverlodge,Kitimat-Riverlodge,Kitimat Riverlodge,E216670,103901,77,Kitimat,54.05389,-128.671436,18,OPERATIONAL,INDUSTRY,06 - Skeena,ACTIVE,1995-04-05T00:00:00Z,NA,CURRENT,Coastal,Y,N,Y,N,PE,SU,P2,R,NE,49. Kitimat-Stikine,"Kitimat, DM 49 005","960. Kitimat, CA/AR",NA,NA
Kitimat Saunders,Kitimat Saunders,Kitimat-Saunders,Kitimat Saunders,660602,NA,384,Kitimat,54.0606,-128.6867,0,NON OPERATIONAL,INDUSTRY,06 - Skeena,INACTIVE,1987-01-06T00:00:00Z,NA,NA,Coastal,NA,NA,NA,NA,NA,NA,NA,NA,NA,NA,NA,NA,NA,NA
Kitimat Smeltersite Road,Kitimat Smeltersite Road,Kitimat-Smeltersite Road,Kitimat Smeltersite Road,E290529,103906,431,Kitimat,54.018801,-128.700585,2,NON OPERATIONAL,INDUSTRY,06 - Skeena,INACTIVE,2012-08-14T00:00:00Z,2016-06-02T00:00:00Z,42516,Coastal,Y,N,Y,N,PS,NU,P1,O,MD,49. Kitimat-Stikine,"Kitimat, DM 49 020",NA,NA,N
Kitimat Whitesail,Kitimat Whitesail,Kitimat-Whitesail,Kitimat Whitesail,E223615,103904,78,Kitimat,54.066909,-128.639131,94,OPERATIONAL,INDUSTRY,06 - Skeena,ACTIVE,1996-12-07T00:00:00Z,NA,CURRENT,Coastal,Y,Y,Y,Y,PE,SU,P2,R,NE,49. Kitimat-Stikine,"Kitimat, DM 49 005","960. Kitimat, CA/AR",NA,NA
Kitimat Whitesail,Kitimat Whitesail,Kitimat-Whitesail,Kitimat Whitesail Met 60,E223615,103904,80,Kitimat,54.066909,-128.639131,94,OPERATIONAL,INDUSTRY,06 - Skeena,ACTIVE,1996-11-29T00:00:00Z,NA,CURRENT,Coastal,Y,Y,Y,Y,PE,SU,P2,R,NE,49. Kitimat-Stikine,"Kitimat, DM 49 005","960. Kitimat, CA/AR",NA,NA
Kitimat Yacht Club,Kitimat Yacht Club,Kitimat-Yacht Club,Kitimat Yacht Club 60,E286269,NA,418,Kitimat,54,-128.692,2,OPERATIONAL,INDUSTRY,06 - Skeena,ACTIVE,2011-06-14T00:00:00Z,NA,NA,Coastal,NA,NA,NA,NA,NA,NA,NA,NA,NA,NA,NA,NA,NA,NA
Kitwanga School,Kitwanga School,Kitwanga School,Kitwanga School Met 60,E255714,NA,82,Kitwanga,55.1172,-128.0158,253,NON OPERATIONAL,ENV,06 - Skeena,INACTIVE,2004-10-25T00:00:00Z,NA,NA,Central Interior,NA,NA,NA,NA,NA,NA,NA,NA,NA,NA,NA,NA,NA,NA
Kwoen Gas Plant,Kwoen Gas Plant,Kwoen Gas Plant,Kwoen Gas Plant 60,E248774,NA,85,Chetwynd,55.3778,-121.7047,665,OPERATIONAL,INDUSTRY,07 - Omineca-Peace,INACTIVE,2002-08-09T00:00:00Z,NA,NA,Northeast,NA,NA,NA,NA,NA,NA,NA,NA,NA,NA,NA,NA,NA,NA
Ladysmith Health Centre,Ladysmith Health Centre,Ladysmith Health Centre,Ladysmith Health Centre,E306482,NA,519,Ladysmith,48.995639,-123.827861,121,E-BAM NON-OPERATIONAL,ENV,01 - Vancouver Island,INACTIVE,2016-08-26T00:00:00Z,NA,NA,Georgia Strait,NA,NA,NA,NA,NA,NA,NA,NA,NA,NA,NA,NA,NA,NA
Lake Cowichan Fire Hall,Lake Cowichan Fire Hall,Lake Cowichan Fire Hall,Lake Cowichan Fire Hall,E303794,NA,478,Duncan,48.828333,-124.054167,178,E-BAM NON-OPERATIONAL,ENV,01 - Vancouver Island,INACTIVE,2015-09-17T00:00:00Z,2016-06-02T00:00:00Z,42523,Georgia Strait,NA,NA,NA,NA,NA,NA,NA,NA,NA,NA,NA,NA,NA,NA
Langdale Elementary,Langdale Elementary,Langdale,Langdale Elementary,E222778,105301,86,Langdale,49.438848,-123.479185,90,OPERATIONAL,INDUSTRY,02 - Lower Mainland,ACTIVE,1995-01-12T00:00:00Z,NA,CURRENT,Georgia Strait,Y,N,Y,Y,PE,SU,P2,R,NE,29. Sunshine Coast,"Sunshine Coast F, RDA 29 028",NA,NA,Y
Langdale Ferry Terminal,Langdale Ferry Terminal,Langdale Ferry Terminal,Langdale Ferry Terminal 60,M104273,NA,88,Langdale,49.4344,-123.4691,15,NON OPERATIONAL,ENV,02 - Lower Mainland,INACTIVE,1987-11-09T00:00:00Z,NA,NA,Georgia Strait,NA,NA,NA,NA,NA,NA,NA,NA,NA,NA,NA,NA,NA,NA
Langdale YMCA,Langdale YMCA,Langdale YMCA,Langdale YMCA,E206987,NA,323,Gibsons,49.45,-123.4678,0,NON OPERATIONAL,INDUSTRY,02 - Lower Mainland,INACTIVE,1987-01-07T00:00:00Z,NA,NA,Georgia Strait,NA,NA,NA,NA,NA,NA,NA,NA,NA,NA,NA,NA,NA,NA
Langford Dogwood School,Langford Dogwood School,Langford Dogwood School,Langford Dogwood School,E249735,NA,295,Victoria,48.453,-123.5043,80,NON OPERATIONAL,ENV,01 - Vancouver Island,INACTIVE,2002-12-11T00:00:00Z,NA,38575,Georgia Strait,Y,N,N,N,NA,NA,NA,NA,NA,NA,NA,NA,NA,NA
Langford Lakewood School,Langford Lakewood School,Langford Lakewood  School,Langford Lakewood School 60,E264882,100316,91,Victoria,48.4658,-123.5075,100,NON OPERATIONAL,ENV,01 - Vancouver Island,INACTIVE,2007-08-02T00:00:00Z,NA,NA,Georgia Strait,NA,NA,NA,NA,PE,LU,P3,R,na,17. Capital,"Langford, CY 17 044","935. Victoria, CMA/RMR",NA,NA
Langford Lakewood Elementary School,Langford Lakewood Elementary School,Langford Lakewood Elementary School,Langford Lakewood Elementary School,E264882,100316,14,Victoria,48.4658,-123.5075,100,NON OPERATIONAL,ENV,01 - Vancouver Island,INACTIVE,2007-08-02T00:00:00Z,NA,40441,Georgia Strait,Y,Y,Y,Y,PE,LU,P3,R,na,17. Capital,"Langford, CY 17 044","935. Victoria, CMA/RMR",NA,NA
Langley Central,Langley Central,Langley,Langley Central,E209178,NA,256,Langley,49.0956,-122.5669,82,METRO VANCOUVER,MVRD,02 - Lower Mainland,ACTIVE,1992-06-06T00:00:00Z,NA,CURRENT,Lower Fraser Valley,Y,Y,Y,Y,NA,NA,NA,NA,NA,NA,NA,NA,NA,NA
Langley Peterson,Langley Peterson,Langley Peterson,Langley Peterson,M110515,NA,324,Langley,49.0872,-122.5733,110,NON OPERATIONAL,ENV,02 - Lower Mainland,INACTIVE,1987-02-19T00:00:00Z,NA,NA,Lower Fraser Valley,NA,NA,NA,NA,NA,NA,NA,NA,NA,NA,NA,NA,NA,NA
Langley Peterson School,Langley Peterson School,Langley Peterson School,Langley Peterson School,E206707,NA,328,Langley,49.0875,-122.5722,0,NON OPERATIONAL,ENV,02 - Lower Mainland,INACTIVE,1986-12-06T00:00:00Z,NA,33380,Lower Fraser Valley,N,Y,N,N,NA,NA,NA,NA,NA,NA,NA,NA,NA,NA
Lavington Baptist Church,Lavington Baptist Church,Lavington,Lavington Baptist Church,E304590,NA,490,Coldstream,50.23081,-119.10674,537,OPERATIONAL,ENV,03 - Southern Interior,INACTIVE,2015-11-09T00:00:00Z,NA,43607,Southern Interior,Y,N,N,N,NA,NA,NA,NA,NA,NA,NA,NA,NA,NA
Lavington Pinnacle Pellets,Lavington Pinnacle Pellets,Lavington Pinnacle Pellets,Lavington Pinnacle Pellets,E310508,NA,536,Vernon,50.23372,-119.09766,529,E-BAM NON-OPERATIONAL,ENV,03 - Southern Interior,INACTIVE,2017-11-21T00:00:00Z,NA,NA,Southern Interior,NA,NA,NA,NA,NA,NA,NA,NA,NA,NA,NA,NA,NA,N
Mackenzie,Mackenzie,Mackenzie,Mackenzie,770709,NA,92,Mackenzie,55.3363,-123.0955,645,NON OPERATIONAL,INDUSTRY,07 - Omineca-Peace,INACTIVE,1991-01-09T00:00:00Z,NA,39814,Central Interior,Y,N,N,N,NA,NA,NA,NA,NA,NA,NA,NA,NA,NA
MAML North Road,MAML North Road,Saanich-North Rd MAML,MAML North Road,E,NA,62,Victoria,NA,NA,0,MOBILE NON OPERATIONAL,ENV,01 - Vancouver Island,INACTIVE,2009-12-24T00:00:00Z,NA,NA,NA,NA,NA,NA,NA,NA,NA,NA,NA,NA,NA,NA,NA,NA,NA
Manalta,Manalta,Manalta,Manalta,E230577,NA,385,Telkwa,54.645,-127.1203,0,NON OPERATIONAL,INDUSTRY,06 - Skeena,INACTIVE,1998-01-20T00:00:00Z,NA,NA,Central Interior,NA,NA,NA,NA,NA,NA,NA,NA,NA,NA,NA,NA,NA,NA
Maple Ridge Golden Ears School,Maple Ridge Golden Ears School,Maple Ridge,Maple Ridge Golden Ears School,E232245,NA,258,Maple Ridge,49.215,-122.5819,100,METRO VANCOUVER,MVRD,02 - Lower Mainland,ACTIVE,1998-01-02T00:00:00Z,NA,CURRENT,Lower Fraser Valley,N,Y,N,Y,NA,NA,NA,NA,NA,NA,NA,NA,NA,NA
Merritt City Hall,Merritt City Hall,Merritt City Hall,Merritt City Hall,605040,NA,343,Merritt,50.1128,-121.7889,500,NON OPERATIONAL,ENV,03 - Southern Interior,INACTIVE,1998-02-09T00:00:00Z,NA,NA,Southern Interior,NA,NA,NA,NA,NA,NA,NA,NA,NA,NA,NA,NA,NA,NA
Merritt Gillis House,Merritt Gillis House,Merritt Gillis House,Merritt Gillis House,E264161,NA,221,Merritt,50.1806,-120.5556,602,NON OPERATIONAL,ENV,03 - Southern Interior,INACTIVE,2010-02-16T00:00:00Z,NA,NA,Southern Interior,NA,NA,NA,NA,NA,NA,NA,NA,NA,NA,NA,NA,NA,NA
Merritt Granite Garcia Mobile,Merritt Granite Garcia Mobile,Merritt Granite-Garcia Mobile,Merritt Granite Garcia Mobile,E237431,NA,344,Merritt,50.1128,-121.7889,500,NON OPERATIONAL,ENV,03 - Southern Interior,INACTIVE,1999-05-14T00:00:00Z,NA,36675,Southern Interior,Y,Y,Y,Y,NA,NA,NA,NA,NA,NA,NA,NA,NA,NA
Merritt Nicola Ave MAML,Merritt Nicola Ave MAML,Merritt-NicolaAve,Merritt Nicola Ave MAML,E327591,NA,586,Merritt,50.112397,-120.788875,600,MOBILE,ENV,03 - Southern Interior,ACTIVE,2022-02-14T00:00:00Z,NA,NA,Southern Interior,NA,NA,NA,NA,NA,NA,NA,NA,NA,NA,NA,NA,NA,NA
Merritt Parcel Street,Merritt Parcel Street,Merritt Parcel Street,Merritt Parcel Street,E264682,NA,557,Merritt,50.105,-120.7921,603,E-BAM NON-OPERATIONAL,ENV,03 - Southern Interior,INACTIVE,2018-10-12T00:00:00Z,NA,NA,Southern Interior,NA,NA,NA,NA,NA,NA,NA,NA,NA,NA,NA,NA,NA,NA
Merritt Parcel Street,Merritt Parcel Street,Merritt Parcel Street,Merritt Parcel Street Met 60,E264682,NA,94,Merritt,50.105,-120.7921,603,OPERATIONAL,ENV,03 - Southern Interior,ACTIVE,2006-04-12T00:00:00Z,NA,NA,Southern Interior,NA,NA,NA,NA,NA,NA,NA,NA,NA,NA,NA,NA,NA,NA
Merritt Tolko SW,Merritt Tolko SW,Merritt Tolko SW,Merritt Tolko SW,E264842,NA,100,Merritt,50.2139,-120.8403,619,NON OPERATIONAL,ENV,03 - Southern Interior,INACTIVE,2009-02-10T00:00:00Z,NA,NA,Southern Interior,NA,NA,NA,NA,NA,NA,NA,NA,NA,NA,NA,NA,NA,NA
Mission School Works Yard,Mission School Works Yard,Mission,Mission School Works Yard,E302130,NA,474,Mission,49.14149,-122.311078,74,METRO VANCOUVER,MVRD,02 - Lower Mainland,ACTIVE,2014-08-07T00:00:00Z,NA,CURRENT,Lower Fraser Valley,Y,Y,N,Y,NA,NA,NA,NA,NA,NA,NA,NA,NA,NA
Mission School Works Yard,Mission School Works Yard,Mission,Mission School Works Yard Met,E302130,NA,476,Mission,49.14149,-122.311078,74,METRO VANCOUVER,MVRD,02 - Lower Mainland,ACTIVE,2015-05-20T00:00:00Z,NA,CURRENT,Lower Fraser Valley,Y,Y,N,Y,NA,NA,NA,NA,NA,NA,NA,NA,NA,NA
Moricetown MAML,Moricetown MAML,Moricetown MAML,Moricetown MAML,E277629,NA,215,Moricetown,NA,NA,0,MOBILE NON OPERATIONAL,ENV,06 - Skeena,INACTIVE,2009-10-22T00:00:00Z,NA,40158,NA,N,Y,Y,Y,NA,NA,NA,NA,NA,NA,NA,NA,NA,NA
Nanaimo Labieux Road,Nanaimo Labieux Road,Nanaimo,Nanaimo Labieux Road,E229797,102102,10,Nanaimo,49.20083,-123.99389,121,OPERATIONAL,ENV,01 - Vancouver Island,ACTIVE,1997-01-12T00:00:00Z,NA,CURRENT,Georgia Strait,Y,Y,Y,Y,T,MU,P3,P,NE,21. Nanaimo,"Nanaimo, CY 21 007","938. Nanaimo, CA/AR",NA,Y
Nelson,Nelson,Nelson,Nelson,M114216,NA,361,Nelson,49.4928,-117.2969,538,NON OPERATIONAL,ENV,04 - Kootenay,INACTIVE,1985-10-23T00:00:00Z,NA,NA,Southern Interior,NA,NA,NA,NA,NA,NA,NA,NA,NA,NA,NA,NA,NA,NA
Nelson Kutenai Place,Nelson Kutenai Place,Nelson,Nelson Kutenai Place,E258315,103302,89,Nelson,49.4908,-117.2952,542,NON OPERATIONAL,ENV,04 - Kootenay,INACTIVE,2005-03-23T00:00:00Z,2015-04-23T00:00:00Z,43010,Southern Interior,Y,Y,N,N,PE,SU,P3,R,NE,03. Central Kootenay,"Nelson, CY 03 015","907. Nelson, CA/AR",NA,NA
New Hazelton School,New Hazelton School,New Hazelton School,New Hazelton School Met 60,E260397,NA,96,New Hazelton,55.2452,-127.5861,321,NON OPERATIONAL,ENV,06 - Skeena,INACTIVE,2005-11-08T00:00:00Z,NA,NA,Central Interior,NA,NA,NA,NA,NA,NA,NA,NA,NA,NA,NA,NA,NA,NA
New Westminster Sapperton Park,New Westminster Sapperton Park,New Westminster,New Westminster Sapperton Park,E308566,NA,530,New Westminster,49.227045,-122.894487,45,METRO VANCOUVER,MVRD,02 - Lower Mainland,ACTIVE,2015-11-01T00:00:00Z,NA,CURRENT,Lower Fraser Valley,Y,Y,N,Y,NA,NA,NA,NA,NA,NA,NA,NA,NA,NA
New Westminster Sapperton Park,New Westminster Sapperton Park,New Westminster,New Westminster Sapperton Park Met,E308566,NA,531,New Westminster,49.227045,-122.894487,45,METRO VANCOUVER,MVRD,02 - Lower Mainland,ACTIVE,2015-11-01T00:00:00Z,NA,CURRENT,Lower Fraser Valley,Y,Y,N,Y,NA,NA,NA,NA,NA,NA,NA,NA,NA,NA
North Burnaby Capitol Hill,North Burnaby Capitol Hill,Burnaby-Capitol Hill,North Burnaby Capitol Hill,E244516,NA,252,Burnaby,49.2878,-122.9856,200,METRO VANCOUVER,MVRD,02 - Lower Mainland,ACTIVE,2000-01-01T00:00:00Z,NA,CURRENT,Lower Fraser Valley,N,N,Y,N,NA,NA,NA,NA,NA,NA,NA,NA,NA,NA
North Delta,North Delta,North Delta,North Delta,E207723,NA,246,Delta,49.1583,-122.9017,111,METRO VANCOUVER,MVRD,02 - Lower Mainland,ACTIVE,1987-01-06T00:00:00Z,NA,CURRENT,Lower Fraser Valley,Y,Y,N,Y,NA,NA,NA,NA,NA,NA,NA,NA,NA,NA
North Nechako,North Nechako,North Nechako,North Nechako,E267442,NA,237,Prince George,53.9532,-122.8266,0,NON OPERATIONAL,ENV,07 - Omineca-Peace,INACTIVE,2010-03-15T00:00:00Z,NA,NA,Central Interior,NA,NA,NA,NA,NA,NA,NA,NA,NA,NA,NA,NA,NA,NA
North Vancouver Mahon Park,North Vancouver Mahon Park,N.Vancouver-Mahon Park,North Vancouver Mahon Park,E209177,NA,255,North Vancouver,49.3239,-123.0836,80,METRO VANCOUVER,MVRD,02 - Lower Mainland,ACTIVE,1990-04-01T00:00:00Z,NA,CURRENT,Lower Fraser Valley,Y,Y,Y,Y,NA,NA,NA,NA,NA,NA,NA,NA,NA,NA
North Vancouver Second Narrows,North Vancouver Second Narrows,N.Vancouver-2nd Narrows,North Vancouver Second Narrows,310179,NA,243,North Vancouver,49.3017,-123.0203,15,METRO VANCOUVER,MVRD,02 - Lower Mainland,ACTIVE,1977-01-04T00:00:00Z,NA,CURRENT,Lower Fraser Valley,Y,Y,Y,Y,NA,NA,NA,NA,NA,NA,NA,NA,NA,NA
Northport Washington,Northport Washington,Northport Washington,Northport Washington,E222689,NA,362,Spokane,48.9256,-117.7797,420,NON OPERATIONAL,INDUSTRY,04 - Kootenay,INACTIVE,1995-12-21T00:00:00Z,NA,36892,NA,N,N,Y,N,NA,NA,NA,NA,NA,NA,NA,NA,NA,NA
Oliver Firehall,Oliver Firehall,Oliver Firehall,Oliver Firehall,E270643,NA,101,Oliver,49.1775,-119.5856,305,NON OPERATIONAL,ENV,03 - Southern Interior,INACTIVE,2011-03-08T00:00:00Z,NA,NA,Southern Interior,NA,NA,NA,NA,NA,NA,NA,NA,NA,NA,NA,NA,NA,NA
Osoyoos Canada Customs,Osoyoos Canada Customs,Osoyoos Canada Customs,Osoyoos Canada Customs,E257415,NA,12,Osoyoos,49,-119.4625,308,NON OPERATIONAL,ENV,03 - Southern Interior,INACTIVE,2004-11-01T00:00:00Z,NA,41030,Southern Interior,Y,Y,Y,Y,NA,NA,NA,NA,NA,NA,NA,NA,NA,NA
Osoyoos Canada Customs,Osoyoos Canada Customs,Osoyoos Canada Customs,Osoyoos Canada Customs 60,E257415,NA,120,Osoyoos,49,-119.4625,308,NON OPERATIONAL,ENV,03 - Southern Interior,INACTIVE,2004-11-01T00:00:00Z,NA,41030,Southern Interior,Y,Y,Y,Y,NA,NA,NA,NA,NA,NA,NA,NA,NA,NA
Osoyoos Shaw Gardens,Osoyoos Shaw Gardens,Osoyoos Shaw Gardens,Osoyoos Shaw Gardens,E244775,NA,345,Osoyoos,49.0322,-119.4689,297,NON OPERATIONAL,INDUSTRY,03 - Southern Interior,INACTIVE,2001-01-08T00:00:00Z,NA,37509,Southern Interior,Y,Y,Y,Y,NA,NA,NA,NA,NA,NA,NA,NA,NA,NA
Parksville Ballenas School,Parksville Ballenas School,Parksville Ballenas School,Parksville Ballenas School,E312830,NA,548,Nanaimo,49.321787,-124.33824,141,E-BAM NON-OPERATIONAL,ENV,01 - Vancouver Island,INACTIVE,2018-06-25T00:00:00Z,NA,NA,Georgia Strait,NA,NA,NA,NA,NA,NA,NA,NA,NA,NA,NA,NA,NA,NA
Peace Valley Attachie Flat Upper Terrace,Peace Valley Attachie Flat Upper Terrace,Peace Valley,Peace Valley Attachie Flat Upper Terrace 60,E304453,NA,485,Fort St John,56.231213,-121.41944,480,BC HYDRO,INDUSTRY-BCH,07 - Omineca-Peace,ACTIVE,2015-10-28T00:00:00Z,NA,CURRENT,Northeast,Y,N,N,N,NA,NA,NA,NA,NA,NA,NA,NA,NA,N
Peace Valley Attachie Flat Upper Terrace,Peace Valley Attachie Flat Upper Terrace,Peace Valley,Peace Valley Attachie Flat Upper Terrace Met 60,E304453,NA,540,Fort St John,56.231213,-121.41944,480,BC HYDRO,INDUSTRY-BCH,07 - Omineca-Peace,ACTIVE,2017-12-12T00:00:00Z,NA,CURRENT,Northeast,Y,N,N,N,NA,NA,NA,NA,NA,NA,NA,NA,NA,N
Pemberton Clover Road,Pemberton Clover Road,Pemberton Clover Road,Pemberton Clover Road,E206167,NA,329,Pemberton,50.3225,-122.7897,0,NON OPERATIONAL,ENV,02 - Lower Mainland,INACTIVE,1984-01-10T00:00:00Z,NA,31562,Georgia Strait,N,Y,N,N,NA,NA,NA,NA,NA,NA,NA,NA,NA,NA
Pemberton Signal Hill Elementary,Pemberton Signal Hill Elementary,Pemberton Signal Hill Elementary,Pemberton Signal Hill Elementary,E260557,NA,121,Pemberton,50.31355,-122.78987,211,NON CONTINUOUS,ENV,02 - Lower Mainland,INACTIVE,2011-12-08T00:00:00Z,NA,NA,Georgia Strait,NA,NA,NA,NA,NA,NA,NA,NA,NA,NA,NA,NA,NA,NA
Penticton Carmi School,Penticton Carmi School,Penticton Carmi School,Penticton Carmi School,500869,NA,346,Penticton,49.4847,-119.5833,0,NON OPERATIONAL,ENV,03 - Southern Interior,INACTIVE,1983-11-21T00:00:00Z,NA,31932,Southern Interior,N,Y,N,N,NA,NA,NA,NA,NA,NA,NA,NA,NA,NA
Penticton Industrial Place,Penticton Industrial Place,Penticton,Penticton Industrial Place,E317390,105604,569,Penticton,49.47753,-119.59578,342,OPERATIONAL,ENV,03 - Southern Interior,ACTIVE,2019-07-15T00:00:00Z,NA,CURRENT,Southern Interior,Y,N,N,N,RB,NU,P2,A,UR,07. Okanagan-Similkameen A,Okanagan-Similkameen A,NA,NA,N
PG Marsulex,PG Marsulex,PG Marsulex,PG Marsulex Met 60,E278829,NA,233,Prince George,53.845173,-122.73395,595,OPERATIONAL,INDUSTRY,07 - Omineca-Peace,ACTIVE,2010-04-30T00:00:00Z,NA,NA,Central Interior,NA,NA,NA,NA,NA,NA,NA,NA,NA,NA,NA,NA,NA,NA
PG Van Bien School,PG Van Bien School,PG Van Bien School,PG Van Bien School,450232,NA,238,Prince George,53.8905,-122.7615,0,NON OPERATIONAL,ENV,07 - Omineca-Peace,INACTIVE,2010-03-15T00:00:00Z,NA,NA,Central Interior,NA,NA,NA,NA,NA,NA,NA,NA,NA,NA,NA,NA,NA,NA
PG Western Acres,PG Western Acres,PG Western Acres,PG Western Acres,E259277,NA,239,Prince George,53.8215,-122.8758,753,NON OPERATIONAL,ENV,07 - Omineca-Peace,INACTIVE,2010-03-15T00:00:00Z,NA,NA,Central Interior,NA,NA,NA,NA,NA,NA,NA,NA,NA,NA,NA,NA,NA,NA
Pine River Airport,Pine River Airport,Pine River-Airport,Pine River Airport,770701,NA,400,Chetwynd,55.6778,-121.625,0,NON OPERATIONAL,INDUSTRY,07 - Omineca-Peace,INACTIVE,1993-01-04T00:00:00Z,NA,36273,Northeast,N,N,Y,N,NA,NA,NA,NA,NA,NA,NA,NA,NA,NA
Pine River Bend River Ranch,Pine River Bend River Ranch,Pine River-Bend River Ranch,Pine River Bend River Ranch,770702,NA,401,Chetwynd,55.6222,-121.9167,0,NON OPERATIONAL,INDUSTRY,07 - Omineca-Peace,INACTIVE,1993-01-04T00:00:00Z,NA,36301,Northeast,N,N,Y,N,NA,NA,NA,NA,NA,NA,NA,NA,NA,NA
Pine River Gas Plant,Pine River Gas Plant,Pine River-Gas Plant,Pine River Gas Plant 60,770703,103702,107,Chetwynd,55.57463,-121.921476,1159,OPERATIONAL,INDUSTRY,07 - Omineca-Peace,ACTIVE,1993-01-04T00:00:00Z,NA,CURRENT,Northeast,N,N,Y,N,PS,NU,P1,F,NE,55. Peace River,"Peace River E, RDA 55 023",NA,NA,N
Pine River Hasler,Pine River Hasler,Pine River-Hasler,Pine River Hasler 60,E237631,103704,110,Chetwynd,55.60556,-121.973469,602,OPERATIONAL,INDUSTRY,07 - Omineca-Peace,ACTIVE,1999-05-26T00:00:00Z,NA,CURRENT,Northeast,N,N,Y,N,RB,NU,P1,F,NE,55. Peace River,"Peace River E, RDA 55 023",NA,NA,N
Pitt Meadows,Pitt Meadows,Pitt Meadows,Pitt Meadows,M110510,NA,330,Pitt Meadows,49.2167,-122.7167,3,NON OPERATIONAL,ENV,02 - Lower Mainland,INACTIVE,1985-10-04T00:00:00Z,NA,NA,Lower Fraser Valley,NA,NA,NA,NA,NA,NA,NA,NA,NA,NA,NA,NA,NA,NA
Pitt Meadows Airport,Pitt Meadows Airport,Pitt Meadows Airport,Pitt Meadows Airport,E206169,NA,331,Pitt Meadows,49.2089,-122.7063,15,NON OPERATIONAL,MVRD,02 - Lower Mainland,INACTIVE,1985-01-03T00:00:00Z,NA,35130,Lower Fraser Valley,N,Y,Y,Y,NA,NA,NA,NA,NA,NA,NA,NA,NA,NA
Pitt Meadows Meadowlands School,Pitt Meadows Meadowlands School,Pitt Meadows,Pitt Meadows Meadowlands School,E232244,NA,501,Pitt Meadows,49.2453,-122.7089,20,METRO VANCOUVER,MVRD,02 - Lower Mainland,ACTIVE,1998-01-02T00:00:00Z,NA,CURRENT,Lower Fraser Valley,Y,Y,Y,Y,NA,NA,NA,NA,NA,NA,NA,NA,NA,NA
Pitt Meadows Meadowlands School,Pitt Meadows Meadowlands School,Pitt Meadows,Pitt Meadows Meadowlands School OLD,E232244,NA,250,Pitt Meadows,49.2453,-122.7089,20,METRO VANCOUVER NON OPERATIONAL,MVRD,02 - Lower Mainland,INACTIVE,1998-01-02T00:00:00Z,NA,CURRENT,Lower Fraser Valley,Y,Y,Y,Y,NA,NA,NA,NA,NA,NA,NA,NA,NA,NA
Port Alberni,Port Alberni,Port Alberni,Port Alberni,110258,NA,296,Port Alberni,49.2617,-124.8244,0,NON OPERATIONAL,ENV,01 - Vancouver Island,INACTIVE,1978-01-04T00:00:00Z,NA,NA,Georgia Strait,NA,NA,NA,NA,NA,NA,NA,NA,NA,NA,NA,NA,NA,NA
Port Alberni BC Hydro,Port Alberni BC Hydro,Port Alberni BC Hydro,Port Alberni BC Hydro,E244234,NA,297,Port Alberni,49.25,-124.8092,10,NON OPERATIONAL,INDUSTRY,01 - Vancouver Island,INACTIVE,2001-06-15T00:00:00Z,NA,37267,Georgia Strait,N,Y,N,Y,NA,NA,NA,NA,NA,NA,NA,NA,NA,NA
Port Alberni Elementary,Port Alberni Elementary,Port Alberni-Elem.School,Port Alberni Elementary,E273483,102602,263,Port Alberni,49.261014,-124.806628,21,OPERATIONAL,INDUSTRY,01 - Vancouver Island,ACTIVE,2010-05-31T00:00:00Z,NA,CURRENT,Georgia Strait,Y,N,Y,N,T,SU,P3,R,NE,23. Alberni-Clayoquot,"Port Alberni, CY 23 039","940. Port Alberni, CA/AR",NA,Y
Port Alberni Firehall MAML,Port Alberni Firehall MAML,Port Alberni Firehall MAML,Port Alberni Firehall MAML,E296090,NA,457,Port Alberni,49.243056,-124.796667,44,MOBILE NON OPERATIONAL,ENV,01 - Vancouver Island,INACTIVE,2014-01-27T00:00:00Z,NA,42036,Georgia Strait,N,Y,Y,Y,NA,NA,NA,NA,NA,NA,NA,NA,NA,NA
Port Alberni,Port Alberni,Port Alberni,Port Alberni Met,M103335,NA,298,Port Alberni,49.2456,-124.8014,51,NON OPERATIONAL,ENV,01 - Vancouver Island,INACTIVE,1989-01-18T00:00:00Z,NA,NA,Georgia Strait,NA,NA,NA,NA,NA,NA,NA,NA,NA,NA,NA,NA,NA,NA
Port Alberni Port Authority,Port Alberni Port Authority,Port Alberni-Port,Port Alberni Port Authority,E310612,NA,541,Port Alberni,49.227798,-124.81254,1,OPERATIONAL,INDUSTRY,01 - Vancouver Island,INACTIVE,2017-12-13T00:00:00Z,NA,43206,Georgia Strait,Y,N,N,N,NA,NA,NA,NA,NA,NA,NA,NA,NA,NA
Port Alberni Townsite,Port Alberni Townsite,Port Alberni Townsite,Port Alberni Townsite,E228065,102601,111,Port Alberni,49.2344,-124.8147,10,NON OPERATIONAL,INDUSTRY,01 - Vancouver Island,INACTIVE,1997-09-02T00:00:00Z,NA,NA,Georgia Strait,NA,NA,NA,NA,PE,SU,P3,W,NE,23. Alberni-Clayoquot,"Port Alberni, CY 23 008","940. Port Alberni, CA/AR",NA,NA
Port Alice Hospital,Port Alice Hospital,Port Alice-Hospital,Port Alice Hospital,110101,NA,299,Port Alice,50.425,-127.4792,0,NON OPERATIONAL,ENV,01 - Vancouver Island,INACTIVE,1990-01-05T00:00:00Z,NA,NA,Coastal,NA,NA,NA,NA,NA,NA,NA,NA,NA,NA,NA,NA,NA,NA
Port Alice Lake Road,Port Alice Lake Road,Port Alice-Lake Road,Port Alice Lake Road,E221822,107001,112,Port Alice,50.3668,-127.4333,152,NON OPERATIONAL,INDUSTRY,01 - Vancouver Island,INACTIVE,1995-03-22T00:00:00Z,2015-06-23T00:00:00Z,42178,Coastal,N,N,Y,N,RB,NU,P1,F,NE,43. Mount Waddington,"Mount Waddington C, RD 43 031",NA,NA,NA
Port Alice Mill,Port Alice Mill,Port Alice-Mill,Port Alice Mill 60,E234430,NA,114,Port Alice,50.3842,-127.2505,88,NON OPERATIONAL,INDUSTRY,01 - Vancouver Island,INACTIVE,1998-01-11T00:00:00Z,NA,NA,Coastal,NA,NA,NA,NA,NA,NA,NA,NA,NA,NA,NA,NA,NA,NA
Port Alice Trailer,Port Alice Trailer,Port Alice-Trailer,Port Alice Trailer,110501,NA,115,Port Alice,50.3892,-127.4553,10,NON OPERATIONAL,INDUSTRY,01 - Vancouver Island,INACTIVE,1980-07-22T00:00:00Z,NA,40178,Coastal,N,N,Y,N,NA,NA,NA,NA,NA,NA,NA,NA,NA,NA
Port Coquitlam North,Port Coquitlam North,Port Coquitlam North,Port Coquitlam North,E207421,NA,332,Port Coquitlam,49.28,-122.7342,32,METRO VANCOUVER NON OPERATIONAL,MVRD,02 - Lower Mainland,INACTIVE,1987-01-06T00:00:00Z,NA,36526,Lower Fraser Valley,N,Y,N,N,NA,NA,NA,NA,NA,NA,NA,NA,NA,NA
Port Edward Elementary,Port Edward Elementary,Port Edward-Elementary,Port Edward Elementary,660606,NA,386,Prince Rupert,54.2244,-130.2833,35,NON OPERATIONAL,INDUSTRY,06 - Skeena,INACTIVE,1993-05-03T00:00:00Z,NA,NA,Coastal,NA,NA,NA,NA,NA,NA,NA,NA,NA,NA,NA,NA,NA,NA
Port Edward Mill,Port Edward Mill,Port Edward-Mill,Port Edward Mill,E243949,NA,325,Port Edward,54.2336,-130.2922,30,NON OPERATIONAL,INDUSTRY,06 - Skeena,INACTIVE,2001-05-20T00:00:00Z,NA,NA,Coastal,NA,NA,NA,NA,NA,NA,NA,NA,NA,NA,NA,NA,NA,NA
Port Edward Pacific,Port Edward Pacific,Port Edward-Pacific,Port Edward Pacific,E225184,NA,387,Port Edward,54.2208,-130.2897,10,NON OPERATIONAL,INDUSTRY,06 - Skeena,INACTIVE,1997-03-01T00:00:00Z,NA,37532,Coastal,N,N,Y,N,NA,NA,NA,NA,NA,NA,NA,NA,NA,NA
Port Edward Sunset Drive,Port Edward Sunset Drive,Port Edward-Sunset Drive,Port Edward Sunset Drive,E327924,NA,589,Port Edward,54.2231999,-130.29045,39,OPERATIONAL,INDUSTRY-PRPA,06 - Skeena,ACTIVE,2022-03-14T00:00:00Z,NA,NA,Coastal,NA,NA,NA,NA,NA,NA,NA,NA,NA,NA,NA,NA,NA,NA
Port Mellon,Port Mellon,Port Mellon,Port Mellon 60,E226338,NA,117,Gibsons,49.5228,-123.4822,3,OPERATIONAL,INDUSTRY,02 - Lower Mainland,ACTIVE,1997-05-27T00:00:00Z,NA,NA,Georgia Strait,NA,NA,NA,NA,NA,NA,NA,NA,NA,NA,NA,NA,NA,NA
Port Moody Rocky Point Park,Port Moody Rocky Point Park,Port Moody,Port Moody Rocky Point Park,310162,NA,244,Port Moody,49.2808,-122.8492,15,METRO VANCOUVER,MVRD,02 - Lower Mainland,ACTIVE,1977-01-03T00:00:00Z,NA,CURRENT,Lower Fraser Valley,Y,Y,Y,Y,NA,NA,NA,NA,NA,NA,NA,NA,NA,NA
Port Moody Rocky Point Park,Port Moody Rocky Point Park,Port Moody,Port Moody Rocky Point Park Met,310162,NA,475,Port Moody,49.2808,-122.8492,15,METRO VANCOUVER,MVRD,02 - Lower Mainland,ACTIVE,2015-01-01T00:00:00Z,NA,CURRENT,Lower Fraser Valley,Y,Y,Y,Y,NA,NA,NA,NA,NA,NA,NA,NA,NA,NA
Porteau Cove,Porteau Cove,Porteau Cove,Porteau Cove,E206986,NA,333,Britannia Beach,49.5586,-123.2325,0,NON OPERATIONAL,INDUSTRY,02 - Lower Mainland,INACTIVE,1987-08-06T00:00:00Z,NA,NA,Georgia Strait,NA,NA,NA,NA,NA,NA,NA,NA,NA,NA,NA,NA,NA,NA
Pouce Coupe 200 Road BCOGC CAMEL,Pouce Coupe 200 Road BCOGC CAMEL,Pouce Coupe 200 Road BCOGC CAMEL,Pouce Coupe 200 Road BCOGC CAMEL,E307124,NA,521,Pouce Coupe,55.634323,-120.132649,833,BC OGC MOBILE,BC OGC,07 - Omineca-Peace,INACTIVE,2016-09-11T00:00:00Z,2018-05-28T00:00:00Z,43248,Northeast,NA,NA,NA,NA,NA,NA,NA,NA,NA,NA,NA,NA,NA,NA
Powell River Cranberry Centre,Powell River Cranberry Centre,Powell River-Cranberry Centre,Powell River Cranberry Centre,E207286,NA,334,Powell River,49.5586,-123.2325,0,NON OPERATIONAL,ENV,02 - Lower Mainland,INACTIVE,1987-10-15T00:00:00Z,NA,NA,Georgia Strait,NA,NA,NA,NA,NA,NA,NA,NA,NA,NA,NA,NA,NA,NA
Powell River Cranberry Lake,Powell River Cranberry Lake,Powell River-Cranberry Lake,Powell River Cranberry Lake 60,220204,102301,119,Powell River,49.866905,-124.521819,209,NON OPERATIONAL,INDUSTRY,02 - Lower Mainland,INACTIVE,1990-07-01T00:00:00Z,2018-02-13T00:00:00Z,43131,Georgia Strait,Y,N,Y,Y,PE,SU,P2,R,NE,27. Powell River,"Powell River B, RDA 27 012","945. Powell River, CA/AR",NA,NA
Powell River Hospital,Powell River Hospital,Powell River-Hospital,Powell River Hospital,220206,NA,335,Powell River,49.8736,-124.5458,0,NON OPERATIONAL,INDUSTRY,02 - Lower Mainland,INACTIVE,1990-01-07T00:00:00Z,NA,34197,Georgia Strait,N,N,Y,N,NA,NA,NA,NA,NA,NA,NA,NA,NA,NA
Powell River James Thomson School,Powell River James Thomson School,Powell River-J Thomson,Powell River James Thomson School,E271963,102303,122,Powell River,49.889299,-124.5624,125,OPERATIONAL,INDUSTRY,02 - Lower Mainland,ACTIVE,2008-06-15T00:00:00Z,NA,CURRENT,Georgia Strait,Y,N,N,N,PE,SU,P2,R,NE,27. Powell River,"Powell River, CY 27 010","945. Powell River, CA/AR",NA,Y
Powell River Lawn Bowling Club,Powell River Lawn Bowling Club,Powell River-Lawn Bowling Club,Powell River Lawn Bowling Club,110063,NA,123,Powell River,49.8708,-124.5478,20,NON OPERATIONAL,INDUSTRY,02 - Lower Mainland,INACTIVE,1978-07-12T00:00:00Z,NA,NA,Georgia Strait,NA,NA,NA,NA,NA,NA,NA,NA,NA,NA,NA,NA,NA,NA
Powell River Pacifica,Powell River Pacifica,Powell River-Pacifica,Powell River Pacifica Met 60,E238705,NA,126,Powell River,49.8742,-124.5556,45,OPERATIONAL,INDUSTRY,02 - Lower Mainland,ACTIVE,2000-07-19T00:00:00Z,NA,NA,Georgia Strait,NA,NA,NA,NA,NA,NA,NA,NA,NA,NA,NA,NA,NA,NA
Powell River Townsite Helipad,Powell River Townsite Helipad,Powell River-Townsite Helipad,Powell River Townsite Helipad,E271964,NA,127,Powell River,49.8747,-124.5541,62,OPERATIONAL,INDUSTRY,02 - Lower Mainland,ACTIVE,2008-06-21T00:00:00Z,NA,NA,Georgia Strait,NA,NA,NA,NA,NA,NA,NA,NA,NA,NA,NA,NA,NA,NA
Powell River Wildwood,Powell River Wildwood,Powell River-Wildwood,Powell River Wildwood 60,220205,102302,130,Powell River,49.886894,-124.558104,136,OPERATIONAL,INDUSTRY,02 - Lower Mainland,INACTIVE,1990-01-07T00:00:00Z,2019-10-16T00:00:00Z,43754,Georgia Strait,Y,N,Y,Y,T,SU,P2,R,NE,27. Powell River,"Powell River, CY 27 008","945. Powell River, CA/AR",NA,NA
Power Cons New Recovery Boiler Stack,Power Cons New Recovery Boiler Stack,"Power Cons,New Recovery Boiler Stack",Power Cons New Recovery Boiler Stack,E215732,NA,365,Castlegar,49.3353,-117.7278,0,NON OPERATIONAL,INDUSTRY,04 - Kootenay,INACTIVE,1993-01-07T00:00:00Z,NA,NA,Southern Interior,NA,NA,NA,NA,NA,NA,NA,NA,NA,NA,NA,NA,NA,NA
Power Consolidated New Lime Kiln,Power Consolidated New Lime Kiln,"Power Consolidated, New Lime Kiln",Power Consolidated New Lime Kiln,E215733,NA,364,Castlegar,49.3353,-117.7278,0,NON OPERATIONAL,INDUSTRY,04 - Kootenay,INACTIVE,1993-01-07T00:00:00Z,NA,NA,Southern Interior,NA,NA,NA,NA,NA,NA,NA,NA,NA,NA,NA,NA,NA,NA
Power Consolidated 2 Power Boiler,Power Consolidated 2 Power Boiler,"Power Consolidated,#2 Power Boiler",Power Consolidated 2 Power Boiler,E102292,NA,363,Castlegar,49.3353,-117.7278,0,NON OPERATIONAL,INDUSTRY,04 - Kootenay,INACTIVE,1993-01-07T00:00:00Z,NA,NA,Southern Interior,NA,NA,NA,NA,NA,NA,NA,NA,NA,NA,NA,NA,NA,NA
Prince George 18th Avenue MAML,Prince George 18th Avenue MAML,Prince George-18th Avenue MAML,Prince George 18th Avenue MAML,E309666,NA,535,Prince George,53.906819,-122.79525,608,MOBILE NON OPERATIONAL,ENV,07 - Omineca-Peace,INACTIVE,2017-09-07T00:00:00Z,NA,43101,Central Interior,Y,Y,Y,Y,NA,NA,NA,NA,NA,NA,NA,NA,NA,NA
Prince George BC Rail Warehouse,Prince George BC Rail Warehouse,Prince George-BC Rail Warehouse,Prince George BC Rail Warehouse,E224013,100203,132,Prince George,53.871,-122.743,590,NON OPERATIONAL,INDUSTRY,07 - Omineca-Peace,INACTIVE,1996-09-28T00:00:00Z,2015-11-06T00:00:00Z,42314,Central Interior,NA,NA,NA,NA,PE,MU,P3,I,MI,53. Fraser-Fort George,"Prince George, CY 53 023","970. Prince George, CA/AR",NA,NA
Prince George CBC Transmitter,Prince George CBC Transmitter,Prince George-CBC Transmitter,Prince George CBC Transmitter,E209179,100210,133,Prince George,53.90339,-122.703963,733,NON OPERATIONAL,INDUSTRY,07 - Omineca-Peace,INACTIVE,1995-01-04T00:00:00Z,NA,44120,Central Interior,N,N,Y,N,PS,MU,P3,F,UR,53. Fraser-Fort George,"Prince George, CY 53 023","970. Prince George, CA/AR",NA,N
Prince George Denicola Ranch,Prince George Denicola Ranch,Prince George-Denicola Ranch,Prince George Denicola Ranch 60,E283370,100213,281,Prince George,53.9353,-122.6814,581,NON OPERATIONAL,INDUSTRY,07 - Omineca-Peace,INACTIVE,2010-08-01T00:00:00Z,2012-11-01T00:00:00Z,41214,Central Interior,Y,N,N,N,PS,NU,P2,F,UR,59. Fraser-Fort George,"Prince George, RDA 53 048","970. Prince George, CA/AR",NA,NA
Prince George District Energy Building,Prince George District Energy Building,Prince George-District Energy Building,Prince George District Energy Building,E309446,NA,532,Prince George,53.916844,-122.742703,572,E-BAM NON-OPERATIONAL,ENV,07 - Omineca-Peace,INACTIVE,2017-05-17T00:00:00Z,NA,NA,Central Interior,NA,NA,NA,NA,NA,NA,NA,NA,NA,NA,NA,NA,NA,NA
Prince George Exploration Place,Prince George Exploration Place,Prince George-Exploration Place,Prince George Exploration Place,E293670,100214,528,Prince George,53.905139,-122.734049,576,OPERATIONAL,INDUSTRY,07 - Omineca-Peace,ACTIVE,2017-03-01T00:00:00Z,NA,NA,Central Interior,NA,NA,NA,NA,PS,MU,P3,P,NE,59. Fraser-Fort George,"Prince George, CY 53 042","970. Prince George, CA/AR",NA,N
Prince George Exploration Place Trailer,Prince George Exploration Place Trailer,Prince George-Exploration Place Trailer,Prince George Exploration Place Trailer 60,E283369,NA,280,Prince George,53.9053,-122.7344,576,NON OPERATIONAL,INDUSTRY,07 - Omineca-Peace,INACTIVE,2010-08-01T00:00:00Z,NA,41214,Central Interior,Y,N,N,N,NA,NA,NA,NA,NA,NA,NA,NA,NA,NA
Prince George Exploration Place,Prince George Exploration Place,Prince George-Exploration Place,Prince George Exploration Place 60,E293670,100214,444,Prince George,53.905139,-122.734049,576,OPERATIONAL,INDUSTRY,07 - Omineca-Peace,ACTIVE,2013-06-27T00:00:00Z,NA,NA,Central Interior,NA,NA,NA,NA,PS,MU,P3,P,NE,59. Fraser-Fort George,"Prince George, CY 53 042","970. Prince George, CA/AR",NA,N
Prince George Foreman Flats,Prince George Foreman Flats,Prince George-Foreman Flats,Prince George Foreman Flats,450325,NA,402,Prince George,53.9339,-122.6822,578,NON OPERATIONAL,INDUSTRY,07 - Omineca-Peace,INACTIVE,1982-11-06T00:00:00Z,NA,32509,Central Interior,N,N,Y,N,NA,NA,NA,NA,NA,NA,NA,NA,NA,NA
Prince George Foreman Flats,Prince George Foreman Flats,Prince George-Foreman Flats,Prince George Foreman Flats 60,M109940,NA,403,Prince George,53.9333,-122.6827,578,NON OPERATIONAL,ENV,07 - Omineca-Peace,INACTIVE,1985-01-17T00:00:00Z,NA,32509,Central Interior,N,N,Y,N,NA,NA,NA,NA,NA,NA,NA,NA,NA,NA
Prince George Gladstone School,Prince George Gladstone School,Prince George-Gladstone School,Prince George Gladstone School,450270,100205,134,Prince George,53.8592,-122.7633,583,NON OPERATIONAL,INDUSTRY,07 - Omineca-Peace,INACTIVE,1985-02-28T00:00:00Z,2015-11-12T00:00:00Z,42320,Central Interior,Y,N,Y,N,PE,MU,P3,P,NE,53. Fraser-Fort George,"Prince George, CY 53 023","970. Prince George, CA/AR",NA,NA
Prince George Gladstone School,Prince George Gladstone School,Prince George-Gladstone School,Prince George Gladstone School 60,450270,100205,136,Prince George,53.8592,-122.7633,583,NON OPERATIONAL,ENV,07 - Omineca-Peace,INACTIVE,1985-02-28T00:00:00Z,NA,42320,Central Interior,Y,N,Y,N,PE,MU,P3,P,NE,53. Fraser-Fort George,"Prince George, CY 53 023","970. Prince George, CA/AR",NA,NA
Prince George Glenview School,Prince George Glenview School,Prince George-Glenview School,Prince George Glenview School Met 60,E224014,NA,138,Prince George,53.996,-122.776,750,OPERATIONAL,ENV,07 - Omineca-Peace,ACTIVE,1996-12-11T00:00:00Z,NA,NA,Central Interior,NA,NA,NA,NA,NA,NA,NA,NA,NA,NA,NA,NA,NA,N
Prince George Hart Highlands,Prince George Hart Highlands,Prince George-Hart Highlands,Prince George Hart Highlands,E225868,NA,404,Prince George,53.9894,-122.7858,740,NON OPERATIONAL,ENV,07 - Omineca-Peace,INACTIVE,1997-04-04T00:00:00Z,NA,35876,Central Interior,N,Y,Y,Y,NA,NA,NA,NA,NA,NA,NA,NA,NA,NA
Prince George Hwy 16 97 MAML,Prince George Hwy 16 97 MAML,Prince George-Hwy 16/97 MAML,Prince George Hwy 16 97 MAML,E277370,NA,214,Prince George,53.8963,-122.7666,595,MOBILE NON OPERATIONAL,ENV,07 - Omineca-Peace,INACTIVE,2009-03-09T00:00:00Z,NA,40107,Central Interior,N,Y,Y,Y,NA,NA,NA,NA,NA,NA,NA,NA,NA,NA
Prince George Jail,Prince George Jail,Prince George-Jail,Prince George Jail,450322,100211,139,Prince George,53.908018,-122.713337,616,OPERATIONAL,INDUSTRY,07 - Omineca-Peace,ACTIVE,1981-01-01T00:00:00Z,NA,CURRENT,Central Interior,N,N,Y,N,PS,MU,P3,I,NE,53. Fraser-Fort George,"Prince George, CY 53 023","970. Prince George, CA/AR",NA,N
Prince George Jail,Prince George Jail,Prince George-Jail,Prince George Jail 60,M109915,NA,405,Prince George,53.9069,-122.7133,623,NON OPERATIONAL,INDUSTRY,07 - Omineca-Peace,INACTIVE,1984-12-13T00:00:00Z,NA,CURRENT,Central Interior,N,N,Y,N,NA,NA,NA,NA,NA,NA,NA,NA,NA,N
Prince George Lakewood,Prince George Lakewood,Prince George-Lakewood,Prince George Lakewood,450324,100206,140,Prince George,53.9156,-122.7958,584,OPERATIONAL,INDUSTRY,07 - Omineca-Peace,ACTIVE,1982-04-15T00:00:00Z,NA,NA,Central Interior,NA,NA,NA,NA,PE,MU,P3,R,na,53. Fraser-Fort George,"Prince George, CY 53 023","970. Prince George, CA/AR",NA,N
Prince George Lakewood,Prince George Lakewood,Prince George-Lakewood,Prince George Lakewood 60,M109943,NA,406,Prince George,53.9153,-122.7961,584,NON OPERATIONAL,ENV,07 - Omineca-Peace,INACTIVE,1984-12-17T00:00:00Z,NA,NA,Central Interior,NA,NA,NA,NA,NA,NA,NA,NA,NA,NA,NA,NA,NA,NA
Prince George Marsulex Acid Plant,Prince George Marsulex Acid Plant,Prince George-Marsulex Acid Plant,Prince George Marsulex Acid Plant,E270963,100212,210,Prince George,53.8416,-122.7344,604,OPERATIONAL,INDUSTRY,07 - Omineca-Peace,ACTIVE,2008-01-03T00:00:00Z,NA,CURRENT,Central Interior,N,N,Y,N,RB,NU,P2,I,MD,59. Fraser-Fort George,"Prince George, CY 53 042","970. Prince George, CA/AR",NA,N
Prince George Northwood,Prince George Northwood,Prince George-Northwood,Prince George Northwood Met 60,M109913,NA,142,Prince George,53.9675,-122.6908,577,NON OPERATIONAL,ENV,07 - Omineca-Peace,INACTIVE,1987-06-18T00:00:00Z,NA,NA,Central Interior,NA,NA,NA,NA,NA,NA,NA,NA,NA,NA,NA,NA,NA,NA
Prince George Plaza 400,Prince George Plaza 400,Prince George-Plaza 400,Prince George Plaza 400,450307,100202,13,Prince George,53.91472,-122.74194,588,OPERATIONAL,ENV,07 - Omineca-Peace,ACTIVE,1979-11-05T00:00:00Z,NA,CURRENT,Central Interior,Y,Y,Y,Y,PS,MU,P3,R,MD,53. Fraser-Fort George,"Prince George, CY 53 023","970. Prince George, CA/AR",2,NA
Prince George Plaza 400,Prince George Plaza 400,Prince George-Plaza 400,Prince George Plaza 400 Met 60,450307,100202,144,Prince George,53.91472,-122.74194,588,OPERATIONAL,ENV,07 - Omineca-Peace,ACTIVE,1984-12-17T00:00:00Z,NA,CURRENT,Central Interior,Y,Y,Y,Y,PS,MU,P3,R,MD,53. Fraser-Fort George,"Prince George, CY 53 023","970. Prince George, CA/AR",2,NA
Prince George Plaza 400 URG,Prince George Plaza 400 URG,Prince George-Plaza 400 URG,Prince George Plaza 400 URG,451307,NA,423,Prince George,53.9147,-122.7419,601,NON OPERATIONAL,ENV,07 - Omineca-Peace,INACTIVE,2003-12-30T00:00:00Z,NA,38401,Central Interior,Y,N,N,N,NA,NA,NA,NA,NA,NA,NA,NA,NA,NA
Prince George Pulp,Prince George Pulp,Prince George-Pulp,Prince George Pulp Met 60,M109914,NA,146,Prince George,53.9244,-122.6861,600,OPERATIONAL,ENV,07 - Omineca-Peace,ACTIVE,1987-06-23T00:00:00Z,NA,NA,Central Interior,NA,NA,NA,NA,NA,NA,NA,NA,NA,NA,NA,NA,NA,N
Prince George Van Bien,Prince George Van Bien,Prince George-Van Bien,Prince George Van Bien,450232,NA,407,Prince George,53.8906,-122.7614,594,NON OPERATIONAL,INDUSTRY,07 - Omineca-Peace,INACTIVE,1982-06-15T00:00:00Z,NA,NA,Central Interior,NA,NA,NA,NA,NA,NA,NA,NA,NA,NA,NA,NA,NA,NA
Prince George Van Bien,Prince George Van Bien,Prince George-Van Bien,Prince George Van Bien 60,M109946,NA,408,Prince George,53.8892,-122.7603,594,NON OPERATIONAL,ENV,07 - Omineca-Peace,INACTIVE,1985-01-21T00:00:00Z,NA,NA,Central Interior,NA,NA,NA,NA,NA,NA,NA,NA,NA,NA,NA,NA,NA,NA
Prince Rupert Ambient ,Prince Rupert Ambient ,Prince Rupert-(Ambient),Prince Rupert Ambient ,660607,NA,388,Prince Rupert,54.2967,-130.335,50,NON OPERATIONAL,INDUSTRY,06 - Skeena,INACTIVE,1993-01-02T00:00:00Z,NA,NA,Coastal,NA,NA,NA,NA,NA,NA,NA,NA,NA,NA,NA,NA,NA,NA
Prince Rupert Met ,Prince Rupert Met ,Prince Rupert-(Met),Prince Rupert Met ,M106037,NA,326,Prince Rupert,54.2322,-130.2889,35,NON OPERATIONAL,ENV,06 - Skeena,INACTIVE,1990-02-10T00:00:00Z,NA,NA,Coastal,NA,NA,NA,NA,NA,NA,NA,NA,NA,NA,NA,NA,NA,NA
Prince Rupert Fairview,Prince Rupert Fairview,Prince Rupert-Fairview,Prince Rupert Fairview,E312331,NA,546,Prince Rupert,54.292637,-130.35242,15,OPERATIONAL,INDUSTRY-PRPA,06 - Skeena,ACTIVE,2017-07-26T00:00:00Z,NA,CURRENT,Coastal,Y,Y,Y,Y,NA,NA,NA,NA,NA,NA,NA,NA,NA,NA
Prince Rupert Fairview,Prince Rupert Fairview,Prince Rupert-Fairview,Prince Rupert Fairview 60,E312331,NA,547,Prince Rupert,54.292615,-130.352188,15,NON OPERATIONAL,INDUSTRY-BCH,06 - Skeena,INACTIVE,2017-07-26T00:00:00Z,NA,CURRENT,Coastal,Y,Y,Y,Y,NA,NA,NA,NA,NA,NA,NA,NA,NA,NA
Prince Rupert Galloway Rapids,Prince Rupert Galloway Rapids,Prince Rupert-Galloway Rapids,Prince Rupert Galloway Rapids,E231838,NA,327,Prince Rupert,54.2322,-130.2889,1,NON OPERATIONAL,INDUSTRY,06 - Skeena,INACTIVE,1998-10-04T00:00:00Z,NA,37532,Coastal,N,N,Y,N,NA,NA,NA,NA,NA,NA,NA,NA,NA,NA
Prince Rupert Pineridge Elementary,Prince Rupert Pineridge Elementary,Prince Rupert-Pineridge,Prince Rupert Pineridge Elementary,E312330,NA,545,Prince Rupert,54.298547,-130.337676,63,NON OPERATIONAL,INDUSTRY,06 - Skeena,INACTIVE,2016-12-16T00:00:00Z,2017-07-25T00:00:00Z,42942,Coastal,Y,N,Y,Y,NA,NA,NA,NA,NA,NA,NA,NA,NA,NA
Prince Rupert Roosevelt Park School,Prince Rupert Roosevelt Park School,Prince Rupert-RooseveltPark,Prince Rupert Roosevelt Park School Met 60,E288469,NA,425,Prince Rupert,54.3064,-130.3269,80,OPERATIONAL,ENV,06 - Skeena,ACTIVE,2012-01-31T00:00:00Z,NA,NA,Coastal,NA,NA,NA,NA,NA,NA,NA,NA,NA,NA,NA,NA,NA,NA
Prince Rupert Seal Cove,Prince Rupert Seal Cove,Prince Rupert-Seal Cove,Prince Rupert Seal Cove,E231657,NA,389,Prince Rupert,54.3311,-130.2761,2,NON OPERATIONAL,INDUSTRY,06 - Skeena,INACTIVE,1998-07-04T00:00:00Z,NA,NA,Coastal,NA,NA,NA,NA,NA,NA,NA,NA,NA,NA,NA,NA,NA,NA
Prince Rupert Westview MAML,Prince Rupert Westview MAML,Prince Rupert-Westview MAML,Prince Rupert Westview MAML,E293649,NA,432,Prince Rupert,54.3047,-130.3436,33,MOBILE NON OPERATIONAL,ENV,06 - Skeena,INACTIVE,2013-04-14T00:00:00Z,NA,41502,Coastal,N,Y,Y,Y,NA,NA,NA,NA,NA,NA,NA,NA,NA,NA
Quadra Island Cape Mudge Village,Quadra Island Cape Mudge Village,Quadra Island-Cape Mudge Village,Quadra Island Cape Mudge Village,E266302,NA,148,Campbell River,50.0183,-125.1972,3,NON OPERATIONAL,INDUSTRY,01 - Vancouver Island,INACTIVE,2007-01-04T00:00:00Z,NA,40422,Georgia Strait,Y,N,Y,Y,NA,NA,NA,NA,NA,NA,NA,NA,NA,NA
Quadra Island Lighthouse,Quadra Island Lighthouse,Quadra Island-Lighthouse,Quadra Island Lighthouse,E225378,104501,147,Campbell River,49.9983,-125.1956,2,NON OPERATIONAL,ENV,01 - Vancouver Island,INACTIVE,1997-02-21T00:00:00Z,NA,NA,Georgia Strait,NA,NA,NA,NA,PE,MU,P3,R,na,47. Skeena-Queen Charlotte,"Port Edward, DM 47 007","955. Prince Rupert, CA/AR",NA,NA
Qualicum Beach,Qualicum Beach,Qualicum Beach,Qualicum Beach,M102039,NA,300,Qualicum Beach,49.3472,-126.4444,57,NON OPERATIONAL,ENV,01 - Vancouver Island,INACTIVE,1994-02-17T00:00:00Z,NA,NA,Coastal,NA,NA,NA,NA,NA,NA,NA,NA,NA,NA,NA,NA,NA,NA
Qualicum Beach Jones Street,Qualicum Beach Jones Street,Qualicum Beach-Jones Street,Qualicum Beach Jones Street 60,E233625,NA,150,Qualicum Beach,49.3385,-124.4516,98,NON OPERATIONAL,ENV,01 - Vancouver Island,INACTIVE,1999-06-01T00:00:00Z,NA,NA,Georgia Strait,NA,NA,NA,NA,NA,NA,NA,NA,NA,NA,NA,NA,NA,NA
Queen Charlotte School,Queen Charlotte School,Queen Charlotte School,Queen Charlotte School,E273223,NA,235,None,53.2553,-132.0981,15,NON OPERATIONAL,ENV,06 - Skeena,INACTIVE,2010-03-15T00:00:00Z,NA,NA,Coastal,NA,NA,NA,NA,NA,NA,NA,NA,NA,NA,NA,NA,NA,NA
Quesnel Anderson Drive,Quesnel Anderson Drive,Quesnel-Anderson Drive,Quesnel Anderson Drive,E318450,NA,572,Quesnel,52.968,-122.517,479,E-BAM OPERATIONAL,ENV,05 - Cariboo,ACTIVE,2019-10-24T00:00:00Z,NA,NA,Central Interior,NA,NA,NA,NA,NA,NA,NA,NA,NA,NA,NA,NA,NA,NA
Quesnel CP,Quesnel CP,Quesnel-CP,Quesnel CP Met 60,M111073,NA,153,Quesnel,52.9938775,-122.489581,488,OPERATIONAL,ENV,05 - Cariboo,ACTIVE,1991-06-18T00:00:00Z,NA,NA,Central Interior,NA,NA,NA,NA,NA,NA,NA,NA,NA,NA,NA,NA,NA,NA
Quesnel Johnston Avenue,Quesnel,Quesnel,Quesnel Johnston Avenue,E326405,101706,583,Quesnel,52.969061,-122.494031,505,OPERATIONAL,ENV,05 - Cariboo,ACTIVE,2021-11-05T00:00:00Z,NA,CURRENT,Central Interior,Y,Y,Y,Y,PE,NU,P3,F,na,41. Cariboo,"Quesnel, CY 41 013","952. Quesnel, CA/AR",NA,NA
Quesnel Kinchant St MAML,Quesnel,Quesnel,Quesnel Kinchant St MAML,E320071,101705,575,Quesnel,52.97951,-122.49364,490,MOBILE,ENV,05 - Cariboo,INACTIVE,2020-05-08T00:00:00Z,2021-11-03T00:00:00Z,CURRENT,Central Interior,Y,Y,Y,Y,PS,SU,P2,C,NE,41. Cariboo,"Quesnel, CY 41 013","952. Quesnel, CA/AR",NA,NA
Quesnel Linden,Quesnel Linden,Quesnel-Linden,Quesnel Linden Met 60,M111065,NA,155,Quesnel,53.01,-122.5038,543,NON OPERATIONAL,ENV,05 - Cariboo,INACTIVE,1990-10-23T00:00:00Z,NA,NA,Central Interior,NA,NA,NA,NA,NA,NA,NA,NA,NA,NA,NA,NA,NA,NA
Quesnel Maple Drive,Quesnel Maple Drive,Quesnel-Maple Drive,Quesnel Maple Drive,E216667,101702,156,Quesnel,52.963,-122.4972,456,NON OPERATIONAL,INDUSTRY,05 - Cariboo,INACTIVE,1992-11-03T00:00:00Z,2015-08-14T00:00:00Z,42172,Central Interior,Y,N,N,N,PE,SU,P3,R,NE,41. Cariboo,"Quesnel, CY 41 013","952. Quesnel, CA/AR",NA,NA
Quesnel Pinecrest Centre,Quesnel Pinecrest Centre,Quesnel-Pinecrest Centre,Quesnel Pinecrest Centre,E221885,NA,375,Quesnel,53.0028,-122.51220000000001,500,NON OPERATIONAL,INDUSTRY,05 - Cariboo,INACTIVE,1995-05-23T00:00:00Z,NA,38811,Central Interior,Y,N,N,N,NA,NA,NA,NA,NA,NA,NA,NA,NA,NA
Quesnel Redwood,Quesnel Redwood,Quesnel-Redwood,Quesnel Redwood,E314370,NA,558,Quesnel,52.97379,-122.45605,604,E-BAM NON-OPERATIONAL,ENV,05 - Cariboo,INACTIVE,2018-10-18T00:00:00Z,NA,NA,Central Interior,NA,NA,NA,NA,NA,NA,NA,NA,NA,NA,NA,NA,NA,NA
Quesnel Senior Secondary,Quesnel,Quesnel,Quesnel Senior Secondary,E208096,101701,15,Quesnel,52.981686,-122.493227,490,NON OPERATIONAL,ENV,05 - Cariboo,INACTIVE,1990-02-14T00:00:00Z,2020-04-30T00:00:00Z,43951,Central Interior,Y,Y,Y,Y,PS,SU,P2,R,NE,41. Cariboo,"Quesnel, CY 41 013","952. Quesnel, CA/AR",NA,NA
Quesnel Senior Secondary,Quesnel,Quesnel,Quesnel Senior Secondary Met 60,E208096,101701,158,Quesnel,52.9822,-122.4922,500,OPERATIONAL,ENV,05 - Cariboo,INACTIVE,1990-02-14T00:00:00Z,NA,43951,Central Interior,Y,Y,Y,Y,PS,SU,P2,R,NE,41. Cariboo,"Quesnel, CY 41 013","952. Quesnel, CA/AR",NA,NA
Quesnel West Correlieu School,Quesnel West Correlieu School,Quesnel-West Correlieu School,Quesnel West Correlieu School,E228064,101704,159,Quesnel,52.9664,-122.5167,0,NON OPERATIONAL,INDUSTRY,05 - Cariboo,INACTIVE,2000-11-17T00:00:00Z,2014-07-28T00:00:00Z,41848,Central Interior,Y,N,N,N,RB,SU,P2,O,NE,41. Cariboo,"Quesnel, CY 41 013","952. Quesnel, CA/AR",NA,NA
Quesnel West Fraser,Quesnel West Fraser,Quesnel-West Fraser,Quesnel West Fraser,550501,NA,376,Quesnel,53.0053,-122.4972,539,NON OPERATIONAL,INDUSTRY,05 - Cariboo,INACTIVE,1990-01-12T00:00:00Z,NA,NA,Central Interior,NA,NA,NA,NA,NA,NA,NA,NA,NA,NA,NA,NA,NA,NA
Quick Mobile,Quick Mobile,Quick Mobile,Quick Mobile,E226268,NA,390,Quick,54.6214,-126.8511,552,NON OPERATIONAL,ENV,06 - Skeena,INACTIVE,1997-05-22T00:00:00Z,NA,35947,Central Interior,N,Y,Y,Y,NA,NA,NA,NA,NA,NA,NA,NA,NA,NA
Revelstoke Colbeck Road,Revelstoke Colbeck Road,Revelstoke-Colbeck Road,Revelstoke Colbeck Road,Station 570,NA,570,Revelstoke,51.01452,-118.21907,452,E-BAM NON-OPERATIONAL,ENV,03 - Southern Interior,INACTIVE,2019-08-29T00:00:00Z,NA,NA,Southern Interior,NA,NA,NA,NA,NA,NA,NA,NA,NA,NA,NA,NA,NA,NA
Revelstoke Firehall,Revelstoke Firehall,Revelstoke-Firehall,Revelstoke Firehall,E217680,NA,227,Revelstoke,50.9979,-118.1998,448,NON OPERATIONAL,ENV,04 - Kootenay,INACTIVE,2010-02-16T00:00:00Z,NA,NA,Southern Interior,NA,NA,NA,NA,NA,NA,NA,NA,NA,NA,NA,NA,NA,NA
Revelstoke Mt Begbie School,Revelstoke Mt Begbie School,Revelstoke-Mt Begbie School,Revelstoke Mt Begbie School,E248021,103402,160,Revelstoke,50.9872,-118.2056,1500,NON OPERATIONAL,ENV,04 - Kootenay,INACTIVE,2002-02-15T00:00:00Z,2012-07-26T00:00:00Z,41106,Southern Interior,Y,N,N,N,PE,SU,P2,R,NE,39. Columbia-Shuswap,"Revelstoke, CY 39 019",NA,NA,NA
Revelstoke Mt Begbie School,Revelstoke Mt Begbie School,Revelstoke-Mt Begbie School,Revelstoke Mt Begbie School 60,E248021,103402,162,Revelstoke,50.9872,-118.2056,1500,NON OPERATIONAL,ENV,04 - Kootenay,INACTIVE,2002-02-15T00:00:00Z,NA,41106,Southern Interior,Y,N,N,N,PE,SU,P2,R,NE,39. Columbia-Shuswap,"Revelstoke, CY 39 019",NA,NA,NA
Revelstoke Trailer,Revelstoke Trailer,Revelstoke_Trailer,Revelstoke Trailer,TRAILER_02,NA,568,Revelstoke,51.012398,-118.214161,NA,MOBILE,ENV,04 - Kootenay,INACTIVE,2019-07-12T00:00:00Z,NA,NA,Southern Interior,NA,NA,NA,NA,NA,NA,NA,NA,NA,NA,NA,NA,NA,NA
Richmond East,Richmond East,Richmond-East,Richmond East,E207419,NA,336,Richmond,49.1847,-123.1847,15,METRO VANCOUVER NON OPERATIONAL,MVRD,02 - Lower Mainland,INACTIVE,1987-01-06T00:00:00Z,NA,35309,Lower Fraser Valley,N,N,N,Y,NA,NA,NA,NA,NA,NA,NA,NA,NA,NA
Richmond South,Richmond South,Richmond-South,Richmond South,E207417,NA,248,Richmond,49.1414,-123.1083,15,METRO VANCOUVER,MVRD,02 - Lower Mainland,ACTIVE,1986-01-07T00:00:00Z,NA,CURRENT,Lower Fraser Valley,Y,Y,Y,Y,NA,NA,NA,NA,NA,NA,NA,NA,NA,NA
Robson,Robson,Robson,Robson,E207879,NA,163,Robson,49.337031,-117.698275,441,OPERATIONAL,INDUSTRY,04 - Kootenay,ACTIVE,1989-05-16T00:00:00Z,NA,40940,Southern Interior,N,N,Y,N,NA,NA,NA,NA,NA,NA,NA,NA,NA,N
Rolla 213 Road,Rolla 213 Road,Rolla,Rolla 213 Road,E304684,NA,494,Rolla,55.90761,-120.16901,708,NON OPERATIONAL,ENV,07 - Omineca-Peace,INACTIVE,2015-12-15T00:00:00Z,NA,43069,Northeast,N,Y,Y,Y,NA,NA,NA,NA,NA,NA,NA,NA,NA,NA
Rolla 213 Road,Rolla 213 Road,Rolla,Rolla 213 Road 60,E304684,NA,496,Rolla,55.90761,-120.16901,708,NON OPERATIONAL,ENV,07 - Omineca-Peace,INACTIVE,2015-12-15T00:00:00Z,NA,43069,Northeast,N,Y,Y,Y,NA,NA,NA,NA,NA,NA,NA,NA,NA,NA
Rolla MAML,Rolla MAML,Rolla MAML,Rolla MAML,E282769,NA,272,Rolla,55.8997,-120.1869,695,MOBILE NON OPERATIONAL,ENV,07 - Omineca-Peace,INACTIVE,2010-07-20T00:00:00Z,NA,40401,Northeast,Y,Y,Y,Y,NA,NA,NA,NA,NA,NA,NA,NA,NA,NA
Royal Oak Hydro Mobile,Royal Oak Hydro Mobile,Royal Oak Hydro Mobile,Royal Oak Hydro Mobile,E222012,NA,301,Victoria,48.4906,-123.3883,25,NON OPERATIONAL,ENV,01 - Vancouver Island,INACTIVE,1995-07-26T00:00:00Z,NA,NA,Georgia Strait,NA,NA,NA,NA,NA,NA,NA,NA,NA,NA,NA,NA,NA,NA
Rumble Beach Firehall,Rumble Beach Firehall,Rumble Beach-Firehall,Rumble Beach Firehall 60,E294391,NA,446,Port Alice,50.4267123,-127.488127,37,NON OPERATIONAL,INDUSTRY,01 - Vancouver Island,INACTIVE,2013-08-01T00:00:00Z,NA,NA,Coastal,NA,NA,NA,NA,NA,NA,NA,NA,NA,NA,NA,NA,NA,NA
Rumble Beach Hospital,Rumble Beach Hospital,Rumble Beach-Hospital,Rumble Beach Hospital,E221821,107000,164,Port Alice,50.4264,-127.4881,3,NON OPERATIONAL,INDUSTRY,01 - Vancouver Island,INACTIVE,1995-01-02T00:00:00Z,2015-06-23T00:00:00Z,42178,Coastal,Y,N,Y,N,PS,NU,P2,F,NE,43. Mount Waddington,"Port Alice, VL 43 017",NA,NA,NA
Salmon Arm Hospital,Salmon Arm Hospital,Salmon Arm Hospital,Salmon Arm Hospital,E233344,NA,347,Salmon Arm,50.7017,-119.2236,350,NON OPERATIONAL,ENV,03 - Southern Interior,INACTIVE,1998-06-08T00:00:00Z,NA,NA,Southern Interior,NA,NA,NA,NA,NA,NA,NA,NA,NA,NA,NA,NA,NA,NA
Saturna,Saturna,Saturna,Saturna Met,M101110,NA,302,Saturna,48.7744,-123.17,445,NON OPERATIONAL,ENV,01 - Vancouver Island,INACTIVE,1985-11-07T00:00:00Z,NA,NA,Georgia Strait,NA,NA,NA,NA,NA,NA,NA,NA,NA,NA,NA,NA,NA,NA
Saturna Pike,Saturna Pike,Saturna Pike,Saturna Pike,M101005,102001,303,Saturna,48.7744,-123.17,478,NON OPERATIONAL,ENV,01 - Vancouver Island,INACTIVE,1992-08-10T00:00:00Z,2002-01-03T00:00:00Z,37259,Georgia Strait,NA,NA,NA,NA,RB,NU,P1,F,RE,17. Capital,"Southern Gulf Islands, RDA 17 029",NA,NA,NA
Scotties Marina,Scotties Marina,Scotties Marina,Scotties Marina,440403,NA,167,Castlegar,49.3427,-117.8297,502,OPERATIONAL,INDUSTRY,04 - Kootenay,ACTIVE,1992-03-07T00:00:00Z,NA,NA,Southern Interior,NA,NA,NA,NA,NA,NA,NA,NA,NA,NA,NA,NA,NA,NA
Sechelt Trail Bay Mill,Sechelt Trail Bay Mill,Sechelt Trail-Bay Mill,Sechelt Trail Bay Mill,E237978,NA,216,Sechelt,49.471913,-123.759499,15,NON CONTINUOUS,ENV,02 - Lower Mainland,INACTIVE,2009-11-17T00:00:00Z,NA,NA,Georgia Strait,NA,NA,NA,NA,NA,NA,NA,NA,NA,NA,NA,NA,NA,NA
Seymour Falls,Seymour Falls,Seymour Falls,Seymour Falls,E231001,NA,254,Vancouver,49.44,-122.9714,220,METRO VANCOUVER NON OPERATIONAL,MVRD,02 - Lower Mainland,INACTIVE,1985-01-01T00:00:00Z,NA,38261,Lower Fraser Valley,N,Y,N,N,NA,NA,NA,NA,NA,NA,NA,NA,NA,NA
Shawnigan Lake Discovery Elementary,Shawnigan Lake Discovery Elementary,Shawnigan Lake Discovery Elementary,Shawnigan Lake Discovery Elementary,E303793,NA,477,Victoria,48.652778,-123.651944,145,E-BAM NON-OPERATIONAL,ENV,01 - Vancouver Island,INACTIVE,2015-09-16T00:00:00Z,2016-06-02T00:00:00Z,42523,Georgia Strait,NA,NA,NA,NA,NA,NA,NA,NA,NA,NA,NA,NA,NA,NA
Skookumchuck,Skookumchuck,Skookumchuck,Skookumchuck,M115024,NA,366,Cranbrook,49.8369,-115.7458,783,NON OPERATIONAL,ENV,04 - Kootenay,INACTIVE,1987-10-11T00:00:00Z,NA,NA,Southern Interior,NA,NA,NA,NA,NA,NA,NA,NA,NA,NA,NA,NA,NA,NA
Skookumchuck Farstad Way,Skookumchuck Farstad Way,Skookumchuck-Farstad Way,Skookumchuck Farstad Way,E254190,NA,422,Cranbrook,49.905404,-115.755613,746,OPERATIONAL,INDUSTRY,04 - Kootenay,ACTIVE,2011-08-26T00:00:00Z,NA,NA,Southern Interior,NA,NA,NA,NA,NA,NA,NA,NA,NA,NA,NA,NA,NA,NA
Skookumchuck Farstad Way,Skookumchuck Farstad Way,Skookumchuck-Farstad Way,Skookumchuck Farstad Way 60,E254190,NA,543,Cranbrook,49.905404,-115.755613,746,OPERATIONAL,INDUSTRY,04 - Kootenay,ACTIVE,2018-02-09T00:00:00Z,NA,NA,Southern Interior,NA,NA,NA,NA,NA,NA,NA,NA,NA,NA,NA,NA,NA,NA
Skookumchuck Johnson Lake,Skookumchuck Johnson Lake,Skookumchuck-Johnson Lake,Skookumchuck Johnson Lake,E207914,NA,367,Cranbrook,49.9547,-115.7594,828,NON OPERATIONAL,ENV,04 - Kootenay,INACTIVE,1989-10-11T00:00:00Z,NA,NA,Southern Interior,NA,NA,NA,NA,NA,NA,NA,NA,NA,NA,NA,NA,NA,NA
Skookumchuck Moan Road,Skookumchuck Moan Road,Skookumchuck-Moan Road,Skookumchuck Moan Road,E221953,NA,368,Cranbrook,49.8233,-115.7667,783,NON OPERATIONAL,INDUSTRY,04 - Kootenay,INACTIVE,1995-06-21T00:00:00Z,NA,NA,Southern Interior,NA,NA,NA,NA,NA,NA,NA,NA,NA,NA,NA,NA,NA,NA
Smithers Muheim Memorial,Smithers,Smithers,Smithers Muheim Memorial,E315110,102402,560,Smithers,54.7784861,-127.168542,496,OPERATIONAL,ENV,06 - Skeena,ACTIVE,2018-12-18T00:00:00Z,NA,CURRENT,Central Interior,Y,Y,N,Y,PE,SU,P2,R,NE,51. Bulkley-Nechako,"Smithers, T 51 043",NA,NA,NA
Smithers Muheim Memorial,Smithers,Smithers,Smithers Muheim Memorial 60,E315110,102402,563,Smithers,54.7784861,-127.168542,496,OPERATIONAL,ENV,06 - Skeena,ACTIVE,2019-02-01T00:00:00Z,NA,CURRENT,Central Interior,Y,Y,N,Y,PE,SU,P2,R,NE,51. Bulkley-Nechako,"Smithers, T 51 043",NA,NA,NA
Smithers St Josephs,Smithers,Smithers,Smithers St Josephs,E206589,102401,168,Smithers,54.783308,-127.177324,495,NON OPERATIONAL,ENV,06 - Skeena,INACTIVE,1997-03-06T00:00:00Z,2018-12-07T00:00:00Z,43441,Central Interior,Y,Y,N,Y,PE,SU,P2,R,NE,51. Bulkley-Nechako,"Smithers, T 51 043",NA,NA,NA
Smithers St Josephs,Smithers,Smithers,Smithers St Josephs 60,E206589,102401,171,Smithers,54.783,-127.1775,481,NON OPERATIONAL,ENV,06 - Skeena,INACTIVE,1994-11-21T00:00:00Z,2018-12-08T00:00:00Z,43441,Central Interior,Y,Y,N,Y,PE,SU,P2,R,NE,51. Bulkley-Nechako,"Smithers, T 51 043",NA,NA,NA
Sooke Elementary,Sooke Elementary,Sooke Elementary,Sooke Elementary,E327691,NA,588,Sooke,48.3802249,-123.716,NA,E-BAM OPERATIONAL,ENV,01 - Vancouver Island,ACTIVE,2021-11-23T00:00:00Z,NA,NA,Georgia Strait,NA,NA,NA,NA,NA,NA,NA,NA,NA,NA,NA,NA,NA,NA
South Langley,South Langley,South Langley,South Langley Met,M110511,NA,337,Langley,49.0042,-122.5611,80,NON OPERATIONAL,ENV,02 - Lower Mainland,INACTIVE,1985-06-19T00:00:00Z,NA,NA,Lower Fraser Valley,NA,NA,NA,NA,NA,NA,NA,NA,NA,NA,NA,NA,NA,NA
Spallumcheen Township Office,Spallumcheen Township Office,Spallumcheen Township Office,Spallumcheen Township Office,E253330,NA,222,Spallumcheen,50.4053,-119.2175,420,NON OPERATIONAL,ENV,03 - Southern Interior,INACTIVE,2010-02-16T00:00:00Z,NA,NA,Southern Interior,NA,NA,NA,NA,NA,NA,NA,NA,NA,NA,NA,NA,NA,NA
SPARE MaintainView,SPARE MaintainView,SPARE_MaintainView,SPARE MaintainView,544,NA,544,Powell River,49.889305,-124.562349,NA,OPERATIONAL,ENV,02 - Lower Mainland,INACTIVE,2018-12-27T00:00:00Z,NA,NA,Georgia Strait,NA,NA,NA,NA,NA,NA,NA,NA,NA,NA,NA,NA,NA,NA
Sparwood Centennial Square,Sparwood Centennial Square,Sparwood,Sparwood Centennial Square,E262137,103021,584,Sparwood,49.7327857,-114.88766,1138,OPERATIONAL,INDUSTRY,04 - Kootenay,ACTIVE,2021-12-01T00:00:00Z,NA,CURRENT,Southern Interior,Y,Y,N,Y,PE,SU,P2,R,na,01. East Kootenay,"Sparwood, DM 01 006",NA,NA,NA
Squamish Elementary,Squamish Elementary,Squamish,Squamish Elementary,E304570,101603,491,Squamish,49.70516,-123.15133,6,OPERATIONAL,ENV,02 - Lower Mainland,ACTIVE,2015-12-17T00:00:00Z,NA,CURRENT,Georgia Strait,Y,Y,Y,Y,PE,SU,P2,C,NE,31. Squamish-Lillooet,"Squamish, DM 31 006","934. Squamish, CA/AR",NA,Y
Squamish Elementary,Squamish Elementary,Squamish,Squamish Elementary 60,E304570,101603,493,Squamish,49.70516,-123.15133,6,OPERATIONAL,ENV,02 - Lower Mainland,ACTIVE,2015-12-17T00:00:00Z,NA,CURRENT,Georgia Strait,Y,Y,Y,Y,PE,SU,P2,C,NE,31. Squamish-Lillooet,"Squamish, DM 31 006","934. Squamish, CA/AR",NA,Y
Squamish Gov t Bldg,Squamish Gov t Bldg,Squamish,Squamish Gov t Bldg,310172,101601,187,Squamish,49.700098,-123.154216,20,NON OPERATIONAL,ENV,02 - Lower Mainland,INACTIVE,1984-01-11T00:00:00Z,NA,42406,Georgia Strait,Y,Y,Y,Y,PE,SU,P2,R,na,31. Squamish-Lillooet,"Squamish, DM 31 006","934. Squamish, CA/AR",NA,NA
Squamish,Squamish,Squamish Gov't Bldg,Squamish 60,M104270,NA,173,Squamish,49.7003,-123.1536,10,NON OPERATIONAL,ENV,02 - Lower Mainland,INACTIVE,1985-05-17T00:00:00Z,NA,NA,Georgia Strait,NA,NA,NA,NA,NA,NA,NA,NA,NA,NA,NA,NA,NA,NA
Stewart,Stewart,Stewart,Stewart,E240336,NA,236,Stewart,55.9419,-129.9889,0,NON OPERATIONAL,ENV,06 - Skeena,INACTIVE,2010-03-15T00:00:00Z,NA,NA,Coastal,NA,NA,NA,NA,NA,NA,NA,NA,NA,NA,NA,NA,NA,NA
Stewart Youth Centre,Stewart Youth Centre,Stewart Youth Centre,Stewart Youth Centre Met 60,E292249,NA,435,Stewart,55.9381,-129.985,13,OPERATIONAL,ENV,06 - Skeena,ACTIVE,2013-02-01T00:00:00Z,NA,NA,Coastal,NA,NA,NA,NA,NA,NA,NA,NA,NA,NA,NA,NA,NA,NA
Strathnaver Meadowbank,Strathnaver Meadowbank,Strathnaver Meadowbank,Strathnaver Meadowbank 60,E278429,NA,128,Strathnaver,53.3002,-122.5214,655,NON OPERATIONAL,INDUSTRY,07 - Omineca-Peace,INACTIVE,2010-02-02T00:00:00Z,NA,NA,Central Interior,NA,NA,NA,NA,NA,NA,NA,NA,NA,NA,NA,NA,NA,NA
Strathnaver Pellet Plant,Strathnaver Pellet Plant,Strathnaver Pellet Plant,Strathnaver Pellet Plant 60,E295549,107200,449,Strathnaver,53.3072,-122.5331,674,NON OPERATIONAL,INDUSTRY,07 - Omineca-Peace,INACTIVE,2013-10-30T00:00:00Z,NA,NA,Central Interior,NA,NA,NA,NA,RB,NU,P1,F,RE,41. Cariboo,"Cariboo B, RD 41 021","952. Quesnel, CA/AR",NA,NA
Sumas,Sumas,Sumas,Sumas,M110512,NA,338,Sumas,49.0347,-122.1597,6,NON OPERATIONAL,ENV,02 - Lower Mainland,INACTIVE,1985-06-27T00:00:00Z,NA,NA,Lower Fraser Valley,NA,NA,NA,NA,NA,NA,NA,NA,NA,NA,NA,NA,NA,NA
Summerland Municipal Hall,Summerland Municipal Hall,Summerland Municipal Hall,Summerland Municipal Hall,E270644,NA,223,Summerland,49.6108,-119.6817,480,NON OPERATIONAL,ENV,03 - Southern Interior,INACTIVE,2010-02-16T00:00:00Z,NA,NA,Southern Interior,NA,NA,NA,NA,NA,NA,NA,NA,NA,NA,NA,NA,NA,NA
Surrey East,Surrey East,Surrey East,Surrey East,E206271,NA,247,Surrey,49.1328,-122.6942,79,METRO VANCOUVER,MVRD,02 - Lower Mainland,ACTIVE,1984-01-04T00:00:00Z,NA,CURRENT,Lower Fraser Valley,Y,Y,N,Y,NA,NA,NA,NA,NA,NA,NA,NA,NA,NA
Surrey Echo,Surrey Echo,Surrey Echo,Surrey Echo,M110513,NA,339,Surrey,49.1897,-122.7975,82,NON OPERATIONAL,ENV,02 - Lower Mainland,INACTIVE,1985-05-30T00:00:00Z,NA,NA,Lower Fraser Valley,NA,NA,NA,NA,NA,NA,NA,NA,NA,NA,NA,NA,NA,NA
Taylor Farm 247 Road,Taylor Farm 247 Road,Taylor-Farm 247 Road,Taylor Farm 247 Road,E326011,NA,582,Taylor,56.1532,-120.61,620,OPERATIONAL,INDUSTRY,07 - Omineca-Peace,ACTIVE,2021-09-17T00:00:00Z,NA,CURRENT,Northeast,N,N,Y,Y,NA,NA,NA,NA,NA,NA,NA,NA,NA,N
Taylor Farmhouse,Taylor Farmhouse,Taylor-Farmhouse,Taylor Farmhouse,770707,NA,409,Taylor,56.1667,-120.675,0,NON OPERATIONAL,INDUSTRY,07 - Omineca-Peace,INACTIVE,1993-01-04T00:00:00Z,NA,35826,Northeast,N,N,Y,N,NA,NA,NA,NA,NA,NA,NA,NA,NA,NA
Taylor Lone Wolf Golf Course,Taylor Lone Wolf Golf Course,Taylor,Taylor Lone Wolf Golf Course,E304685,NA,497,Taylor,56.16013,-120.67594,488,NON OPERATIONAL,ENV,07 - Omineca-Peace,INACTIVE,2016-01-27T00:00:00Z,NA,43164,Northeast,Y,Y,Y,Y,NA,NA,NA,NA,NA,NA,NA,NA,NA,NA
Taylor Lone Wolf Golf Course,Taylor Lone Wolf Golf Course,Taylor,Taylor Lone Wolf Golf Course 60,E304685,NA,499,Taylor,56.16013,-120.67594,488,NON OPERATIONAL,ENV,07 - Omineca-Peace,INACTIVE,2016-01-26T00:00:00Z,NA,43164,Northeast,Y,Y,Y,Y,NA,NA,NA,NA,NA,NA,NA,NA,NA,NA
Taylor South Hill,Taylor South Hill,Taylor-SouthHill,Taylor South Hill,E234230,104302,580,Taylor,56.105871,-120.662779,689,OPERATIONAL,INDUSTRY,07 - Omineca-Peace,ACTIVE,2020-09-22T00:00:00Z,NA,CURRENT,Northeast,N,N,Y,N,RB,NU,P1,F,MD,55. Peace River D,"Peace River D, RDA 55 021","977. Fort St. John, CA/AR",NA,N
Taylor South Hill,Taylor South Hill,Taylor-SouthHill,Taylor South Hill 60,E234230,104302,176,Taylor,56.105871,-120.662779,689,NON OPERATIONAL,INDUSTRY,07 - Omineca-Peace,INACTIVE,1998-03-02T00:00:00Z,NA,CURRENT,Northeast,N,N,Y,N,RB,NU,P1,F,MD,55. Peace River D,"Peace River D, RDA 55 021","977. Fort St. John, CA/AR",NA,NA
Taylor Townsite,Taylor Townsite,Taylor-Townsite,Taylor Townsite,770708,104301,179,Taylor,56.150186,-120.686985,474,OPERATIONAL,INDUSTRY,07 - Omineca-Peace,ACTIVE,1993-04-01T00:00:00Z,NA,CURRENT,Northeast,N,Y,Y,Y,PS,NU,P2,O,NE,55. Peace River D,"Taylor, DM 55 030","977. Fort St. John, CA/AR",NA,NA
Taylor Willow Drive,Taylor Willow Drive,Taylor-Willow Drive,Taylor Willow Drive,Taylor OGC CAMEL,NA,556,Taylor,56.144931,-120.678956,0,BC OGC MOBILE,BC OGC,07 - Omineca-Peace,INACTIVE,2018-09-19T00:00:00Z,NA,NA,Northeast,NA,NA,NA,NA,NA,NA,NA,NA,NA,NA,NA,NA,NA,NA
Taylor Willow Drive SG,Taylor Willow Drive SG,Taylor-Willow Drive_SG,Taylor Willow Drive SG,Taylor OGC CAMEL,NA,507,Taylor,56.144931,-120.678956,0,BC OGC MOBILE,BC OGC,07 - Omineca-Peace,INACTIVE,2013-11-01T00:00:00Z,2014-01-22T00:00:00Z,41661,Northeast,NA,NA,NA,NA,NA,NA,NA,NA,NA,NA,NA,NA,NA,NA
Telegraph Creek,Telegraph Creek,Telegraph Creek,Telegraph Creek,E233102,NA,391,Telegraph Creek,54.9033,-131.1611,0,NON OPERATIONAL,ENV,06 - Skeena,INACTIVE,1998-07-23T00:00:00Z,NA,NA,NA,NA,NA,NA,NA,NA,NA,NA,NA,NA,NA,NA,NA,NA,NA
Telkwa,Telkwa,Telkwa,Telkwa,E230557,104601,213,Telkwa,54.691479,-127.05434,80,NON OPERATIONAL,ENV,06 - Skeena,INACTIVE,2009-07-01T00:00:00Z,2015-06-24T00:00:00Z,42132,Central Interior,Y,N,N,N,PE,SU,P2,R,NE,51. Bulkley-Nechako,"Telkwa, VL 51 038",NA,NA,NA
Telkwa,Telkwa,Telkwa,Telkwa 60,E230557,104601,182,Telkwa,54.691479,-127.05434,0,OPERATIONAL,ENV,06 - Skeena,ACTIVE,1998-01-20T00:00:00Z,NA,42132,Central Interior,Y,N,N,N,PE,SU,P2,R,NE,51. Bulkley-Nechako,"Telkwa, VL 51 038",NA,NA,NA
Terrace Airport,Terrace Airport,Terrace Airport,Terrace Airport,E220621,NA,392,Terrace,54.4667,-128.5667,0,NON OPERATIONAL,INDUSTRY,06 - Skeena,INACTIVE,1994-08-06T00:00:00Z,NA,34611,Coastal,N,Y,Y,N,NA,NA,NA,NA,NA,NA,NA,NA,NA,NA
Terrace BC Access Centre,Terrace BC Access Centre,Terrace BC Access Centre,Terrace BC Access Centre 60,M107028,102501,185,Terrace,54.5183,-128.5975,510,NON OPERATIONAL,ENV,06 - Skeena,INACTIVE,1996-06-13T00:00:00Z,2015-05-06T00:00:00Z,42130,Coastal,Y,N,N,N,PE,SU,P3,R,NE,49. Kitimat-Stikine,"Terrace, CY 49 011","965. Terrace, CA/AR",NA,NA
Terrace Skeena Middle School,Terrace Skeena Middle School,Terrace,Terrace Skeena Middle School,E300350,102503,471,Terrace,54.52167,-128.6075,81,OPERATIONAL,ENV,06 - Skeena,ACTIVE,2014-12-08T00:00:00Z,NA,CURRENT,Coastal,Y,Y,Y,Y,PE,SU,P3,R,na,49. Kitimat-Stikine,"Terrace, CY 49 011","965. Terrace, CA/AR",NA,NA
Terrace Skeena Middle School,Terrace Skeena Middle School,Terrace,Terrace Skeena Middle School 60,E300350,102503,473,Terrace,54.52167,-128.6075,81,OPERATIONAL,ENV,06 - Skeena,ACTIVE,2014-11-28T00:00:00Z,NA,CURRENT,Coastal,Y,Y,Y,Y,PE,SU,P3,R,na,49. Kitimat-Stikine,"Terrace, CY 49 011","965. Terrace, CA/AR",NA,NA
Tomslake 197 Rd East,Tomslake 197 Rd East,Tomslake 197 Rd East,Tomslake 197 Rd East,E295891,104305,456,Tomslake,55.59015,-120.08583,765,NON OPERATIONAL,ENV,07 - Omineca-Peace,INACTIVE,2013-12-09T00:00:00Z,2015-11-30T00:00:00Z,42338,Northeast,N,N,Y,N,RB,NU,P1,A,MD,55. Peace River D,"Peace River D, RDA 55 021",NA,NA,NA
Tomslake 197 Rd East,Tomslake 197 Rd East,Tomslake 197 Rd East,Tomslake 197 Rd East Met 60,E295891,104305,466,Tomslake,55.59015,-120.08583,765,NON OPERATIONAL,ENV,07 - Omineca-Peace,INACTIVE,2014-05-05T00:00:00Z,NA,42338,Northeast,N,N,Y,N,RB,NU,P1,A,MD,55. Peace River D,"Peace River D, RDA 55 021",NA,NA,NA
Tomslake MAML,Tomslake MAML,Tomslake MAML,Tomslake MAML,E279629,NA,265,Dawson Creek,55.5564,-120.0814,0,MOBILE NON OPERATIONAL,ENV,07 - Omineca-Peace,INACTIVE,2010-05-14T00:00:00Z,NA,40350,Northeast,Y,Y,Y,Y,NA,NA,NA,NA,NA,NA,NA,NA,NA,NA
Trail Aquatic Centre,Trail Aquatic Centre,Trail-Aquatic Centre,Trail Aquatic Centre,E269123,NA,186,Trail,49.0955,-117.6972,486,NON OPERATIONAL,ENV,04 - Kootenay,INACTIVE,2007-09-10T00:00:00Z,2010-02-25T00:00:00Z,40234,Southern Interior,Y,Y,Y,Y,NA,NA,NA,NA,NA,NA,NA,NA,NA,NA
Trail Butler Park,Trail Butler Park,Trail-Butler Park,Trail Butler Park,250009,102201,190,Trail,49.096218,-117.697828,422,OPERATIONAL,INDUSTRY,04 - Kootenay,ACTIVE,1972-01-03T00:00:00Z,NA,CURRENT,Southern Interior,N,N,Y,N,PS,SU,P2,R,NE,05. Kootenay Boundary,"Trail, CY 05 014",NA,NA,NA
Trail Butler Park,Trail Butler Park,Trail-Butler Park,Trail Butler Park Met 60,250009,102201,189,Trail,49.096218,-117.697828,423,OPERATIONAL,INDUSTRY,04 - Kootenay,ACTIVE,1985-10-17T00:00:00Z,NA,CURRENT,Southern Interior,N,N,Y,N,PS,SU,P2,R,NE,05. Kootenay Boundary,"Trail, CY 05 014",NA,NA,NA
Trail Columbia Gardens Airport,Trail Columbia Gardens Airport,Trail-Airport,Trail Columbia Gardens Airport,260012,102210,264,Trail,49.046405,-117.60711,428,OPERATIONAL,INDUSTRY,04 - Kootenay,ACTIVE,2010-06-05T00:00:00Z,NA,CURRENT,Southern Interior,N,N,Y,N,PS,SU,P2,C,NE,05. Kootenay Boundary,"Kootenay Boundary A, RDA 05 026",NA,NA,NA
Trail Columbia Gardens Airport,Trail Columbia Gardens Airport,Trail-Airport,Trail Columbia Gardens Airport 60,E237758,NA,192,Trail,49.046405,-117.60711,428,OPERATIONAL,INDUSTRY,04 - Kootenay,ACTIVE,1999-06-23T00:00:00Z,NA,CURRENT,Southern Interior,N,N,Y,N,NA,NA,NA,NA,NA,NA,NA,NA,NA,NA
Trail Downtown,Trail Downtown,Trail-Downtown,Trail Downtown,260010,NA,369,Trail,49.0953,-117.6508,417,NON OPERATIONAL,INDUSTRY,04 - Kootenay,INACTIVE,1982-01-01T00:00:00Z,NA,37956,Southern Interior,N,N,Y,N,NA,NA,NA,NA,NA,NA,NA,NA,NA,NA
Trail Glenmerry,Trail Glenmerry,Trail-Glenmerry,Trail Glenmerry,260026,NA,370,Trail,49.0967,-117.6686,458,NON OPERATIONAL,INDUSTRY,04 - Kootenay,INACTIVE,1986-12-24T00:00:00Z,NA,36892,Southern Interior,N,N,Y,N,NA,NA,NA,NA,NA,NA,NA,NA,NA,NA
Trail Hospital,Trail Hospital,Trail-Hospital,Trail Hospital,260023,NA,371,Trail,49.1031,-117.6833,457,NON OPERATIONAL,INDUSTRY,04 - Kootenay,INACTIVE,1995-01-07T00:00:00Z,NA,36892,Southern Interior,N,N,Y,N,NA,NA,NA,NA,NA,NA,NA,NA,NA,NA
Trail Oasis,Trail Oasis,Trail-Oasis,Trail Oasis,260022,NA,372,Trail,49.1331,-117.7456,555,NON OPERATIONAL,INDUSTRY,04 - Kootenay,INACTIVE,1982-01-01T00:00:00Z,NA,36771,Southern Interior,N,N,Y,N,NA,NA,NA,NA,NA,NA,NA,NA,NA,NA
Trail West,Trail West,Trail-West,Trail West,E222141,NA,373,Trail,49.0936,-117.7014,488,NON OPERATIONAL,INDUSTRY,04 - Kootenay,INACTIVE,1995-05-21T00:00:00Z,NA,38211,Southern Interior,N,N,Y,N,NA,NA,NA,NA,NA,NA,NA,NA,NA,NA
Tsawwassen,Tsawwassen,Tsawwassen,Tsawwassen,E283549,NA,273,Delta,49.0099,-123.082,52,METRO VANCOUVER,MVRD,02 - Lower Mainland,ACTIVE,2010-04-08T00:00:00Z,NA,CURRENT,Lower Fraser Valley,Y,Y,Y,Y,NA,NA,NA,NA,NA,NA,NA,NA,NA,NA
Tumbler Ridge Lions Flatbed Creek Campground,Tumbler Ridge Lions Flatbed Creek Campground,Tumbler Ridge Lions Flatbed Creek Campground,Tumbler Ridge Lions Flatbed Creek Campground,Tumbler Ridge OGC CAMEL,NA,509,Tumbler Ridge,55.119369,-121.019111,0,BC OGC MOBILE,BC OGC,07 - Omineca-Peace,INACTIVE,2014-07-07T00:00:00Z,2014-09-22T00:00:00Z,41904,Northeast,NA,NA,NA,NA,NA,NA,NA,NA,NA,NA,NA,NA,NA,NA
Ucluelet Amphitrite Point,Ucluelet Amphitrite Point,Ucluelet Amphitrite Point,Ucluelet Amphitrite Point,E282169,106800,266,Ucluelet,48.921799,-125.541209,14,NON OPERATIONAL,ENV,01 - Vancouver Island,INACTIVE,2010-05-14T00:00:00Z,2017-07-18T00:00:00Z,40544,Coastal,N,N,N,Y,RB,SU,P2,W,UR,23. Alberni-Clayoquot,"Ucluelet, DM 23 019",NA,NA,NA
Ucluelet Amphitrite Point,Ucluelet Amphitrite Point,Ucluelet Amphitrite Point,Ucluelet Amphitrite Point Met 60,E282169,106800,277,Ucluelet,48.921799,-125.541209,14,NON OPERATIONAL,ENV,01 - Vancouver Island,INACTIVE,2010-09-24T00:00:00Z,NA,40544,Coastal,N,N,N,Y,RB,SU,P2,W,UR,23. Alberni-Clayoquot,"Ucluelet, DM 23 019",NA,NA,NA
Valemount,Valemount,Valemount,Valemount,E234293,106101,440,Valemount,52.832459,-119.269821,800,OPERATIONAL,ENV,07 - Omineca-Peace,ACTIVE,2013-03-01T00:00:00Z,NA,CURRENT,Central Interior,Y,N,N,N,RB,NU,P2,R,na,53. Fraser-Fort George,"Valemount, Vl 53 007",NA,NA,NA
Valemount,Valemount,Valemount,Valemount Met 60,E234293,106101,209,Valemount,52.833,-119.268,792,OPERATIONAL,ENV,07 - Omineca-Peace,ACTIVE,2008-11-13T00:00:00Z,NA,CURRENT,Central Interior,Y,N,N,N,RB,NU,P2,R,na,53. Fraser-Fort George,"Valemount, Vl 53 007",NA,NA,NA
Vancouver Clark Drive,Vancouver Clark Drive,Vancouver-ClarkDr,Vancouver Clark Drive,E316370,NA,565,Vancouver,49.26029,-123.077811,29,METRO VANCOUVER,MVRD,02 - Lower Mainland,ACTIVE,2018-01-02T00:00:00Z,NA,CURRENT,Lower Fraser Valley,Y,Y,Y,Y,NA,NA,NA,NA,NA,NA,NA,NA,NA,NA
Vancouver Clark Drive,Vancouver Clark Drive,Vancouver-ClarkDr,Vancouver Clark Drive Met,E316370,NA,577,Vancouver,49.26029,-123.077811,29,METRO VANCOUVER,MVRD,02 - Lower Mainland,ACTIVE,2020-06-10T00:00:00Z,NA,CURRENT,Lower Fraser Valley,Y,Y,Y,Y,NA,NA,NA,NA,NA,NA,NA,NA,NA,NA
Vancouver International Airport 2,Vancouver International Airport 2,Richmond-Airport,Vancouver International Airport 2,E232246,NA,259,Richmond,49.1864,-123.1522,10,METRO VANCOUVER,MVRD,02 - Lower Mainland,ACTIVE,1998-01-02T00:00:00Z,NA,CURRENT,Lower Fraser Valley,Y,Y,Y,Y,NA,NA,NA,NA,NA,NA,NA,NA,NA,NA
Vancouver Kitsilano,Vancouver Kitsilano,Vancouver-Kitsilano,Vancouver Kitsilano,310175,NA,241,Vancouver,49.2617,-123.1633,34,METRO VANCOUVER NON OPERATIONAL,MVRD,02 - Lower Mainland,INACTIVE,2010-03-16T00:00:00Z,NA,41780,Lower Fraser Valley,Y,Y,Y,Y,NA,NA,NA,NA,NA,NA,NA,NA,NA,NA
Vancouver Marpole,Vancouver Marpole,Vancouver-Marpole,Vancouver Marpole,310176,NA,340,Vancouver,49.2097,-123.1139,27,METRO VANCOUVER NON OPERATIONAL,MVRD,02 - Lower Mainland,INACTIVE,1973-01-08T00:00:00Z,NA,34095,Lower Fraser Valley,N,Y,N,Y,NA,NA,NA,NA,NA,NA,NA,NA,NA,NA
Vancouver Pandora Park,Vancouver Pandora Park,Vancouver-Pandora Park,Vancouver Pandora Park,E316371,NA,566,Vancouver,49.282286,-123.057608,156,METRO VANCOUVER,MVRD,02 - Lower Mainland,INACTIVE,2019-04-24T00:00:00Z,NA,44162,Lower Fraser Valley,N,N,Y,N,NA,NA,NA,NA,NA,NA,NA,NA,NA,NA
Vancouver Robson Square,Vancouver Robson Square,Vancouver-Downtown,Vancouver Robson Square,310174,NA,240,Vancouver,49.2822,-123.1219,56,METRO VANCOUVER,MVRD,02 - Lower Mainland,ACTIVE,1975-01-02T00:00:00Z,NA,CURRENT,Lower Fraser Valley,N,Y,Y,Y,NA,NA,NA,NA,NA,NA,NA,NA,NA,NA
Vanderhoof Courthouse,Vanderhoof Courthouse,Vanderhoof,Vanderhoof Courthouse,E269223,106900,212,Vanderhoof,54.0163,-124.0061,638,OPERATIONAL,ENV,07 - Omineca-Peace,ACTIVE,2009-12-08T00:00:00Z,NA,CURRENT,Central Interior,Y,N,N,N,PE,SU,P2,R,NE,51. Vanderhoof,"Vanderhoof, DM 51 019",NA,NA,NA
Vanderhoof Courthouse,Vanderhoof Courthouse,Vanderhoof,Vanderhoof Courthouse Met 60,E269223,106900,207,Vanderhoof,54.016476,-124.005724,637,OPERATIONAL,ENV,07 - Omineca-Peace,ACTIVE,2007-05-10T00:00:00Z,NA,CURRENT,Central Interior,Y,N,N,N,PE,SU,P2,R,NE,51. Vanderhoof,"Vanderhoof, DM 51 019",NA,NA,NA
Vernon 37 Avenue,Vernon 37 Avenue,Vernon 37 Avenue,Vernon 37 Avenue,NA,NA,NA,NA,NA,NA,NA,NA,NA,NA,NA,NA,NA,NA,NA,NA,NA,NA,NA,NA,NA,NA,NA,NA,NA,NA,NA,NA,NA
Vernon Airport,Vernon Airport,Vernon Airport,Vernon Airport,E325271,NA,581,Vernon,50.247119,-119.330936,346,E-BAM NON-OPERATIONAL,ENV,03 - Southern Interior,INACTIVE,2021-07-15T00:00:00Z,2022-07-20T00:00:00Z,44762,Southern Interior,NA,NA,NA,NA,NA,NA,NA,NA,NA,NA,NA,NA,NA,NA
Vernon City Hall Mobile,Vernon City Hall Mobile,Vernon City Hall Mobile,Vernon City Hall Mobile,E222853,NA,348,Vernon,50.2661,-119.2708,400,NON OPERATIONAL,ENV,03 - Southern Interior,INACTIVE,1996-01-01T00:00:00Z,NA,35213,Southern Interior,N,Y,Y,Y,NA,NA,NA,NA,NA,NA,NA,NA,NA,NA
Vernon Science Centre,Vernon Science Centre,Vernon,Vernon Science Centre,E249492,104003,11,Vernon,50.260617,-119.270723,476,OPERATIONAL,ENV,03 - Southern Interior,ACTIVE,2002-10-15T00:00:00Z,NA,CURRENT,Southern Interior,Y,Y,Y,Y,T,MU,P3,R,MD,37. North Okanagan,"Coldstream, DM 37 010","918. Vernon, CA/AR",NA,NA
Vernon Science Centre,Vernon Science Centre,Vernon,Vernon Science Centre 60,E249492,104003,194,Vernon,50.260617,-119.270723,476,OPERATIONAL,ENV,03 - Southern Interior,ACTIVE,2002-10-15T00:00:00Z,NA,CURRENT,Southern Interior,Y,Y,Y,Y,T,MU,P3,R,MD,37. North Okanagan,"Coldstream, DM 37 010","918. Vernon, CA/AR",NA,NA
Victoria Air 1,Victoria Air 1,Victoria-Air 1,Victoria Air 1,110000,NA,304,Victoria,48.4244,-123.3597,0,NON OPERATIONAL,ENV,01 - Vancouver Island,INACTIVE,1976-01-01T00:00:00Z,NA,30348,Georgia Strait,N,Y,Y,Y,NA,NA,NA,NA,NA,NA,NA,NA,NA,NA
Victoria Christopher Point,Victoria Christopher Point,Victoria-Christopher Point,Victoria Christopher Point 60,E260701,NA,203,Victoria,48.3094,-123.5619,0,NON OPERATIONAL,INDUSTRY,01 - Vancouver Island,INACTIVE,2005-01-09T00:00:00Z,NA,39814,Georgia Strait,Y,Y,Y,Y,NA,NA,NA,NA,NA,NA,NA,NA,NA,NA
Victoria James Bay Daniels Electronics,Victoria James Bay Daniels Electronics,Victoria-James Bay Daniels Electronics,Victoria James Bay Daniels Electronics,E285559,100317,413,Victoria,48.4208,-123.3828,22,NON OPERATIONAL,ENV,01 - Vancouver Island,INACTIVE,2011-04-12T00:00:00Z,NA,41620,Georgia Strait,N,N,Y,N,T,LU,P5,R,NE,17. Capital,"Victoria, CY 17 034","935. Victoria, CMA/RMR",NA,NA
Victoria James Bay MAML,Victoria James Bay MAML,Victoria-James Bay MAML,Victoria James Bay MAML,E277063,NA,211,Victoria,48.418056,-123.381667,20,MOBILE NON OPERATIONAL,ENV,01 - Vancouver Island,INACTIVE,2009-05-19T00:00:00Z,NA,40049,Georgia Strait,Y,Y,Y,Y,NA,NA,NA,NA,NA,NA,NA,NA,NA,NA
Victoria James Bay The Reef,Victoria James Bay The Reef,Victoria-James Bay The Reef,Victoria James Bay The Reef,E297190,100318,460,Victoria,48.421589,-123.384311,22,NON OPERATIONAL,INDUSTRY,01 - Vancouver Island,INACTIVE,2014-04-02T00:00:00Z,NA,43986,Georgia Strait,N,N,Y,N,T,LU,P5,R,NA,17. Capital,"Victoria, CY 17 034","935. Victoria, CMA/RMR",NA,NA
Victoria PAPS,Victoria PAPS,Victoria-PAPS,Victoria PAPS,110030,NA,305,Victoria,48.4239,-123.3553,22,NON OPERATIONAL,ENV,01 - Vancouver Island,INACTIVE,1983-01-04T00:00:00Z,NA,35733,Georgia Strait,N,Y,Y,Y,NA,NA,NA,NA,NA,NA,NA,NA,NA,NA
Victoria Royal Roads University,Victoria Royal Roads University,Victoria-Royal Roads,Victoria Royal Roads University,110031,NA,20,Victoria,48.43,-123.4686,1,NON OPERATIONAL,INDUSTRY,01 - Vancouver Island,INACTIVE,1998-03-03T00:00:00Z,NA,39814,Georgia Strait,Y,Y,Y,Y,NA,NA,NA,NA,NA,NA,NA,NA,NA,NA
Victoria Royal Roads,Victoria Royal Roads,Victoria-Royal Roads University,Victoria Royal Roads 60,110031,NA,205,Victoria,48.43,-123.4686,1,NON OPERATIONAL,INDUSTRY,01 - Vancouver Island,INACTIVE,1998-03-03T00:00:00Z,NA,NA,Georgia Strait,NA,NA,NA,NA,NA,NA,NA,NA,NA,NA,NA,NA,NA,NA
Victoria Topaz,Victoria Topaz,Victoria,Victoria Topaz,E231866,100304,4,Victoria,48.441942,-123.363165,29,OPERATIONAL,ENV,01 - Vancouver Island,ACTIVE,1998-05-01T00:00:00Z,NA,CURRENT,Georgia Strait,Y,Y,Y,Y,T,LU,P6,R,NE,17. Capital,"Victoria, CY 17 034","935. Victoria, CMA/RMR",2,Y
Victoria Topaz,Victoria Topaz,Victoria,Victoria Topaz Met 60,E231866,100304,8,Victoria,48.441942,-123.363165,29,OPERATIONAL,ENV,01 - Vancouver Island,ACTIVE,1998-05-01T00:00:00Z,NA,CURRENT,Georgia Strait,Y,Y,Y,Y,T,LU,P6,R,NE,17. Capital,"Victoria, CY 17 034","935. Victoria, CMA/RMR",2,Y
Warfield Elementary,Warfield Elementary,Warfield Elementary,Warfield Elementary,260011,102220,283,Warfield,49.0952,-117.7469,604,OPERATIONAL,INDUSTRY,04 - Kootenay,ACTIVE,2002-01-03T00:00:00Z,NA,CURRENT,Southern Interior,N,N,Y,N,T,SU,P2,R,NA,05. Kootenay Boundary,"Warfield, VL 05 018",NA,NA,N
Warfield Elementary,Warfield Elementary,Warfield Elementary,Warfield Elementary Met 60,260011,102220,196,Warfield,49.095439,-117.74683,610,OPERATIONAL,INDUSTRY,04 - Kootenay,ACTIVE,1982-01-01T00:00:00Z,NA,CURRENT,Southern Interior,N,N,Y,N,T,SU,P2,R,NA,05. Kootenay Boundary,"Warfield, VL 05 018",NA,NA,N
Warfield Haley Park,Warfield Haley Park,Warfield Haley Park,Warfield Haley Park,Warfield Haley Park,NA,587,Warfield,49.097249,-117.74374,675,OPERATIONAL,INDUSTRY,04 - Kootenay,INACTIVE,2022-02-23T00:00:00Z,NA,NA,Southern Interior,NA,NA,NA,NA,NA,NA,NA,NA,NA,NA,NA,NA,NA,NA
Warfield Haley Park,Warfield Haley Park,Warfield Haley Park,Warfield Haley Park Met 60,NA,NA,NA,NA,NA,NA,NA,NA,NA,NA,NA,NA,NA,NA,NA,NA,NA,NA,NA,NA,NA,NA,NA,NA,NA,NA,NA,NA,NA
Wells,Wells,Wells,Wells,M109011,NA,377,Wells,53.0983,-123.5786,1207,NON OPERATIONAL,ENV,05 - Cariboo,INACTIVE,1990-07-25T00:00:00Z,NA,NA,Central Interior,NA,NA,NA,NA,NA,NA,NA,NA,NA,NA,NA,NA,NA,NA
West Vancouver Lions Gate,West Vancouver Lions Gate,West Vancouver-Lions Gate,West Vancouver Lions Gate,310180,NA,341,West Vancouver,49.3181,-123.1347,15,METRO VANCOUVER NON OPERATIONAL,MVRD,02 - Lower Mainland,INACTIVE,1980-01-08T00:00:00Z,NA,34243,Lower Fraser Valley,N,Y,N,N,NA,NA,NA,NA,NA,NA,NA,NA,NA,NA
Whistler Function Junction MAML,Whistler Function Junction MAML,Whistler Function Junction MAML,Whistler Function Junction MAML,E278652,NA,217,Whistler,50.0856,-123.0383,593,NON OPERATIONAL,ENV,02 - Lower Mainland,INACTIVE,2010-01-27T00:00:00Z,NA,40283,Georgia Strait,Y,Y,Y,Y,NA,NA,NA,NA,NA,NA,NA,NA,NA,NA
Whistler Meadow Park,Whistler Meadow Park,Whistler,Whistler Meadow Park,E227431,105001,197,Whistler,50.144285000000004,-122.960402,638,OPERATIONAL,ENV,02 - Lower Mainland,ACTIVE,2001-04-24T00:00:00Z,NA,CURRENT,Georgia Strait,Y,Y,N,Y,PE,SU,P2,P,NE,31. Squamish-Lillooet,"Whistler, DM 31 020",NA,NA,Y
Williams Lake 168 Mile Road,Williams Lake 168 Mile Road,Williams Lake-168 Mile Road,Williams Lake 168 Mile Road,E229457,NA,229,Williams Lake,51.6461,-121.2937,0,NON OPERATIONAL,ENV,05 - Cariboo,INACTIVE,2010-02-16T00:00:00Z,NA,NA,Central Interior,NA,NA,NA,NA,NA,NA,NA,NA,NA,NA,NA,NA,NA,NA
Williams Lake Canadian Tire,Williams Lake Canadian Tire,Williams Lake-Canadian Tire,Williams Lake Canadian Tire Met 60,E248623,NA,199,Williams Lake,52.1175,-122.1313,578,OPERATIONAL,ENV,05 - Cariboo,INACTIVE,2002-06-13T00:00:00Z,NA,NA,Central Interior,NA,NA,NA,NA,NA,NA,NA,NA,NA,NA,NA,NA,NA,NA
Williams Lake Columneetza School,Williams Lake Columneetza School,Williams Lake,Williams Lake Columneetza School,550502,102701,16,Williams Lake,52.14428,-122.150391,631,OPERATIONAL,ENV,05 - Cariboo,ACTIVE,1992-04-15T00:00:00Z,NA,CURRENT,Central Interior,Y,Y,Y,Y,PE,SU,P3,R,NE,41. Cariboo,"Williams Lake, CY 41 009","950. Williams Lake, CA/AR",NA,NA
Williams Lake Columneetza School,Williams Lake Columneetza School,Williams Lake,Williams Lake Columneetza School 60,550502,102701,549,Williams Lake,52.14428,-122.150391,631,OPERATIONAL,ENV,05 - Cariboo,ACTIVE,2018-08-01T00:00:00Z,NA,CURRENT,Central Interior,Y,Y,Y,Y,PE,SU,P3,R,NE,41. Cariboo,"Williams Lake, CY 41 009","950. Williams Lake, CA/AR",NA,NA
Williams Lake CRD Library,Williams Lake CRD Library,Williams Lake-CRD Library,Williams Lake CRD Library,E248797,102706,200,Williams Lake,52.13083,-122.14222,609,NON OPERATIONAL,ENV,05 - Cariboo,INACTIVE,2002-07-26T00:00:00Z,2014-06-17T00:00:00Z,41333,Central Interior,Y,N,N,N,PE,SU,P3,R,NE,41. Cariboo,"Williams Lake, CY 41 009","950. Williams Lake, CA/AR",NA,NA
Williams Lake Skyline School,Williams Lake Skyline School,Williams Lake-Skyline School,Williams Lake Skyline School,605020,NA,378,Williams Lake,52.1161,-122.1325,650,NON OPERATIONAL,ENV,05 - Cariboo,INACTIVE,2001-08-08T00:00:00Z,NA,39538,Central Interior,Y,N,N,N,NA,NA,NA,NA,NA,NA,NA,NA,NA,NA
Williams Lake Water Tower,Williams Lake Water Tower,Williams Lake-Water Tower,Williams Lake Water Tower,E222242,NA,230,Williams Lake,51.6461,-121.2937,0,NON OPERATIONAL,ENV,05 - Cariboo,INACTIVE,2010-02-16T00:00:00Z,NA,NA,Central Interior,NA,NA,NA,NA,NA,NA,NA,NA,NA,NA,NA,NA,NA,NA
Willow Creek Mine,Willow Creek Mine,Willow Creek Mine,Willow Creek Mine,NA,NA,NA,NA,NA,NA,NA,NA,NA,NA,NA,NA,NA,NA,NA,NA,NA,NA,NA,NA,NA,NA,NA,NA,NA,NA,NA,NA,NA
Willow Flats Compressor Station 2,Willow Flats Compressor Station 2,Willow Flats Compressor Station 2,Willow Flats Compressor Station 2,E328532,NA,590,Chetwynd,55.6478,-122.2039,630,OPERATIONAL,INDUSTRY,07 - Omineca-Peace,ACTIVE,2022-05-26T00:00:00Z,NA,NA,Northeast,NA,NA,NA,NA,NA,NA,NA,NA,NA,NA,NA,NA,NA,NA
